{"type":"FeatureCollection","features":[{"type":"Feature","geometry":{"type":"Polygon","coordinates":[[[75.9375,8.4375],[77.34375,8.4375],[77.34375,9.84375],[75.9375,9.84375],[75.9375,8.4375]]]},"properties":{"n":36}},{"type":"Feature","geometry":{"type":"Polygon","coordinates":[[[74.53125,11.25],[75.9375,11.25],[75.9375,12.65625],[74.53125,12.65625],[74.53125,11.25]]]},"properties":{"n":28}},{"type":"Feature","geometry":{"type":"Polygon","coordinates":[[[78.75,11.25],[80.15625,11.25],[80.15625,12.65625],[78.75,12.65625],[78.75,11.25]]]},"properties":{"n":13}},{"type":"Feature","geometry":{"type":"Polygon","coordinates":[[[77.34375,7.03125],[78.75,7.03125],[78.75,8.4375],[77.34375,8.4375],[77.34375,7.03125]]]},"properties":{"n":11}},{"type":"Feature","geometry":{"type":"Polygon","coordinates":[[[74.53125,9.84375],[75.9375,9.84375],[75.9375,11.25],[74.53125,11.25],[74.53125,9.84375]]]},"properties":{"n":9}},{"type":"Feature","geometry":{"type":"Polygon","coordinates":[[[57.65625,22.5],[59.0625,22.5],[59.0625,23.90625],[57.65625,23.90625],[57.65625,22.5]]]},"properties":{"n":7}},{"type":"Feature","geometry":{"type":"Polygon","coordinates":[[[73.125,14.0625],[74.53125,14.0625],[74.53125,15.46875],[73.125,15.46875],[73.125,14.0625]]]},"properties":{"n":7}},{"type":"Feature","geometry":{"type":"Polygon","coordinates":[[[73.125,12.65625],[74.53125,12.65625],[74.53125,14.0625],[73.125,14.0625],[73.125,12.65625]]]},"properties":{"n":7}},{"type":"Feature","geometry":{"type":"Polygon","coordinates":[[[119.53125,14.0625],[120.9375,14.0625],[120.9375,15.46875],[119.53125,15.46875],[119.53125,14.0625]]]},"properties":{"n":6}},{"type":"Feature","geometry":{"type":"Polygon","coordinates":[[[74.53125,12.65625],[75.9375,12.65625],[75.9375,14.0625],[74.53125,14.0625],[74.53125,12.65625]]]},"properties":{"n":6}},{"type":"Feature","geometry":{"type":"Polygon","coordinates":[[[73.125,15.46875],[74.53125,15.46875],[74.53125,16.875],[73.125,16.875],[73.125,15.46875]]]},"properties":{"n":5}},{"type":"Feature","geometry":{"type":"Polygon","coordinates":[[[75.9375,9.84375],[77.34375,9.84375],[77.34375,11.25],[75.9375,11.25],[75.9375,9.84375]]]},"properties":{"n":5}},{"type":"Feature","geometry":{"type":"Polygon","coordinates":[[[92.8125,9.84375],[94.21875,9.84375],[94.21875,11.25],[92.8125,11.25],[92.8125,9.84375]]]},"properties":{"n":4}},{"type":"Feature","geometry":{"type":"Polygon","coordinates":[[[57.65625,23.90625],[59.0625,23.90625],[59.0625,25.3125],[57.65625,25.3125],[57.65625,23.90625]]]},"properties":{"n":4}},{"type":"Feature","geometry":{"type":"Polygon","coordinates":[[[74.53125,8.4375],[75.9375,8.4375],[75.9375,9.84375],[74.53125,9.84375],[74.53125,8.4375]]]},"properties":{"n":4}},{"type":"Feature","geometry":{"type":"Polygon","coordinates":[[[80.15625,12.65625],[81.5625,12.65625],[81.5625,14.0625],[80.15625,14.0625],[80.15625,12.65625]]]},"properties":{"n":3}},{"type":"Feature","geometry":{"type":"Polygon","coordinates":[[[75.9375,7.03125],[77.34375,7.03125],[77.34375,8.4375],[75.9375,8.4375],[75.9375,7.03125]]]},"properties":{"n":3}},{"type":"Feature","geometry":{"type":"Polygon","coordinates":[[[105.46875,-7.03125],[106.875,-7.03125],[106.875,-5.625],[105.46875,-5.625],[105.46875,-7.03125]]]},"properties":{"n":3}},{"type":"Feature","geometry":{"type":"Polygon","coordinates":[[[122.34375,11.25],[123.75,11.25],[123.75,12.65625],[122.34375,12.65625],[122.34375,11.25]]]},"properties":{"n":2}},{"type":"Feature","geometry":{"type":"Polygon","coordinates":[[[122.34375,9.84375],[123.75,9.84375],[123.75,11.25],[122.34375,11.25],[122.34375,9.84375]]]},"properties":{"n":2}},{"type":"Feature","geometry":{"type":"Polygon","coordinates":[[[118.125,9.84375],[119.53125,9.84375],[119.53125,11.25],[118.125,11.25],[118.125,9.84375]]]},"properties":{"n":2}},{"type":"Feature","geometry":{"type":"Polygon","coordinates":[[[66.09375,23.90625],[67.5,23.90625],[67.5,25.3125],[66.09375,25.3125],[66.09375,23.90625]]]},"properties":{"n":2}},{"type":"Feature","geometry":{"type":"Polygon","coordinates":[[[50.625,25.3125],[52.03125,25.3125],[52.03125,26.71875],[50.625,26.71875],[50.625,25.3125]]]},"properties":{"n":2}},{"type":"Feature","geometry":{"type":"Polygon","coordinates":[[[71.71875,18.28125],[73.125,18.28125],[73.125,19.6875],[71.71875,19.6875],[71.71875,18.28125]]]},"properties":{"n":2}},{"type":"Feature","geometry":{"type":"Polygon","coordinates":[[[78.75,9.84375],[80.15625,9.84375],[80.15625,11.25],[78.75,11.25],[78.75,9.84375]]]},"properties":{"n":2}},{"type":"Feature","geometry":{"type":"Polygon","coordinates":[[[78.75,8.4375],[80.15625,8.4375],[80.15625,9.84375],[78.75,9.84375],[78.75,8.4375]]]},"properties":{"n":2}},{"type":"Feature","geometry":{"type":"Polygon","coordinates":[[[78.75,7.03125],[80.15625,7.03125],[80.15625,8.4375],[78.75,8.4375],[78.75,7.03125]]]},"properties":{"n":2}},{"type":"Feature","geometry":{"type":"Polygon","coordinates":[[[80.15625,5.625],[81.5625,5.625],[81.5625,7.03125],[80.15625,7.03125],[80.15625,5.625]]]},"properties":{"n":2}},{"type":"Feature","geometry":{"type":"Polygon","coordinates":[[[77.34375,8.4375],[78.75,8.4375],[78.75,9.84375],[77.34375,9.84375],[77.34375,8.4375]]]},"properties":{"n":2}},{"type":"Feature","geometry":{"type":"Polygon","coordinates":[[[88.59375,21.09375],[90,21.09375],[90,22.5],[88.59375,22.5],[88.59375,21.09375]]]},"properties":{"n":1}},{"type":"Feature","geometry":{"type":"Polygon","coordinates":[[[81.5625,15.46875],[82.96875,15.46875],[82.96875,16.875],[81.5625,16.875],[81.5625,15.46875]]]},"properties":{"n":1}},{"type":"Feature","geometry":{"type":"Polygon","coordinates":[[[80.15625,14.0625],[81.5625,14.0625],[81.5625,15.46875],[80.15625,15.46875],[80.15625,14.0625]]]},"properties":{"n":1}},{"type":"Feature","geometry":{"type":"Polygon","coordinates":[[[73.125,9.84375],[74.53125,9.84375],[74.53125,11.25],[73.125,11.25],[73.125,9.84375]]]},"properties":{"n":1}},{"type":"Feature","geometry":{"type":"Polygon","coordinates":[[[52.03125,11.25],[53.4375,11.25],[53.4375,12.65625],[52.03125,12.65625],[52.03125,11.25]]]},"properties":{"n":1}},{"type":"Feature","geometry":{"type":"Polygon","coordinates":[[[36.5625,-1.40625],[37.96875,-1.40625],[37.96875,0],[36.5625,0],[36.5625,-1.40625]]]},"properties":{"n":1}}]}