{"type":"FeatureCollection","features":[{"type":"Feature","geometry":{"type":"Polygon","coordinates":[[[-64.6875,26.71875],[-63.28125,26.71875],[-63.28125,28.125],[-64.6875,28.125],[-64.6875,26.71875]]]},"properties":{"n":1272}},{"type":"Feature","geometry":{"type":"Polygon","coordinates":[[[-66.09375,25.3125],[-64.6875,25.3125],[-64.6875,26.71875],[-66.09375,26.71875],[-66.09375,25.3125]]]},"properties":{"n":1207}},{"type":"Feature","geometry":{"type":"Polygon","coordinates":[[[-63.28125,29.53125],[-61.875,29.53125],[-61.875,30.9375],[-63.28125,30.9375],[-63.28125,29.53125]]]},"properties":{"n":1090}},{"type":"Feature","geometry":{"type":"Polygon","coordinates":[[[-60.46875,30.9375],[-59.0625,30.9375],[-59.0625,32.34375],[-60.46875,32.34375],[-60.46875,30.9375]]]},"properties":{"n":841}},{"type":"Feature","geometry":{"type":"Polygon","coordinates":[[[-64.6875,25.3125],[-63.28125,25.3125],[-63.28125,26.71875],[-64.6875,26.71875],[-64.6875,25.3125]]]},"properties":{"n":744}},{"type":"Feature","geometry":{"type":"Polygon","coordinates":[[[-63.28125,26.71875],[-61.875,26.71875],[-61.875,28.125],[-63.28125,28.125],[-63.28125,26.71875]]]},"properties":{"n":627}},{"type":"Feature","geometry":{"type":"Polygon","coordinates":[[[-59.0625,33.75],[-57.65625,33.75],[-57.65625,35.15625],[-59.0625,35.15625],[-59.0625,33.75]]]},"properties":{"n":604}},{"type":"Feature","geometry":{"type":"Polygon","coordinates":[[[-63.28125,30.9375],[-61.875,30.9375],[-61.875,32.34375],[-63.28125,32.34375],[-63.28125,30.9375]]]},"properties":{"n":523}},{"type":"Feature","geometry":{"type":"Polygon","coordinates":[[[-66.09375,23.90625],[-64.6875,23.90625],[-64.6875,25.3125],[-66.09375,25.3125],[-66.09375,23.90625]]]},"properties":{"n":404}},{"type":"Feature","geometry":{"type":"Polygon","coordinates":[[[-60.46875,29.53125],[-59.0625,29.53125],[-59.0625,30.9375],[-60.46875,30.9375],[-60.46875,29.53125]]]},"properties":{"n":272}},{"type":"Feature","geometry":{"type":"Polygon","coordinates":[[[-59.0625,30.9375],[-57.65625,30.9375],[-57.65625,32.34375],[-59.0625,32.34375],[-59.0625,30.9375]]]},"properties":{"n":248}},{"type":"Feature","geometry":{"type":"Polygon","coordinates":[[[-60.46875,33.75],[-59.0625,33.75],[-59.0625,35.15625],[-60.46875,35.15625],[-60.46875,33.75]]]},"properties":{"n":227}},{"type":"Feature","geometry":{"type":"Polygon","coordinates":[[[-64.6875,29.53125],[-63.28125,29.53125],[-63.28125,30.9375],[-64.6875,30.9375],[-64.6875,29.53125]]]},"properties":{"n":194}},{"type":"Feature","geometry":{"type":"Polygon","coordinates":[[[-59.0625,35.15625],[-57.65625,35.15625],[-57.65625,36.5625],[-59.0625,36.5625],[-59.0625,35.15625]]]},"properties":{"n":125}},{"type":"Feature","geometry":{"type":"Polygon","coordinates":[[[-56.25,33.75],[-54.84375,33.75],[-54.84375,35.15625],[-56.25,35.15625],[-56.25,33.75]]]},"properties":{"n":122}},{"type":"Feature","geometry":{"type":"Polygon","coordinates":[[[-56.25,35.15625],[-54.84375,35.15625],[-54.84375,36.5625],[-56.25,36.5625],[-56.25,35.15625]]]},"properties":{"n":93}},{"type":"Feature","geometry":{"type":"Polygon","coordinates":[[[-68.90625,23.90625],[-67.5,23.90625],[-67.5,25.3125],[-68.90625,25.3125],[-68.90625,23.90625]]]},"properties":{"n":64}},{"type":"Feature","geometry":{"type":"Polygon","coordinates":[[[170.15625,-42.1875],[171.5625,-42.1875],[171.5625,-40.78125],[170.15625,-40.78125],[170.15625,-42.1875]]]},"properties":{"n":61}},{"type":"Feature","geometry":{"type":"Polygon","coordinates":[[[-63.28125,25.3125],[-61.875,25.3125],[-61.875,26.71875],[-63.28125,26.71875],[-63.28125,25.3125]]]},"properties":{"n":57}},{"type":"Feature","geometry":{"type":"Polygon","coordinates":[[[-64.6875,23.90625],[-63.28125,23.90625],[-63.28125,25.3125],[-64.6875,25.3125],[-64.6875,23.90625]]]},"properties":{"n":49}},{"type":"Feature","geometry":{"type":"Polygon","coordinates":[[[170.15625,-43.59375],[171.5625,-43.59375],[171.5625,-42.1875],[170.15625,-42.1875],[170.15625,-43.59375]]]},"properties":{"n":48}},{"type":"Feature","geometry":{"type":"Polygon","coordinates":[[[-54.84375,37.96875],[-53.4375,37.96875],[-53.4375,39.375],[-54.84375,39.375],[-54.84375,37.96875]]]},"properties":{"n":34}},{"type":"Feature","geometry":{"type":"Polygon","coordinates":[[[-63.28125,33.75],[-61.875,33.75],[-61.875,35.15625],[-63.28125,35.15625],[-63.28125,33.75]]]},"properties":{"n":32}},{"type":"Feature","geometry":{"type":"Polygon","coordinates":[[[-56.25,37.96875],[-54.84375,37.96875],[-54.84375,39.375],[-56.25,39.375],[-56.25,37.96875]]]},"properties":{"n":31}},{"type":"Feature","geometry":{"type":"Polygon","coordinates":[[[-54.84375,35.15625],[-53.4375,35.15625],[-53.4375,36.5625],[-54.84375,36.5625],[-54.84375,35.15625]]]},"properties":{"n":29}},{"type":"Feature","geometry":{"type":"Polygon","coordinates":[[[-54.84375,33.75],[-53.4375,33.75],[-53.4375,35.15625],[-54.84375,35.15625],[-54.84375,33.75]]]},"properties":{"n":28}},{"type":"Feature","geometry":{"type":"Polygon","coordinates":[[[-60.46875,26.71875],[-59.0625,26.71875],[-59.0625,28.125],[-60.46875,28.125],[-60.46875,26.71875]]]},"properties":{"n":23}},{"type":"Feature","geometry":{"type":"Polygon","coordinates":[[[-56.25,30.9375],[-54.84375,30.9375],[-54.84375,32.34375],[-56.25,32.34375],[-56.25,30.9375]]]},"properties":{"n":20}},{"type":"Feature","geometry":{"type":"Polygon","coordinates":[[[-119.53125,32.34375],[-118.125,32.34375],[-118.125,33.75],[-119.53125,33.75],[-119.53125,32.34375]]]},"properties":{"n":19}},{"type":"Feature","geometry":{"type":"Polygon","coordinates":[[[147.65625,30.9375],[149.0625,30.9375],[149.0625,32.34375],[147.65625,32.34375],[147.65625,30.9375]]]},"properties":{"n":17}},{"type":"Feature","geometry":{"type":"Polygon","coordinates":[[[-118.125,32.34375],[-116.71875,32.34375],[-116.71875,33.75],[-118.125,33.75],[-118.125,32.34375]]]},"properties":{"n":17}},{"type":"Feature","geometry":{"type":"Polygon","coordinates":[[[-54.84375,39.375],[-53.4375,39.375],[-53.4375,40.78125],[-54.84375,40.78125],[-54.84375,39.375]]]},"properties":{"n":16}},{"type":"Feature","geometry":{"type":"Polygon","coordinates":[[[127.96875,33.75],[129.375,33.75],[129.375,35.15625],[127.96875,35.15625],[127.96875,33.75]]]},"properties":{"n":14}},{"type":"Feature","geometry":{"type":"Polygon","coordinates":[[[154.6875,33.75],[156.09375,33.75],[156.09375,35.15625],[154.6875,35.15625],[154.6875,33.75]]]},"properties":{"n":13}},{"type":"Feature","geometry":{"type":"Polygon","coordinates":[[[151.875,-28.125],[153.28125,-28.125],[153.28125,-26.71875],[151.875,-26.71875],[151.875,-28.125]]]},"properties":{"n":13}},{"type":"Feature","geometry":{"type":"Polygon","coordinates":[[[-32.34375,35.15625],[-30.9375,35.15625],[-30.9375,36.5625],[-32.34375,36.5625],[-32.34375,35.15625]]]},"properties":{"n":13}},{"type":"Feature","geometry":{"type":"Polygon","coordinates":[[[-35.15625,37.96875],[-33.75,37.96875],[-33.75,39.375],[-35.15625,39.375],[-35.15625,37.96875]]]},"properties":{"n":13}},{"type":"Feature","geometry":{"type":"Polygon","coordinates":[[[-36.5625,37.96875],[-35.15625,37.96875],[-35.15625,39.375],[-36.5625,39.375],[-36.5625,37.96875]]]},"properties":{"n":13}},{"type":"Feature","geometry":{"type":"Polygon","coordinates":[[[-39.375,37.96875],[-37.96875,37.96875],[-37.96875,39.375],[-39.375,39.375],[-39.375,37.96875]]]},"properties":{"n":13}},{"type":"Feature","geometry":{"type":"Polygon","coordinates":[[[-119.53125,28.125],[-118.125,28.125],[-118.125,29.53125],[-119.53125,29.53125],[-119.53125,28.125]]]},"properties":{"n":13}},{"type":"Feature","geometry":{"type":"Polygon","coordinates":[[[146.25,-19.6875],[147.65625,-19.6875],[147.65625,-18.28125],[146.25,-18.28125],[146.25,-19.6875]]]},"properties":{"n":12}},{"type":"Feature","geometry":{"type":"Polygon","coordinates":[[[-7.03125,-36.5625],[-5.625,-36.5625],[-5.625,-35.15625],[-7.03125,-35.15625],[-7.03125,-36.5625]]]},"properties":{"n":12}},{"type":"Feature","geometry":{"type":"Polygon","coordinates":[[[-32.34375,33.75],[-30.9375,33.75],[-30.9375,35.15625],[-32.34375,35.15625],[-32.34375,33.75]]]},"properties":{"n":11}},{"type":"Feature","geometry":{"type":"Polygon","coordinates":[[[-66.09375,26.71875],[-64.6875,26.71875],[-64.6875,28.125],[-66.09375,28.125],[-66.09375,26.71875]]]},"properties":{"n":11}},{"type":"Feature","geometry":{"type":"Polygon","coordinates":[[[149.0625,33.75],[150.46875,33.75],[150.46875,35.15625],[149.0625,35.15625],[149.0625,33.75]]]},"properties":{"n":10}},{"type":"Feature","geometry":{"type":"Polygon","coordinates":[[[-22.5,33.75],[-21.09375,33.75],[-21.09375,35.15625],[-22.5,35.15625],[-22.5,33.75]]]},"properties":{"n":10}},{"type":"Feature","geometry":{"type":"Polygon","coordinates":[[[-25.3125,33.75],[-23.90625,33.75],[-23.90625,35.15625],[-25.3125,35.15625],[-25.3125,33.75]]]},"properties":{"n":10}},{"type":"Feature","geometry":{"type":"Polygon","coordinates":[[[-26.71875,33.75],[-25.3125,33.75],[-25.3125,35.15625],[-26.71875,35.15625],[-26.71875,33.75]]]},"properties":{"n":10}},{"type":"Feature","geometry":{"type":"Polygon","coordinates":[[[-50.625,35.15625],[-49.21875,35.15625],[-49.21875,36.5625],[-50.625,36.5625],[-50.625,35.15625]]]},"properties":{"n":10}},{"type":"Feature","geometry":{"type":"Polygon","coordinates":[[[168.75,-42.1875],[170.15625,-42.1875],[170.15625,-40.78125],[168.75,-40.78125],[168.75,-42.1875]]]},"properties":{"n":9}},{"type":"Feature","geometry":{"type":"Polygon","coordinates":[[[153.28125,-28.125],[154.6875,-28.125],[154.6875,-26.71875],[153.28125,-26.71875],[153.28125,-28.125]]]},"properties":{"n":9}},{"type":"Feature","geometry":{"type":"Polygon","coordinates":[[[-16.875,35.15625],[-15.46875,35.15625],[-15.46875,36.5625],[-16.875,36.5625],[-16.875,35.15625]]]},"properties":{"n":9}},{"type":"Feature","geometry":{"type":"Polygon","coordinates":[[[-30.9375,35.15625],[-29.53125,35.15625],[-29.53125,36.5625],[-30.9375,36.5625],[-30.9375,35.15625]]]},"properties":{"n":9}},{"type":"Feature","geometry":{"type":"Polygon","coordinates":[[[-64.6875,30.9375],[-63.28125,30.9375],[-63.28125,32.34375],[-64.6875,32.34375],[-64.6875,30.9375]]]},"properties":{"n":9}},{"type":"Feature","geometry":{"type":"Polygon","coordinates":[[[149.0625,35.15625],[150.46875,35.15625],[150.46875,36.5625],[149.0625,36.5625],[149.0625,35.15625]]]},"properties":{"n":8}},{"type":"Feature","geometry":{"type":"Polygon","coordinates":[[[147.65625,33.75],[149.0625,33.75],[149.0625,35.15625],[147.65625,35.15625],[147.65625,33.75]]]},"properties":{"n":8}},{"type":"Feature","geometry":{"type":"Polygon","coordinates":[[[140.625,37.96875],[142.03125,37.96875],[142.03125,39.375],[140.625,39.375],[140.625,37.96875]]]},"properties":{"n":8}},{"type":"Feature","geometry":{"type":"Polygon","coordinates":[[[-40.78125,37.96875],[-39.375,37.96875],[-39.375,39.375],[-40.78125,39.375],[-40.78125,37.96875]]]},"properties":{"n":8}},{"type":"Feature","geometry":{"type":"Polygon","coordinates":[[[-40.78125,35.15625],[-39.375,35.15625],[-39.375,36.5625],[-40.78125,36.5625],[-40.78125,35.15625]]]},"properties":{"n":8}},{"type":"Feature","geometry":{"type":"Polygon","coordinates":[[[-59.0625,29.53125],[-57.65625,29.53125],[-57.65625,30.9375],[-59.0625,30.9375],[-59.0625,29.53125]]]},"properties":{"n":8}},{"type":"Feature","geometry":{"type":"Polygon","coordinates":[[[-8.4375,-35.15625],[-7.03125,-35.15625],[-7.03125,-33.75],[-8.4375,-33.75],[-8.4375,-35.15625]]]},"properties":{"n":8}},{"type":"Feature","geometry":{"type":"Polygon","coordinates":[[[147.65625,35.15625],[149.0625,35.15625],[149.0625,36.5625],[147.65625,36.5625],[147.65625,35.15625]]]},"properties":{"n":7}},{"type":"Feature","geometry":{"type":"Polygon","coordinates":[[[-28.125,33.75],[-26.71875,33.75],[-26.71875,35.15625],[-28.125,35.15625],[-28.125,33.75]]]},"properties":{"n":7}},{"type":"Feature","geometry":{"type":"Polygon","coordinates":[[[-46.40625,37.96875],[-45,37.96875],[-45,39.375],[-46.40625,39.375],[-46.40625,37.96875]]]},"properties":{"n":7}},{"type":"Feature","geometry":{"type":"Polygon","coordinates":[[[-49.21875,37.96875],[-47.8125,37.96875],[-47.8125,39.375],[-49.21875,39.375],[-49.21875,37.96875]]]},"properties":{"n":7}},{"type":"Feature","geometry":{"type":"Polygon","coordinates":[[[-52.03125,37.96875],[-50.625,37.96875],[-50.625,39.375],[-52.03125,39.375],[-52.03125,37.96875]]]},"properties":{"n":7}},{"type":"Feature","geometry":{"type":"Polygon","coordinates":[[[-49.21875,30.9375],[-47.8125,30.9375],[-47.8125,32.34375],[-49.21875,32.34375],[-49.21875,30.9375]]]},"properties":{"n":7}},{"type":"Feature","geometry":{"type":"Polygon","coordinates":[[[-50.625,29.53125],[-49.21875,29.53125],[-49.21875,30.9375],[-50.625,30.9375],[-50.625,29.53125]]]},"properties":{"n":7}},{"type":"Feature","geometry":{"type":"Polygon","coordinates":[[[125.15625,32.34375],[126.5625,32.34375],[126.5625,33.75],[125.15625,33.75],[125.15625,32.34375]]]},"properties":{"n":6}},{"type":"Feature","geometry":{"type":"Polygon","coordinates":[[[171.5625,-28.125],[172.96875,-28.125],[172.96875,-26.71875],[171.5625,-26.71875],[171.5625,-28.125]]]},"properties":{"n":6}},{"type":"Feature","geometry":{"type":"Polygon","coordinates":[[[154.6875,-23.90625],[156.09375,-23.90625],[156.09375,-22.5],[154.6875,-22.5],[154.6875,-23.90625]]]},"properties":{"n":6}},{"type":"Feature","geometry":{"type":"Polygon","coordinates":[[[151.875,-26.71875],[153.28125,-26.71875],[153.28125,-25.3125],[151.875,-25.3125],[151.875,-26.71875]]]},"properties":{"n":6}},{"type":"Feature","geometry":{"type":"Polygon","coordinates":[[[-18.28125,35.15625],[-16.875,35.15625],[-16.875,36.5625],[-18.28125,36.5625],[-18.28125,35.15625]]]},"properties":{"n":6}},{"type":"Feature","geometry":{"type":"Polygon","coordinates":[[[-18.28125,33.75],[-16.875,33.75],[-16.875,35.15625],[-18.28125,35.15625],[-18.28125,33.75]]]},"properties":{"n":6}},{"type":"Feature","geometry":{"type":"Polygon","coordinates":[[[-21.09375,33.75],[-19.6875,33.75],[-19.6875,35.15625],[-21.09375,35.15625],[-21.09375,33.75]]]},"properties":{"n":6}},{"type":"Feature","geometry":{"type":"Polygon","coordinates":[[[-35.15625,33.75],[-33.75,33.75],[-33.75,35.15625],[-35.15625,35.15625],[-35.15625,33.75]]]},"properties":{"n":6}},{"type":"Feature","geometry":{"type":"Polygon","coordinates":[[[-52.03125,35.15625],[-50.625,35.15625],[-50.625,36.5625],[-52.03125,36.5625],[-52.03125,35.15625]]]},"properties":{"n":6}},{"type":"Feature","geometry":{"type":"Polygon","coordinates":[[[158.90625,33.75],[160.3125,33.75],[160.3125,35.15625],[158.90625,35.15625],[158.90625,33.75]]]},"properties":{"n":5}},{"type":"Feature","geometry":{"type":"Polygon","coordinates":[[[158.90625,-29.53125],[160.3125,-29.53125],[160.3125,-28.125],[158.90625,-28.125],[158.90625,-29.53125]]]},"properties":{"n":5}},{"type":"Feature","geometry":{"type":"Polygon","coordinates":[[[157.5,-29.53125],[158.90625,-29.53125],[158.90625,-28.125],[157.5,-28.125],[157.5,-29.53125]]]},"properties":{"n":5}},{"type":"Feature","geometry":{"type":"Polygon","coordinates":[[[154.6875,-26.71875],[156.09375,-26.71875],[156.09375,-25.3125],[154.6875,-25.3125],[154.6875,-26.71875]]]},"properties":{"n":5}},{"type":"Feature","geometry":{"type":"Polygon","coordinates":[[[156.09375,-28.125],[157.5,-28.125],[157.5,-26.71875],[156.09375,-26.71875],[156.09375,-28.125]]]},"properties":{"n":5}},{"type":"Feature","geometry":{"type":"Polygon","coordinates":[[[153.28125,-26.71875],[154.6875,-26.71875],[154.6875,-25.3125],[153.28125,-25.3125],[153.28125,-26.71875]]]},"properties":{"n":5}},{"type":"Feature","geometry":{"type":"Polygon","coordinates":[[[150.46875,-36.5625],[151.875,-36.5625],[151.875,-35.15625],[150.46875,-35.15625],[150.46875,-36.5625]]]},"properties":{"n":5}},{"type":"Feature","geometry":{"type":"Polygon","coordinates":[[[-4.21875,35.15625],[-2.8125,35.15625],[-2.8125,36.5625],[-4.21875,36.5625],[-4.21875,35.15625]]]},"properties":{"n":5}},{"type":"Feature","geometry":{"type":"Polygon","coordinates":[[[-28.125,37.96875],[-26.71875,37.96875],[-26.71875,39.375],[-28.125,39.375],[-28.125,37.96875]]]},"properties":{"n":5}},{"type":"Feature","geometry":{"type":"Polygon","coordinates":[[[-39.375,35.15625],[-37.96875,35.15625],[-37.96875,36.5625],[-39.375,36.5625],[-39.375,35.15625]]]},"properties":{"n":5}},{"type":"Feature","geometry":{"type":"Polygon","coordinates":[[[-39.375,33.75],[-37.96875,33.75],[-37.96875,35.15625],[-39.375,35.15625],[-39.375,33.75]]]},"properties":{"n":5}},{"type":"Feature","geometry":{"type":"Polygon","coordinates":[[[-42.1875,35.15625],[-40.78125,35.15625],[-40.78125,36.5625],[-42.1875,36.5625],[-42.1875,35.15625]]]},"properties":{"n":5}},{"type":"Feature","geometry":{"type":"Polygon","coordinates":[[[-45,33.75],[-43.59375,33.75],[-43.59375,35.15625],[-45,35.15625],[-45,33.75]]]},"properties":{"n":5}},{"type":"Feature","geometry":{"type":"Polygon","coordinates":[[[-49.21875,33.75],[-47.8125,33.75],[-47.8125,35.15625],[-49.21875,35.15625],[-49.21875,33.75]]]},"properties":{"n":5}},{"type":"Feature","geometry":{"type":"Polygon","coordinates":[[[-50.625,33.75],[-49.21875,33.75],[-49.21875,35.15625],[-50.625,35.15625],[-50.625,33.75]]]},"properties":{"n":5}},{"type":"Feature","geometry":{"type":"Polygon","coordinates":[[[-52.03125,33.75],[-50.625,33.75],[-50.625,35.15625],[-52.03125,35.15625],[-52.03125,33.75]]]},"properties":{"n":5}},{"type":"Feature","geometry":{"type":"Polygon","coordinates":[[[-68.90625,25.3125],[-67.5,25.3125],[-67.5,26.71875],[-68.90625,26.71875],[-68.90625,25.3125]]]},"properties":{"n":5}},{"type":"Feature","geometry":{"type":"Polygon","coordinates":[[[-118.125,30.9375],[-116.71875,30.9375],[-116.71875,32.34375],[-118.125,32.34375],[-118.125,30.9375]]]},"properties":{"n":5}},{"type":"Feature","geometry":{"type":"Polygon","coordinates":[[[127.96875,26.71875],[129.375,26.71875],[129.375,28.125],[127.96875,28.125],[127.96875,26.71875]]]},"properties":{"n":4}},{"type":"Feature","geometry":{"type":"Polygon","coordinates":[[[127.96875,23.90625],[129.375,23.90625],[129.375,25.3125],[127.96875,25.3125],[127.96875,23.90625]]]},"properties":{"n":4}},{"type":"Feature","geometry":{"type":"Polygon","coordinates":[[[123.75,23.90625],[125.15625,23.90625],[125.15625,25.3125],[123.75,25.3125],[123.75,23.90625]]]},"properties":{"n":4}},{"type":"Feature","geometry":{"type":"Polygon","coordinates":[[[154.6875,-28.125],[156.09375,-28.125],[156.09375,-26.71875],[154.6875,-26.71875],[154.6875,-28.125]]]},"properties":{"n":4}},{"type":"Feature","geometry":{"type":"Polygon","coordinates":[[[153.28125,-30.9375],[154.6875,-30.9375],[154.6875,-29.53125],[153.28125,-29.53125],[153.28125,-30.9375]]]},"properties":{"n":4}},{"type":"Feature","geometry":{"type":"Polygon","coordinates":[[[-12.65625,37.96875],[-11.25,37.96875],[-11.25,39.375],[-12.65625,39.375],[-12.65625,37.96875]]]},"properties":{"n":4}},{"type":"Feature","geometry":{"type":"Polygon","coordinates":[[[-14.0625,37.96875],[-12.65625,37.96875],[-12.65625,39.375],[-14.0625,39.375],[-14.0625,37.96875]]]},"properties":{"n":4}},{"type":"Feature","geometry":{"type":"Polygon","coordinates":[[[-14.0625,35.15625],[-12.65625,35.15625],[-12.65625,36.5625],[-14.0625,36.5625],[-14.0625,35.15625]]]},"properties":{"n":4}},{"type":"Feature","geometry":{"type":"Polygon","coordinates":[[[-12.65625,33.75],[-11.25,33.75],[-11.25,35.15625],[-12.65625,35.15625],[-12.65625,33.75]]]},"properties":{"n":4}},{"type":"Feature","geometry":{"type":"Polygon","coordinates":[[[-25.3125,39.375],[-23.90625,39.375],[-23.90625,40.78125],[-25.3125,40.78125],[-25.3125,39.375]]]},"properties":{"n":4}},{"type":"Feature","geometry":{"type":"Polygon","coordinates":[[[-30.9375,39.375],[-29.53125,39.375],[-29.53125,40.78125],[-30.9375,40.78125],[-30.9375,39.375]]]},"properties":{"n":4}},{"type":"Feature","geometry":{"type":"Polygon","coordinates":[[[-32.34375,37.96875],[-30.9375,37.96875],[-30.9375,39.375],[-32.34375,39.375],[-32.34375,37.96875]]]},"properties":{"n":4}},{"type":"Feature","geometry":{"type":"Polygon","coordinates":[[[-30.9375,33.75],[-29.53125,33.75],[-29.53125,35.15625],[-30.9375,35.15625],[-30.9375,33.75]]]},"properties":{"n":4}},{"type":"Feature","geometry":{"type":"Polygon","coordinates":[[[-35.15625,35.15625],[-33.75,35.15625],[-33.75,36.5625],[-35.15625,36.5625],[-35.15625,35.15625]]]},"properties":{"n":4}},{"type":"Feature","geometry":{"type":"Polygon","coordinates":[[[-42.1875,37.96875],[-40.78125,37.96875],[-40.78125,39.375],[-42.1875,39.375],[-42.1875,37.96875]]]},"properties":{"n":4}},{"type":"Feature","geometry":{"type":"Polygon","coordinates":[[[-42.1875,33.75],[-40.78125,33.75],[-40.78125,35.15625],[-42.1875,35.15625],[-42.1875,33.75]]]},"properties":{"n":4}},{"type":"Feature","geometry":{"type":"Polygon","coordinates":[[[-54.84375,30.9375],[-53.4375,30.9375],[-53.4375,32.34375],[-54.84375,32.34375],[-54.84375,30.9375]]]},"properties":{"n":4}},{"type":"Feature","geometry":{"type":"Polygon","coordinates":[[[-80.15625,28.125],[-78.75,28.125],[-78.75,29.53125],[-80.15625,29.53125],[-80.15625,28.125]]]},"properties":{"n":4}},{"type":"Feature","geometry":{"type":"Polygon","coordinates":[[[-8.4375,-32.34375],[-7.03125,-32.34375],[-7.03125,-30.9375],[-8.4375,-30.9375],[-8.4375,-32.34375]]]},"properties":{"n":4}},{"type":"Feature","geometry":{"type":"Polygon","coordinates":[[[151.875,33.75],[153.28125,33.75],[153.28125,35.15625],[151.875,35.15625],[151.875,33.75]]]},"properties":{"n":3}},{"type":"Feature","geometry":{"type":"Polygon","coordinates":[[[135,30.9375],[136.40625,30.9375],[136.40625,32.34375],[135,32.34375],[135,30.9375]]]},"properties":{"n":3}},{"type":"Feature","geometry":{"type":"Polygon","coordinates":[[[130.78125,26.71875],[132.1875,26.71875],[132.1875,28.125],[130.78125,28.125],[130.78125,26.71875]]]},"properties":{"n":3}},{"type":"Feature","geometry":{"type":"Polygon","coordinates":[[[136.40625,-16.875],[137.8125,-16.875],[137.8125,-15.46875],[136.40625,-15.46875],[136.40625,-16.875]]]},"properties":{"n":3}},{"type":"Feature","geometry":{"type":"Polygon","coordinates":[[[175.78125,-30.9375],[177.1875,-30.9375],[177.1875,-29.53125],[175.78125,-29.53125],[175.78125,-30.9375]]]},"properties":{"n":3}},{"type":"Feature","geometry":{"type":"Polygon","coordinates":[[[177.1875,-32.34375],[178.59375,-32.34375],[178.59375,-30.9375],[177.1875,-30.9375],[177.1875,-32.34375]]]},"properties":{"n":3}},{"type":"Feature","geometry":{"type":"Polygon","coordinates":[[[172.96875,-30.9375],[174.375,-30.9375],[174.375,-29.53125],[172.96875,-29.53125],[172.96875,-30.9375]]]},"properties":{"n":3}},{"type":"Feature","geometry":{"type":"Polygon","coordinates":[[[160.3125,-28.125],[161.71875,-28.125],[161.71875,-26.71875],[160.3125,-26.71875],[160.3125,-28.125]]]},"properties":{"n":3}},{"type":"Feature","geometry":{"type":"Polygon","coordinates":[[[158.90625,-28.125],[160.3125,-28.125],[160.3125,-26.71875],[158.90625,-26.71875],[158.90625,-28.125]]]},"properties":{"n":3}},{"type":"Feature","geometry":{"type":"Polygon","coordinates":[[[158.90625,-30.9375],[160.3125,-30.9375],[160.3125,-29.53125],[158.90625,-29.53125],[158.90625,-30.9375]]]},"properties":{"n":3}},{"type":"Feature","geometry":{"type":"Polygon","coordinates":[[[168.75,-40.78125],[170.15625,-40.78125],[170.15625,-39.375],[168.75,-39.375],[168.75,-40.78125]]]},"properties":{"n":3}},{"type":"Feature","geometry":{"type":"Polygon","coordinates":[[[156.09375,-23.90625],[157.5,-23.90625],[157.5,-22.5],[156.09375,-22.5],[156.09375,-23.90625]]]},"properties":{"n":3}},{"type":"Feature","geometry":{"type":"Polygon","coordinates":[[[156.09375,-25.3125],[157.5,-25.3125],[157.5,-23.90625],[156.09375,-23.90625],[156.09375,-25.3125]]]},"properties":{"n":3}},{"type":"Feature","geometry":{"type":"Polygon","coordinates":[[[154.6875,-25.3125],[156.09375,-25.3125],[156.09375,-23.90625],[154.6875,-23.90625],[154.6875,-25.3125]]]},"properties":{"n":3}},{"type":"Feature","geometry":{"type":"Polygon","coordinates":[[[153.28125,-25.3125],[154.6875,-25.3125],[154.6875,-23.90625],[153.28125,-23.90625],[153.28125,-25.3125]]]},"properties":{"n":3}},{"type":"Feature","geometry":{"type":"Polygon","coordinates":[[[156.09375,-29.53125],[157.5,-29.53125],[157.5,-28.125],[156.09375,-28.125],[156.09375,-29.53125]]]},"properties":{"n":3}},{"type":"Feature","geometry":{"type":"Polygon","coordinates":[[[153.28125,-29.53125],[154.6875,-29.53125],[154.6875,-28.125],[153.28125,-28.125],[153.28125,-29.53125]]]},"properties":{"n":3}},{"type":"Feature","geometry":{"type":"Polygon","coordinates":[[[151.875,-33.75],[153.28125,-33.75],[153.28125,-32.34375],[151.875,-32.34375],[151.875,-33.75]]]},"properties":{"n":3}},{"type":"Feature","geometry":{"type":"Polygon","coordinates":[[[-67.5,45],[-66.09375,45],[-66.09375,46.40625],[-67.5,46.40625],[-67.5,45]]]},"properties":{"n":3}},{"type":"Feature","geometry":{"type":"Polygon","coordinates":[[[-8.4375,35.15625],[-7.03125,35.15625],[-7.03125,36.5625],[-8.4375,36.5625],[-8.4375,35.15625]]]},"properties":{"n":3}},{"type":"Feature","geometry":{"type":"Polygon","coordinates":[[[-11.25,33.75],[-9.84375,33.75],[-9.84375,35.15625],[-11.25,35.15625],[-11.25,33.75]]]},"properties":{"n":3}},{"type":"Feature","geometry":{"type":"Polygon","coordinates":[[[-14.0625,30.9375],[-12.65625,30.9375],[-12.65625,32.34375],[-14.0625,32.34375],[-14.0625,30.9375]]]},"properties":{"n":3}},{"type":"Feature","geometry":{"type":"Polygon","coordinates":[[[-32.34375,39.375],[-30.9375,39.375],[-30.9375,40.78125],[-32.34375,40.78125],[-32.34375,39.375]]]},"properties":{"n":3}},{"type":"Feature","geometry":{"type":"Polygon","coordinates":[[[-30.9375,37.96875],[-29.53125,37.96875],[-29.53125,39.375],[-30.9375,39.375],[-30.9375,37.96875]]]},"properties":{"n":3}},{"type":"Feature","geometry":{"type":"Polygon","coordinates":[[[-36.5625,35.15625],[-35.15625,35.15625],[-35.15625,36.5625],[-36.5625,36.5625],[-36.5625,35.15625]]]},"properties":{"n":3}},{"type":"Feature","geometry":{"type":"Polygon","coordinates":[[[-36.5625,33.75],[-35.15625,33.75],[-35.15625,35.15625],[-36.5625,35.15625],[-36.5625,33.75]]]},"properties":{"n":3}},{"type":"Feature","geometry":{"type":"Polygon","coordinates":[[[-50.625,37.96875],[-49.21875,37.96875],[-49.21875,39.375],[-50.625,39.375],[-50.625,37.96875]]]},"properties":{"n":3}},{"type":"Feature","geometry":{"type":"Polygon","coordinates":[[[-46.40625,35.15625],[-45,35.15625],[-45,36.5625],[-46.40625,36.5625],[-46.40625,35.15625]]]},"properties":{"n":3}},{"type":"Feature","geometry":{"type":"Polygon","coordinates":[[[-46.40625,33.75],[-45,33.75],[-45,35.15625],[-46.40625,35.15625],[-46.40625,33.75]]]},"properties":{"n":3}},{"type":"Feature","geometry":{"type":"Polygon","coordinates":[[[-49.21875,35.15625],[-47.8125,35.15625],[-47.8125,36.5625],[-49.21875,36.5625],[-49.21875,35.15625]]]},"properties":{"n":3}},{"type":"Feature","geometry":{"type":"Polygon","coordinates":[[[-50.625,30.9375],[-49.21875,30.9375],[-49.21875,32.34375],[-50.625,32.34375],[-50.625,30.9375]]]},"properties":{"n":3}},{"type":"Feature","geometry":{"type":"Polygon","coordinates":[[[-52.03125,30.9375],[-50.625,30.9375],[-50.625,32.34375],[-52.03125,32.34375],[-52.03125,30.9375]]]},"properties":{"n":3}},{"type":"Feature","geometry":{"type":"Polygon","coordinates":[[[-59.0625,26.71875],[-57.65625,26.71875],[-57.65625,28.125],[-59.0625,28.125],[-59.0625,26.71875]]]},"properties":{"n":3}},{"type":"Feature","geometry":{"type":"Polygon","coordinates":[[[-60.46875,25.3125],[-59.0625,25.3125],[-59.0625,26.71875],[-60.46875,26.71875],[-60.46875,25.3125]]]},"properties":{"n":3}},{"type":"Feature","geometry":{"type":"Polygon","coordinates":[[[172.96875,35.15625],[174.375,35.15625],[174.375,36.5625],[172.96875,36.5625],[172.96875,35.15625]]]},"properties":{"n":2}},{"type":"Feature","geometry":{"type":"Polygon","coordinates":[[[163.125,35.15625],[164.53125,35.15625],[164.53125,36.5625],[163.125,36.5625],[163.125,35.15625]]]},"properties":{"n":2}},{"type":"Feature","geometry":{"type":"Polygon","coordinates":[[[161.71875,35.15625],[163.125,35.15625],[163.125,36.5625],[161.71875,36.5625],[161.71875,35.15625]]]},"properties":{"n":2}},{"type":"Feature","geometry":{"type":"Polygon","coordinates":[[[157.5,33.75],[158.90625,33.75],[158.90625,35.15625],[157.5,35.15625],[157.5,33.75]]]},"properties":{"n":2}},{"type":"Feature","geometry":{"type":"Polygon","coordinates":[[[139.21875,40.78125],[140.625,40.78125],[140.625,42.1875],[139.21875,42.1875],[139.21875,40.78125]]]},"properties":{"n":2}},{"type":"Feature","geometry":{"type":"Polygon","coordinates":[[[139.21875,35.15625],[140.625,35.15625],[140.625,36.5625],[139.21875,36.5625],[139.21875,35.15625]]]},"properties":{"n":2}},{"type":"Feature","geometry":{"type":"Polygon","coordinates":[[[135,33.75],[136.40625,33.75],[136.40625,35.15625],[135,35.15625],[135,33.75]]]},"properties":{"n":2}},{"type":"Feature","geometry":{"type":"Polygon","coordinates":[[[149.0625,30.9375],[150.46875,30.9375],[150.46875,32.34375],[149.0625,32.34375],[149.0625,30.9375]]]},"properties":{"n":2}},{"type":"Feature","geometry":{"type":"Polygon","coordinates":[[[137.8125,30.9375],[139.21875,30.9375],[139.21875,32.34375],[137.8125,32.34375],[137.8125,30.9375]]]},"properties":{"n":2}},{"type":"Feature","geometry":{"type":"Polygon","coordinates":[[[144.84375,26.71875],[146.25,26.71875],[146.25,28.125],[144.84375,28.125],[144.84375,26.71875]]]},"properties":{"n":2}},{"type":"Feature","geometry":{"type":"Polygon","coordinates":[[[126.5625,33.75],[127.96875,33.75],[127.96875,35.15625],[126.5625,35.15625],[126.5625,33.75]]]},"properties":{"n":2}},{"type":"Feature","geometry":{"type":"Polygon","coordinates":[[[133.59375,26.71875],[135,26.71875],[135,28.125],[133.59375,28.125],[133.59375,26.71875]]]},"properties":{"n":2}},{"type":"Feature","geometry":{"type":"Polygon","coordinates":[[[129.375,26.71875],[130.78125,26.71875],[130.78125,28.125],[129.375,28.125],[129.375,26.71875]]]},"properties":{"n":2}},{"type":"Feature","geometry":{"type":"Polygon","coordinates":[[[132.1875,23.90625],[133.59375,23.90625],[133.59375,25.3125],[132.1875,25.3125],[132.1875,23.90625]]]},"properties":{"n":2}},{"type":"Feature","geometry":{"type":"Polygon","coordinates":[[[130.78125,23.90625],[132.1875,23.90625],[132.1875,25.3125],[130.78125,25.3125],[130.78125,23.90625]]]},"properties":{"n":2}},{"type":"Feature","geometry":{"type":"Polygon","coordinates":[[[129.375,23.90625],[130.78125,23.90625],[130.78125,25.3125],[129.375,25.3125],[129.375,23.90625]]]},"properties":{"n":2}},{"type":"Feature","geometry":{"type":"Polygon","coordinates":[[[126.5625,26.71875],[127.96875,26.71875],[127.96875,28.125],[126.5625,28.125],[126.5625,26.71875]]]},"properties":{"n":2}},{"type":"Feature","geometry":{"type":"Polygon","coordinates":[[[127.96875,25.3125],[129.375,25.3125],[129.375,26.71875],[127.96875,26.71875],[127.96875,25.3125]]]},"properties":{"n":2}},{"type":"Feature","geometry":{"type":"Polygon","coordinates":[[[123.75,25.3125],[125.15625,25.3125],[125.15625,26.71875],[123.75,26.71875],[123.75,25.3125]]]},"properties":{"n":2}},{"type":"Feature","geometry":{"type":"Polygon","coordinates":[[[126.5625,23.90625],[127.96875,23.90625],[127.96875,25.3125],[126.5625,25.3125],[126.5625,23.90625]]]},"properties":{"n":2}},{"type":"Feature","geometry":{"type":"Polygon","coordinates":[[[127.96875,22.5],[129.375,22.5],[129.375,23.90625],[127.96875,23.90625],[127.96875,22.5]]]},"properties":{"n":2}},{"type":"Feature","geometry":{"type":"Polygon","coordinates":[[[125.15625,23.90625],[126.5625,23.90625],[126.5625,25.3125],[125.15625,25.3125],[125.15625,23.90625]]]},"properties":{"n":2}},{"type":"Feature","geometry":{"type":"Polygon","coordinates":[[[123.75,22.5],[125.15625,22.5],[125.15625,23.90625],[123.75,23.90625],[123.75,22.5]]]},"properties":{"n":2}},{"type":"Feature","geometry":{"type":"Polygon","coordinates":[[[122.34375,23.90625],[123.75,23.90625],[123.75,25.3125],[122.34375,25.3125],[122.34375,23.90625]]]},"properties":{"n":2}},{"type":"Feature","geometry":{"type":"Polygon","coordinates":[[[126.5625,19.6875],[127.96875,19.6875],[127.96875,21.09375],[126.5625,21.09375],[126.5625,19.6875]]]},"properties":{"n":2}},{"type":"Feature","geometry":{"type":"Polygon","coordinates":[[[123.75,21.09375],[125.15625,21.09375],[125.15625,22.5],[123.75,22.5],[123.75,21.09375]]]},"properties":{"n":2}},{"type":"Feature","geometry":{"type":"Polygon","coordinates":[[[123.75,19.6875],[125.15625,19.6875],[125.15625,21.09375],[123.75,21.09375],[123.75,19.6875]]]},"properties":{"n":2}},{"type":"Feature","geometry":{"type":"Polygon","coordinates":[[[120.9375,21.09375],[122.34375,21.09375],[122.34375,22.5],[120.9375,22.5],[120.9375,21.09375]]]},"properties":{"n":2}},{"type":"Feature","geometry":{"type":"Polygon","coordinates":[[[175.78125,-32.34375],[177.1875,-32.34375],[177.1875,-30.9375],[175.78125,-30.9375],[175.78125,-32.34375]]]},"properties":{"n":2}},{"type":"Feature","geometry":{"type":"Polygon","coordinates":[[[168.75,-30.9375],[170.15625,-30.9375],[170.15625,-29.53125],[168.75,-29.53125],[168.75,-30.9375]]]},"properties":{"n":2}},{"type":"Feature","geometry":{"type":"Polygon","coordinates":[[[168.75,-32.34375],[170.15625,-32.34375],[170.15625,-30.9375],[168.75,-30.9375],[168.75,-32.34375]]]},"properties":{"n":2}},{"type":"Feature","geometry":{"type":"Polygon","coordinates":[[[157.5,-28.125],[158.90625,-28.125],[158.90625,-26.71875],[157.5,-26.71875],[157.5,-28.125]]]},"properties":{"n":2}},{"type":"Feature","geometry":{"type":"Polygon","coordinates":[[[160.3125,-29.53125],[161.71875,-29.53125],[161.71875,-28.125],[160.3125,-28.125],[160.3125,-29.53125]]]},"properties":{"n":2}},{"type":"Feature","geometry":{"type":"Polygon","coordinates":[[[178.59375,-35.15625],[180,-35.15625],[180,-33.75],[178.59375,-33.75],[178.59375,-35.15625]]]},"properties":{"n":2}},{"type":"Feature","geometry":{"type":"Polygon","coordinates":[[[167.34375,-35.15625],[168.75,-35.15625],[168.75,-33.75],[167.34375,-33.75],[167.34375,-35.15625]]]},"properties":{"n":2}},{"type":"Feature","geometry":{"type":"Polygon","coordinates":[[[167.34375,-36.5625],[168.75,-36.5625],[168.75,-35.15625],[167.34375,-35.15625],[167.34375,-36.5625]]]},"properties":{"n":2}},{"type":"Feature","geometry":{"type":"Polygon","coordinates":[[[156.09375,-26.71875],[157.5,-26.71875],[157.5,-25.3125],[156.09375,-25.3125],[156.09375,-26.71875]]]},"properties":{"n":2}},{"type":"Feature","geometry":{"type":"Polygon","coordinates":[[[153.28125,-32.34375],[154.6875,-32.34375],[154.6875,-30.9375],[153.28125,-30.9375],[153.28125,-32.34375]]]},"properties":{"n":2}},{"type":"Feature","geometry":{"type":"Polygon","coordinates":[[[147.65625,-43.59375],[149.0625,-43.59375],[149.0625,-42.1875],[147.65625,-42.1875],[147.65625,-43.59375]]]},"properties":{"n":2}},{"type":"Feature","geometry":{"type":"Polygon","coordinates":[[[123.75,-15.46875],[125.15625,-15.46875],[125.15625,-14.0625],[123.75,-14.0625],[123.75,-15.46875]]]},"properties":{"n":2}},{"type":"Feature","geometry":{"type":"Polygon","coordinates":[[[120.9375,-18.28125],[122.34375,-18.28125],[122.34375,-16.875],[120.9375,-16.875],[120.9375,-18.28125]]]},"properties":{"n":2}},{"type":"Feature","geometry":{"type":"Polygon","coordinates":[[[113.90625,-22.5],[115.3125,-22.5],[115.3125,-21.09375],[113.90625,-21.09375],[113.90625,-22.5]]]},"properties":{"n":2}},{"type":"Feature","geometry":{"type":"Polygon","coordinates":[[[-7.03125,35.15625],[-5.625,35.15625],[-5.625,36.5625],[-7.03125,36.5625],[-7.03125,35.15625]]]},"properties":{"n":2}},{"type":"Feature","geometry":{"type":"Polygon","coordinates":[[[-22.5,39.375],[-21.09375,39.375],[-21.09375,40.78125],[-22.5,40.78125],[-22.5,39.375]]]},"properties":{"n":2}},{"type":"Feature","geometry":{"type":"Polygon","coordinates":[[[-12.65625,35.15625],[-11.25,35.15625],[-11.25,36.5625],[-12.65625,36.5625],[-12.65625,35.15625]]]},"properties":{"n":2}},{"type":"Feature","geometry":{"type":"Polygon","coordinates":[[[-21.09375,37.96875],[-19.6875,37.96875],[-19.6875,39.375],[-21.09375,39.375],[-21.09375,37.96875]]]},"properties":{"n":2}},{"type":"Feature","geometry":{"type":"Polygon","coordinates":[[[-22.5,37.96875],[-21.09375,37.96875],[-21.09375,39.375],[-22.5,39.375],[-22.5,37.96875]]]},"properties":{"n":2}},{"type":"Feature","geometry":{"type":"Polygon","coordinates":[[[-26.71875,39.375],[-25.3125,39.375],[-25.3125,40.78125],[-26.71875,40.78125],[-26.71875,39.375]]]},"properties":{"n":2}},{"type":"Feature","geometry":{"type":"Polygon","coordinates":[[[-35.15625,39.375],[-33.75,39.375],[-33.75,40.78125],[-35.15625,40.78125],[-35.15625,39.375]]]},"properties":{"n":2}},{"type":"Feature","geometry":{"type":"Polygon","coordinates":[[[-45,37.96875],[-43.59375,37.96875],[-43.59375,39.375],[-45,39.375],[-45,37.96875]]]},"properties":{"n":2}},{"type":"Feature","geometry":{"type":"Polygon","coordinates":[[[-40.78125,33.75],[-39.375,33.75],[-39.375,35.15625],[-40.78125,35.15625],[-40.78125,33.75]]]},"properties":{"n":2}},{"type":"Feature","geometry":{"type":"Polygon","coordinates":[[[-45,35.15625],[-43.59375,35.15625],[-43.59375,36.5625],[-45,36.5625],[-45,35.15625]]]},"properties":{"n":2}},{"type":"Feature","geometry":{"type":"Polygon","coordinates":[[[-36.5625,30.9375],[-35.15625,30.9375],[-35.15625,32.34375],[-36.5625,32.34375],[-36.5625,30.9375]]]},"properties":{"n":2}},{"type":"Feature","geometry":{"type":"Polygon","coordinates":[[[-39.375,30.9375],[-37.96875,30.9375],[-37.96875,32.34375],[-39.375,32.34375],[-39.375,30.9375]]]},"properties":{"n":2}},{"type":"Feature","geometry":{"type":"Polygon","coordinates":[[[-52.03125,39.375],[-50.625,39.375],[-50.625,40.78125],[-52.03125,40.78125],[-52.03125,39.375]]]},"properties":{"n":2}},{"type":"Feature","geometry":{"type":"Polygon","coordinates":[[[-46.40625,30.9375],[-45,30.9375],[-45,32.34375],[-46.40625,32.34375],[-46.40625,30.9375]]]},"properties":{"n":2}},{"type":"Feature","geometry":{"type":"Polygon","coordinates":[[[-52.03125,29.53125],[-50.625,29.53125],[-50.625,30.9375],[-52.03125,30.9375],[-52.03125,29.53125]]]},"properties":{"n":2}},{"type":"Feature","geometry":{"type":"Polygon","coordinates":[[[-54.84375,29.53125],[-53.4375,29.53125],[-53.4375,30.9375],[-54.84375,30.9375],[-54.84375,29.53125]]]},"properties":{"n":2}},{"type":"Feature","geometry":{"type":"Polygon","coordinates":[[[-56.25,26.71875],[-54.84375,26.71875],[-54.84375,28.125],[-56.25,28.125],[-56.25,26.71875]]]},"properties":{"n":2}},{"type":"Feature","geometry":{"type":"Polygon","coordinates":[[[-77.34375,32.34375],[-75.9375,32.34375],[-75.9375,33.75],[-77.34375,33.75],[-77.34375,32.34375]]]},"properties":{"n":2}},{"type":"Feature","geometry":{"type":"Polygon","coordinates":[[[-80.15625,30.9375],[-78.75,30.9375],[-78.75,32.34375],[-80.15625,32.34375],[-80.15625,30.9375]]]},"properties":{"n":2}},{"type":"Feature","geometry":{"type":"Polygon","coordinates":[[[-80.15625,26.71875],[-78.75,26.71875],[-78.75,28.125],[-80.15625,28.125],[-80.15625,26.71875]]]},"properties":{"n":2}},{"type":"Feature","geometry":{"type":"Polygon","coordinates":[[[-78.75,21.09375],[-77.34375,21.09375],[-77.34375,22.5],[-78.75,22.5],[-78.75,21.09375]]]},"properties":{"n":2}},{"type":"Feature","geometry":{"type":"Polygon","coordinates":[[[-123.75,37.96875],[-122.34375,37.96875],[-122.34375,39.375],[-123.75,39.375],[-123.75,37.96875]]]},"properties":{"n":2}},{"type":"Feature","geometry":{"type":"Polygon","coordinates":[[[-122.34375,35.15625],[-120.9375,35.15625],[-120.9375,36.5625],[-122.34375,36.5625],[-122.34375,35.15625]]]},"properties":{"n":2}},{"type":"Feature","geometry":{"type":"Polygon","coordinates":[[[-8.4375,-36.5625],[-7.03125,-36.5625],[-7.03125,-35.15625],[-8.4375,-35.15625],[-8.4375,-36.5625]]]},"properties":{"n":2}},{"type":"Feature","geometry":{"type":"Polygon","coordinates":[[[150.46875,45],[151.875,45],[151.875,46.40625],[150.46875,46.40625],[150.46875,45]]]},"properties":{"n":1}},{"type":"Feature","geometry":{"type":"Polygon","coordinates":[[[178.59375,40.78125],[180,40.78125],[180,42.1875],[178.59375,42.1875],[178.59375,40.78125]]]},"properties":{"n":1}},{"type":"Feature","geometry":{"type":"Polygon","coordinates":[[[177.1875,40.78125],[178.59375,40.78125],[178.59375,42.1875],[177.1875,42.1875],[177.1875,40.78125]]]},"properties":{"n":1}},{"type":"Feature","geometry":{"type":"Polygon","coordinates":[[[175.78125,40.78125],[177.1875,40.78125],[177.1875,42.1875],[175.78125,42.1875],[175.78125,40.78125]]]},"properties":{"n":1}},{"type":"Feature","geometry":{"type":"Polygon","coordinates":[[[172.96875,40.78125],[174.375,40.78125],[174.375,42.1875],[172.96875,42.1875],[172.96875,40.78125]]]},"properties":{"n":1}},{"type":"Feature","geometry":{"type":"Polygon","coordinates":[[[171.5625,39.375],[172.96875,39.375],[172.96875,40.78125],[171.5625,40.78125],[171.5625,39.375]]]},"properties":{"n":1}},{"type":"Feature","geometry":{"type":"Polygon","coordinates":[[[168.75,39.375],[170.15625,39.375],[170.15625,40.78125],[168.75,40.78125],[168.75,39.375]]]},"properties":{"n":1}},{"type":"Feature","geometry":{"type":"Polygon","coordinates":[[[178.59375,35.15625],[180,35.15625],[180,36.5625],[178.59375,36.5625],[178.59375,35.15625]]]},"properties":{"n":1}},{"type":"Feature","geometry":{"type":"Polygon","coordinates":[[[177.1875,35.15625],[178.59375,35.15625],[178.59375,36.5625],[177.1875,36.5625],[177.1875,35.15625]]]},"properties":{"n":1}},{"type":"Feature","geometry":{"type":"Polygon","coordinates":[[[175.78125,35.15625],[177.1875,35.15625],[177.1875,36.5625],[175.78125,36.5625],[175.78125,35.15625]]]},"properties":{"n":1}},{"type":"Feature","geometry":{"type":"Polygon","coordinates":[[[171.5625,35.15625],[172.96875,35.15625],[172.96875,36.5625],[171.5625,36.5625],[171.5625,35.15625]]]},"properties":{"n":1}},{"type":"Feature","geometry":{"type":"Polygon","coordinates":[[[168.75,35.15625],[170.15625,35.15625],[170.15625,36.5625],[168.75,36.5625],[168.75,35.15625]]]},"properties":{"n":1}},{"type":"Feature","geometry":{"type":"Polygon","coordinates":[[[167.34375,39.375],[168.75,39.375],[168.75,40.78125],[167.34375,40.78125],[167.34375,39.375]]]},"properties":{"n":1}},{"type":"Feature","geometry":{"type":"Polygon","coordinates":[[[165.9375,39.375],[167.34375,39.375],[167.34375,40.78125],[165.9375,40.78125],[165.9375,39.375]]]},"properties":{"n":1}},{"type":"Feature","geometry":{"type":"Polygon","coordinates":[[[167.34375,35.15625],[168.75,35.15625],[168.75,36.5625],[167.34375,36.5625],[167.34375,35.15625]]]},"properties":{"n":1}},{"type":"Feature","geometry":{"type":"Polygon","coordinates":[[[165.9375,35.15625],[167.34375,35.15625],[167.34375,36.5625],[165.9375,36.5625],[165.9375,35.15625]]]},"properties":{"n":1}},{"type":"Feature","geometry":{"type":"Polygon","coordinates":[[[158.90625,35.15625],[160.3125,35.15625],[160.3125,36.5625],[158.90625,36.5625],[158.90625,35.15625]]]},"properties":{"n":1}},{"type":"Feature","geometry":{"type":"Polygon","coordinates":[[[153.28125,33.75],[154.6875,33.75],[154.6875,35.15625],[153.28125,35.15625],[153.28125,33.75]]]},"properties":{"n":1}},{"type":"Feature","geometry":{"type":"Polygon","coordinates":[[[139.21875,39.375],[140.625,39.375],[140.625,40.78125],[139.21875,40.78125],[139.21875,39.375]]]},"properties":{"n":1}},{"type":"Feature","geometry":{"type":"Polygon","coordinates":[[[143.4375,37.96875],[144.84375,37.96875],[144.84375,39.375],[143.4375,39.375],[143.4375,37.96875]]]},"properties":{"n":1}},{"type":"Feature","geometry":{"type":"Polygon","coordinates":[[[144.84375,35.15625],[146.25,35.15625],[146.25,36.5625],[144.84375,36.5625],[144.84375,35.15625]]]},"properties":{"n":1}},{"type":"Feature","geometry":{"type":"Polygon","coordinates":[[[139.21875,33.75],[140.625,33.75],[140.625,35.15625],[139.21875,35.15625],[139.21875,33.75]]]},"properties":{"n":1}},{"type":"Feature","geometry":{"type":"Polygon","coordinates":[[[136.40625,33.75],[137.8125,33.75],[137.8125,35.15625],[136.40625,35.15625],[136.40625,33.75]]]},"properties":{"n":1}},{"type":"Feature","geometry":{"type":"Polygon","coordinates":[[[151.875,30.9375],[153.28125,30.9375],[153.28125,32.34375],[151.875,32.34375],[151.875,30.9375]]]},"properties":{"n":1}},{"type":"Feature","geometry":{"type":"Polygon","coordinates":[[[147.65625,25.3125],[149.0625,25.3125],[149.0625,26.71875],[147.65625,26.71875],[147.65625,25.3125]]]},"properties":{"n":1}},{"type":"Feature","geometry":{"type":"Polygon","coordinates":[[[146.25,25.3125],[147.65625,25.3125],[147.65625,26.71875],[146.25,26.71875],[146.25,25.3125]]]},"properties":{"n":1}},{"type":"Feature","geometry":{"type":"Polygon","coordinates":[[[140.625,30.9375],[142.03125,30.9375],[142.03125,32.34375],[140.625,32.34375],[140.625,30.9375]]]},"properties":{"n":1}},{"type":"Feature","geometry":{"type":"Polygon","coordinates":[[[140.625,29.53125],[142.03125,29.53125],[142.03125,30.9375],[140.625,30.9375],[140.625,29.53125]]]},"properties":{"n":1}},{"type":"Feature","geometry":{"type":"Polygon","coordinates":[[[142.03125,28.125],[143.4375,28.125],[143.4375,29.53125],[142.03125,29.53125],[142.03125,28.125]]]},"properties":{"n":1}},{"type":"Feature","geometry":{"type":"Polygon","coordinates":[[[140.625,28.125],[142.03125,28.125],[142.03125,29.53125],[140.625,29.53125],[140.625,28.125]]]},"properties":{"n":1}},{"type":"Feature","geometry":{"type":"Polygon","coordinates":[[[139.21875,30.9375],[140.625,30.9375],[140.625,32.34375],[139.21875,32.34375],[139.21875,30.9375]]]},"properties":{"n":1}},{"type":"Feature","geometry":{"type":"Polygon","coordinates":[[[136.40625,32.34375],[137.8125,32.34375],[137.8125,33.75],[136.40625,33.75],[136.40625,32.34375]]]},"properties":{"n":1}},{"type":"Feature","geometry":{"type":"Polygon","coordinates":[[[137.8125,29.53125],[139.21875,29.53125],[139.21875,30.9375],[137.8125,30.9375],[137.8125,29.53125]]]},"properties":{"n":1}},{"type":"Feature","geometry":{"type":"Polygon","coordinates":[[[139.21875,28.125],[140.625,28.125],[140.625,29.53125],[139.21875,29.53125],[139.21875,28.125]]]},"properties":{"n":1}},{"type":"Feature","geometry":{"type":"Polygon","coordinates":[[[137.8125,28.125],[139.21875,28.125],[139.21875,29.53125],[137.8125,29.53125],[137.8125,28.125]]]},"properties":{"n":1}},{"type":"Feature","geometry":{"type":"Polygon","coordinates":[[[136.40625,28.125],[137.8125,28.125],[137.8125,29.53125],[136.40625,29.53125],[136.40625,28.125]]]},"properties":{"n":1}},{"type":"Feature","geometry":{"type":"Polygon","coordinates":[[[135,28.125],[136.40625,28.125],[136.40625,29.53125],[135,29.53125],[135,28.125]]]},"properties":{"n":1}},{"type":"Feature","geometry":{"type":"Polygon","coordinates":[[[140.625,26.71875],[142.03125,26.71875],[142.03125,28.125],[140.625,28.125],[140.625,26.71875]]]},"properties":{"n":1}},{"type":"Feature","geometry":{"type":"Polygon","coordinates":[[[135,26.71875],[136.40625,26.71875],[136.40625,28.125],[135,28.125],[135,26.71875]]]},"properties":{"n":1}},{"type":"Feature","geometry":{"type":"Polygon","coordinates":[[[135,25.3125],[136.40625,25.3125],[136.40625,26.71875],[135,26.71875],[135,25.3125]]]},"properties":{"n":1}},{"type":"Feature","geometry":{"type":"Polygon","coordinates":[[[119.53125,35.15625],[120.9375,35.15625],[120.9375,36.5625],[119.53125,36.5625],[119.53125,35.15625]]]},"properties":{"n":1}},{"type":"Feature","geometry":{"type":"Polygon","coordinates":[[[132.1875,30.9375],[133.59375,30.9375],[133.59375,32.34375],[132.1875,32.34375],[132.1875,30.9375]]]},"properties":{"n":1}},{"type":"Feature","geometry":{"type":"Polygon","coordinates":[[[133.59375,28.125],[135,28.125],[135,29.53125],[133.59375,29.53125],[133.59375,28.125]]]},"properties":{"n":1}},{"type":"Feature","geometry":{"type":"Polygon","coordinates":[[[130.78125,28.125],[132.1875,28.125],[132.1875,29.53125],[130.78125,29.53125],[130.78125,28.125]]]},"properties":{"n":1}},{"type":"Feature","geometry":{"type":"Polygon","coordinates":[[[129.375,28.125],[130.78125,28.125],[130.78125,29.53125],[129.375,29.53125],[129.375,28.125]]]},"properties":{"n":1}},{"type":"Feature","geometry":{"type":"Polygon","coordinates":[[[127.96875,28.125],[129.375,28.125],[129.375,29.53125],[127.96875,29.53125],[127.96875,28.125]]]},"properties":{"n":1}},{"type":"Feature","geometry":{"type":"Polygon","coordinates":[[[132.1875,26.71875],[133.59375,26.71875],[133.59375,28.125],[132.1875,28.125],[132.1875,26.71875]]]},"properties":{"n":1}},{"type":"Feature","geometry":{"type":"Polygon","coordinates":[[[133.59375,25.3125],[135,25.3125],[135,26.71875],[133.59375,26.71875],[133.59375,25.3125]]]},"properties":{"n":1}},{"type":"Feature","geometry":{"type":"Polygon","coordinates":[[[130.78125,25.3125],[132.1875,25.3125],[132.1875,26.71875],[130.78125,26.71875],[130.78125,25.3125]]]},"properties":{"n":1}},{"type":"Feature","geometry":{"type":"Polygon","coordinates":[[[129.375,25.3125],[130.78125,25.3125],[130.78125,26.71875],[129.375,26.71875],[129.375,25.3125]]]},"properties":{"n":1}},{"type":"Feature","geometry":{"type":"Polygon","coordinates":[[[130.78125,22.5],[132.1875,22.5],[132.1875,23.90625],[130.78125,23.90625],[130.78125,22.5]]]},"properties":{"n":1}},{"type":"Feature","geometry":{"type":"Polygon","coordinates":[[[126.5625,25.3125],[127.96875,25.3125],[127.96875,26.71875],[126.5625,26.71875],[126.5625,25.3125]]]},"properties":{"n":1}},{"type":"Feature","geometry":{"type":"Polygon","coordinates":[[[125.15625,26.71875],[126.5625,26.71875],[126.5625,28.125],[125.15625,28.125],[125.15625,26.71875]]]},"properties":{"n":1}},{"type":"Feature","geometry":{"type":"Polygon","coordinates":[[[123.75,26.71875],[125.15625,26.71875],[125.15625,28.125],[123.75,28.125],[123.75,26.71875]]]},"properties":{"n":1}},{"type":"Feature","geometry":{"type":"Polygon","coordinates":[[[125.15625,25.3125],[126.5625,25.3125],[126.5625,26.71875],[125.15625,26.71875],[125.15625,25.3125]]]},"properties":{"n":1}},{"type":"Feature","geometry":{"type":"Polygon","coordinates":[[[126.5625,22.5],[127.96875,22.5],[127.96875,23.90625],[126.5625,23.90625],[126.5625,22.5]]]},"properties":{"n":1}},{"type":"Feature","geometry":{"type":"Polygon","coordinates":[[[125.15625,22.5],[126.5625,22.5],[126.5625,23.90625],[125.15625,23.90625],[125.15625,22.5]]]},"properties":{"n":1}},{"type":"Feature","geometry":{"type":"Polygon","coordinates":[[[120.9375,29.53125],[122.34375,29.53125],[122.34375,30.9375],[120.9375,30.9375],[120.9375,29.53125]]]},"properties":{"n":1}},{"type":"Feature","geometry":{"type":"Polygon","coordinates":[[[122.34375,22.5],[123.75,22.5],[123.75,23.90625],[122.34375,23.90625],[122.34375,22.5]]]},"properties":{"n":1}},{"type":"Feature","geometry":{"type":"Polygon","coordinates":[[[120.9375,22.5],[122.34375,22.5],[122.34375,23.90625],[120.9375,23.90625],[120.9375,22.5]]]},"properties":{"n":1}},{"type":"Feature","geometry":{"type":"Polygon","coordinates":[[[118.125,23.90625],[119.53125,23.90625],[119.53125,25.3125],[118.125,25.3125],[118.125,23.90625]]]},"properties":{"n":1}},{"type":"Feature","geometry":{"type":"Polygon","coordinates":[[[132.1875,19.6875],[133.59375,19.6875],[133.59375,21.09375],[132.1875,21.09375],[132.1875,19.6875]]]},"properties":{"n":1}},{"type":"Feature","geometry":{"type":"Polygon","coordinates":[[[129.375,21.09375],[130.78125,21.09375],[130.78125,22.5],[129.375,22.5],[129.375,21.09375]]]},"properties":{"n":1}},{"type":"Feature","geometry":{"type":"Polygon","coordinates":[[[129.375,19.6875],[130.78125,19.6875],[130.78125,21.09375],[129.375,21.09375],[129.375,19.6875]]]},"properties":{"n":1}},{"type":"Feature","geometry":{"type":"Polygon","coordinates":[[[132.1875,16.875],[133.59375,16.875],[133.59375,18.28125],[132.1875,18.28125],[132.1875,16.875]]]},"properties":{"n":1}},{"type":"Feature","geometry":{"type":"Polygon","coordinates":[[[127.96875,21.09375],[129.375,21.09375],[129.375,22.5],[127.96875,22.5],[127.96875,21.09375]]]},"properties":{"n":1}},{"type":"Feature","geometry":{"type":"Polygon","coordinates":[[[126.5625,21.09375],[127.96875,21.09375],[127.96875,22.5],[126.5625,22.5],[126.5625,21.09375]]]},"properties":{"n":1}},{"type":"Feature","geometry":{"type":"Polygon","coordinates":[[[127.96875,19.6875],[129.375,19.6875],[129.375,21.09375],[127.96875,21.09375],[127.96875,19.6875]]]},"properties":{"n":1}},{"type":"Feature","geometry":{"type":"Polygon","coordinates":[[[125.15625,21.09375],[126.5625,21.09375],[126.5625,22.5],[125.15625,22.5],[125.15625,21.09375]]]},"properties":{"n":1}},{"type":"Feature","geometry":{"type":"Polygon","coordinates":[[[125.15625,19.6875],[126.5625,19.6875],[126.5625,21.09375],[125.15625,21.09375],[125.15625,19.6875]]]},"properties":{"n":1}},{"type":"Feature","geometry":{"type":"Polygon","coordinates":[[[127.96875,18.28125],[129.375,18.28125],[129.375,19.6875],[127.96875,19.6875],[127.96875,18.28125]]]},"properties":{"n":1}},{"type":"Feature","geometry":{"type":"Polygon","coordinates":[[[127.96875,16.875],[129.375,16.875],[129.375,18.28125],[127.96875,18.28125],[127.96875,16.875]]]},"properties":{"n":1}},{"type":"Feature","geometry":{"type":"Polygon","coordinates":[[[122.34375,21.09375],[123.75,21.09375],[123.75,22.5],[122.34375,22.5],[122.34375,21.09375]]]},"properties":{"n":1}},{"type":"Feature","geometry":{"type":"Polygon","coordinates":[[[120.9375,19.6875],[122.34375,19.6875],[122.34375,21.09375],[120.9375,21.09375],[120.9375,19.6875]]]},"properties":{"n":1}},{"type":"Feature","geometry":{"type":"Polygon","coordinates":[[[74.53125,11.25],[75.9375,11.25],[75.9375,12.65625],[74.53125,12.65625],[74.53125,11.25]]]},"properties":{"n":1}},{"type":"Feature","geometry":{"type":"Polygon","coordinates":[[[143.4375,-4.21875],[144.84375,-4.21875],[144.84375,-2.8125],[143.4375,-2.8125],[143.4375,-4.21875]]]},"properties":{"n":1}},{"type":"Feature","geometry":{"type":"Polygon","coordinates":[[[142.03125,-9.84375],[143.4375,-9.84375],[143.4375,-8.4375],[142.03125,-8.4375],[142.03125,-9.84375]]]},"properties":{"n":1}},{"type":"Feature","geometry":{"type":"Polygon","coordinates":[[[142.03125,-11.25],[143.4375,-11.25],[143.4375,-9.84375],[142.03125,-9.84375],[142.03125,-11.25]]]},"properties":{"n":1}},{"type":"Feature","geometry":{"type":"Polygon","coordinates":[[[153.28125,-22.5],[154.6875,-22.5],[154.6875,-21.09375],[153.28125,-21.09375],[153.28125,-22.5]]]},"properties":{"n":1}},{"type":"Feature","geometry":{"type":"Polygon","coordinates":[[[144.84375,-16.875],[146.25,-16.875],[146.25,-15.46875],[144.84375,-15.46875],[144.84375,-16.875]]]},"properties":{"n":1}},{"type":"Feature","geometry":{"type":"Polygon","coordinates":[[[144.84375,-18.28125],[146.25,-18.28125],[146.25,-16.875],[144.84375,-16.875],[144.84375,-18.28125]]]},"properties":{"n":1}},{"type":"Feature","geometry":{"type":"Polygon","coordinates":[[[172.96875,-28.125],[174.375,-28.125],[174.375,-26.71875],[172.96875,-26.71875],[172.96875,-28.125]]]},"properties":{"n":1}},{"type":"Feature","geometry":{"type":"Polygon","coordinates":[[[168.75,-28.125],[170.15625,-28.125],[170.15625,-26.71875],[168.75,-26.71875],[168.75,-28.125]]]},"properties":{"n":1}},{"type":"Feature","geometry":{"type":"Polygon","coordinates":[[[157.5,-26.71875],[158.90625,-26.71875],[158.90625,-25.3125],[157.5,-25.3125],[157.5,-26.71875]]]},"properties":{"n":1}},{"type":"Feature","geometry":{"type":"Polygon","coordinates":[[[167.34375,-32.34375],[168.75,-32.34375],[168.75,-30.9375],[167.34375,-30.9375],[167.34375,-32.34375]]]},"properties":{"n":1}},{"type":"Feature","geometry":{"type":"Polygon","coordinates":[[[165.9375,-32.34375],[167.34375,-32.34375],[167.34375,-30.9375],[165.9375,-30.9375],[165.9375,-32.34375]]]},"properties":{"n":1}},{"type":"Feature","geometry":{"type":"Polygon","coordinates":[[[161.71875,-29.53125],[163.125,-29.53125],[163.125,-28.125],[161.71875,-28.125],[161.71875,-29.53125]]]},"properties":{"n":1}},{"type":"Feature","geometry":{"type":"Polygon","coordinates":[[[160.3125,-30.9375],[161.71875,-30.9375],[161.71875,-29.53125],[160.3125,-29.53125],[160.3125,-30.9375]]]},"properties":{"n":1}},{"type":"Feature","geometry":{"type":"Polygon","coordinates":[[[177.1875,-35.15625],[178.59375,-35.15625],[178.59375,-33.75],[177.1875,-33.75],[177.1875,-35.15625]]]},"properties":{"n":1}},{"type":"Feature","geometry":{"type":"Polygon","coordinates":[[[178.59375,-39.375],[180,-39.375],[180,-37.96875],[178.59375,-37.96875],[178.59375,-39.375]]]},"properties":{"n":1}},{"type":"Feature","geometry":{"type":"Polygon","coordinates":[[[174.375,-37.96875],[175.78125,-37.96875],[175.78125,-36.5625],[174.375,-36.5625],[174.375,-37.96875]]]},"properties":{"n":1}},{"type":"Feature","geometry":{"type":"Polygon","coordinates":[[[168.75,-39.375],[170.15625,-39.375],[170.15625,-37.96875],[168.75,-37.96875],[168.75,-39.375]]]},"properties":{"n":1}},{"type":"Feature","geometry":{"type":"Polygon","coordinates":[[[168.75,-43.59375],[170.15625,-43.59375],[170.15625,-42.1875],[168.75,-42.1875],[168.75,-43.59375]]]},"properties":{"n":1}},{"type":"Feature","geometry":{"type":"Polygon","coordinates":[[[167.34375,-39.375],[168.75,-39.375],[168.75,-37.96875],[167.34375,-37.96875],[167.34375,-39.375]]]},"properties":{"n":1}},{"type":"Feature","geometry":{"type":"Polygon","coordinates":[[[151.875,-25.3125],[153.28125,-25.3125],[153.28125,-23.90625],[151.875,-23.90625],[151.875,-25.3125]]]},"properties":{"n":1}},{"type":"Feature","geometry":{"type":"Polygon","coordinates":[[[150.46875,-23.90625],[151.875,-23.90625],[151.875,-22.5],[150.46875,-22.5],[150.46875,-23.90625]]]},"properties":{"n":1}},{"type":"Feature","geometry":{"type":"Polygon","coordinates":[[[156.09375,-30.9375],[157.5,-30.9375],[157.5,-29.53125],[156.09375,-29.53125],[156.09375,-30.9375]]]},"properties":{"n":1}},{"type":"Feature","geometry":{"type":"Polygon","coordinates":[[[149.0625,-36.5625],[150.46875,-36.5625],[150.46875,-35.15625],[149.0625,-35.15625],[149.0625,-36.5625]]]},"properties":{"n":1}},{"type":"Feature","geometry":{"type":"Polygon","coordinates":[[[120.9375,-19.6875],[122.34375,-19.6875],[122.34375,-18.28125],[120.9375,-18.28125],[120.9375,-19.6875]]]},"properties":{"n":1}},{"type":"Feature","geometry":{"type":"Polygon","coordinates":[[[116.71875,-19.6875],[118.125,-19.6875],[118.125,-18.28125],[116.71875,-18.28125],[116.71875,-19.6875]]]},"properties":{"n":1}},{"type":"Feature","geometry":{"type":"Polygon","coordinates":[[[116.71875,-21.09375],[118.125,-21.09375],[118.125,-19.6875],[116.71875,-19.6875],[116.71875,-21.09375]]]},"properties":{"n":1}},{"type":"Feature","geometry":{"type":"Polygon","coordinates":[[[115.3125,-21.09375],[116.71875,-21.09375],[116.71875,-19.6875],[115.3125,-19.6875],[115.3125,-21.09375]]]},"properties":{"n":1}},{"type":"Feature","geometry":{"type":"Polygon","coordinates":[[[113.90625,-21.09375],[115.3125,-21.09375],[115.3125,-19.6875],[113.90625,-19.6875],[113.90625,-21.09375]]]},"properties":{"n":1}},{"type":"Feature","geometry":{"type":"Polygon","coordinates":[[[112.5,-22.5],[113.90625,-22.5],[113.90625,-21.09375],[112.5,-21.09375],[112.5,-22.5]]]},"properties":{"n":1}},{"type":"Feature","geometry":{"type":"Polygon","coordinates":[[[112.5,-29.53125],[113.90625,-29.53125],[113.90625,-28.125],[112.5,-28.125],[112.5,-29.53125]]]},"properties":{"n":1}},{"type":"Feature","geometry":{"type":"Polygon","coordinates":[[[-2.8125,40.78125],[-1.40625,40.78125],[-1.40625,42.1875],[-2.8125,42.1875],[-2.8125,40.78125]]]},"properties":{"n":1}},{"type":"Feature","geometry":{"type":"Polygon","coordinates":[[[-4.21875,40.78125],[-2.8125,40.78125],[-2.8125,42.1875],[-4.21875,42.1875],[-4.21875,40.78125]]]},"properties":{"n":1}},{"type":"Feature","geometry":{"type":"Polygon","coordinates":[[[-7.03125,40.78125],[-5.625,40.78125],[-5.625,42.1875],[-7.03125,42.1875],[-7.03125,40.78125]]]},"properties":{"n":1}},{"type":"Feature","geometry":{"type":"Polygon","coordinates":[[[-8.4375,40.78125],[-7.03125,40.78125],[-7.03125,42.1875],[-8.4375,42.1875],[-8.4375,40.78125]]]},"properties":{"n":1}},{"type":"Feature","geometry":{"type":"Polygon","coordinates":[[[-11.25,40.78125],[-9.84375,40.78125],[-9.84375,42.1875],[-11.25,42.1875],[-11.25,40.78125]]]},"properties":{"n":1}},{"type":"Feature","geometry":{"type":"Polygon","coordinates":[[[-2.8125,35.15625],[-1.40625,35.15625],[-1.40625,36.5625],[-2.8125,36.5625],[-2.8125,35.15625]]]},"properties":{"n":1}},{"type":"Feature","geometry":{"type":"Polygon","coordinates":[[[-2.8125,33.75],[-1.40625,33.75],[-1.40625,35.15625],[-2.8125,35.15625],[-2.8125,33.75]]]},"properties":{"n":1}},{"type":"Feature","geometry":{"type":"Polygon","coordinates":[[[-8.4375,33.75],[-7.03125,33.75],[-7.03125,35.15625],[-8.4375,35.15625],[-8.4375,33.75]]]},"properties":{"n":1}},{"type":"Feature","geometry":{"type":"Polygon","coordinates":[[[-11.25,35.15625],[-9.84375,35.15625],[-9.84375,36.5625],[-11.25,36.5625],[-11.25,35.15625]]]},"properties":{"n":1}},{"type":"Feature","geometry":{"type":"Polygon","coordinates":[[[-14.0625,40.78125],[-12.65625,40.78125],[-12.65625,42.1875],[-14.0625,42.1875],[-14.0625,40.78125]]]},"properties":{"n":1}},{"type":"Feature","geometry":{"type":"Polygon","coordinates":[[[-16.875,40.78125],[-15.46875,40.78125],[-15.46875,42.1875],[-16.875,42.1875],[-16.875,40.78125]]]},"properties":{"n":1}},{"type":"Feature","geometry":{"type":"Polygon","coordinates":[[[-18.28125,40.78125],[-16.875,40.78125],[-16.875,42.1875],[-18.28125,42.1875],[-18.28125,40.78125]]]},"properties":{"n":1}},{"type":"Feature","geometry":{"type":"Polygon","coordinates":[[[-21.09375,40.78125],[-19.6875,40.78125],[-19.6875,42.1875],[-21.09375,42.1875],[-21.09375,40.78125]]]},"properties":{"n":1}},{"type":"Feature","geometry":{"type":"Polygon","coordinates":[[[-16.875,37.96875],[-15.46875,37.96875],[-15.46875,39.375],[-16.875,39.375],[-16.875,37.96875]]]},"properties":{"n":1}},{"type":"Feature","geometry":{"type":"Polygon","coordinates":[[[-16.875,33.75],[-15.46875,33.75],[-15.46875,35.15625],[-16.875,35.15625],[-16.875,33.75]]]},"properties":{"n":1}},{"type":"Feature","geometry":{"type":"Polygon","coordinates":[[[-12.65625,30.9375],[-11.25,30.9375],[-11.25,32.34375],[-12.65625,32.34375],[-12.65625,30.9375]]]},"properties":{"n":1}},{"type":"Feature","geometry":{"type":"Polygon","coordinates":[[[-28.125,39.375],[-26.71875,39.375],[-26.71875,40.78125],[-28.125,40.78125],[-28.125,39.375]]]},"properties":{"n":1}},{"type":"Feature","geometry":{"type":"Polygon","coordinates":[[[-25.3125,37.96875],[-23.90625,37.96875],[-23.90625,39.375],[-25.3125,39.375],[-25.3125,37.96875]]]},"properties":{"n":1}},{"type":"Feature","geometry":{"type":"Polygon","coordinates":[[[-26.71875,37.96875],[-25.3125,37.96875],[-25.3125,39.375],[-26.71875,39.375],[-26.71875,37.96875]]]},"properties":{"n":1}},{"type":"Feature","geometry":{"type":"Polygon","coordinates":[[[-28.125,35.15625],[-26.71875,35.15625],[-26.71875,36.5625],[-28.125,36.5625],[-28.125,35.15625]]]},"properties":{"n":1}},{"type":"Feature","geometry":{"type":"Polygon","coordinates":[[[-40.78125,30.9375],[-39.375,30.9375],[-39.375,32.34375],[-40.78125,32.34375],[-40.78125,30.9375]]]},"properties":{"n":1}},{"type":"Feature","geometry":{"type":"Polygon","coordinates":[[[-42.1875,30.9375],[-40.78125,30.9375],[-40.78125,32.34375],[-42.1875,32.34375],[-42.1875,30.9375]]]},"properties":{"n":1}},{"type":"Feature","geometry":{"type":"Polygon","coordinates":[[[-45,30.9375],[-43.59375,30.9375],[-43.59375,32.34375],[-45,32.34375],[-45,30.9375]]]},"properties":{"n":1}},{"type":"Feature","geometry":{"type":"Polygon","coordinates":[[[-56.25,39.375],[-54.84375,39.375],[-54.84375,40.78125],[-56.25,40.78125],[-56.25,39.375]]]},"properties":{"n":1}},{"type":"Feature","geometry":{"type":"Polygon","coordinates":[[[-78.75,28.125],[-77.34375,28.125],[-77.34375,29.53125],[-78.75,29.53125],[-78.75,28.125]]]},"properties":{"n":1}},{"type":"Feature","geometry":{"type":"Polygon","coordinates":[[[-70.3125,21.09375],[-68.90625,21.09375],[-68.90625,22.5],[-70.3125,22.5],[-70.3125,21.09375]]]},"properties":{"n":1}},{"type":"Feature","geometry":{"type":"Polygon","coordinates":[[[-74.53125,21.09375],[-73.125,21.09375],[-73.125,22.5],[-74.53125,22.5],[-74.53125,21.09375]]]},"properties":{"n":1}},{"type":"Feature","geometry":{"type":"Polygon","coordinates":[[[-77.34375,21.09375],[-75.9375,21.09375],[-75.9375,22.5],[-77.34375,22.5],[-77.34375,21.09375]]]},"properties":{"n":1}},{"type":"Feature","geometry":{"type":"Polygon","coordinates":[[[-133.59375,46.40625],[-132.1875,46.40625],[-132.1875,47.8125],[-133.59375,47.8125],[-133.59375,46.40625]]]},"properties":{"n":1}},{"type":"Feature","geometry":{"type":"Polygon","coordinates":[[[-157.5,56.25],[-156.09375,56.25],[-156.09375,57.65625],[-157.5,57.65625],[-157.5,56.25]]]},"properties":{"n":1}},{"type":"Feature","geometry":{"type":"Polygon","coordinates":[[[-123.75,36.5625],[-122.34375,36.5625],[-122.34375,37.96875],[-123.75,37.96875],[-123.75,36.5625]]]},"properties":{"n":1}},{"type":"Feature","geometry":{"type":"Polygon","coordinates":[[[-118.125,28.125],[-116.71875,28.125],[-116.71875,29.53125],[-118.125,29.53125],[-118.125,28.125]]]},"properties":{"n":1}},{"type":"Feature","geometry":{"type":"Polygon","coordinates":[[[-118.125,23.90625],[-116.71875,23.90625],[-116.71875,25.3125],[-118.125,25.3125],[-118.125,23.90625]]]},"properties":{"n":1}},{"type":"Feature","geometry":{"type":"Polygon","coordinates":[[[-113.90625,18.28125],[-112.5,18.28125],[-112.5,19.6875],[-113.90625,19.6875],[-113.90625,18.28125]]]},"properties":{"n":1}},{"type":"Feature","geometry":{"type":"Polygon","coordinates":[[[-158.90625,21.09375],[-157.5,21.09375],[-157.5,22.5],[-158.90625,22.5],[-158.90625,21.09375]]]},"properties":{"n":1}},{"type":"Feature","geometry":{"type":"Polygon","coordinates":[[[-11.25,-32.34375],[-9.84375,-32.34375],[-9.84375,-30.9375],[-11.25,-30.9375],[-11.25,-32.34375]]]},"properties":{"n":1}},{"type":"Feature","geometry":{"type":"Polygon","coordinates":[[[-2.8125,-35.15625],[-1.40625,-35.15625],[-1.40625,-33.75],[-2.8125,-33.75],[-2.8125,-35.15625]]]},"properties":{"n":1}},{"type":"Feature","geometry":{"type":"Polygon","coordinates":[[[-4.21875,-35.15625],[-2.8125,-35.15625],[-2.8125,-33.75],[-4.21875,-33.75],[-4.21875,-35.15625]]]},"properties":{"n":1}}]}