{"type":"FeatureCollection","features":[{"type":"Feature","geometry":{"type":"Polygon","coordinates":[[[-64.6875,30.9375],[-63.28125,30.9375],[-63.28125,32.34375],[-64.6875,32.34375],[-64.6875,30.9375]]]},"properties":{"n":133}},{"type":"Feature","geometry":{"type":"Polygon","coordinates":[[[1.40625,39.375],[2.8125,39.375],[2.8125,40.78125],[1.40625,40.78125],[1.40625,39.375]]]},"properties":{"n":120}},{"type":"Feature","geometry":{"type":"Polygon","coordinates":[[[-14.0625,43.59375],[-12.65625,43.59375],[-12.65625,45],[-14.0625,45],[-14.0625,43.59375]]]},"properties":{"n":113}},{"type":"Feature","geometry":{"type":"Polygon","coordinates":[[[0,26.71875],[1.40625,26.71875],[1.40625,28.125],[0,28.125],[0,26.71875]]]},"properties":{"n":98}},{"type":"Feature","geometry":{"type":"Polygon","coordinates":[[[1.40625,37.96875],[2.8125,37.96875],[2.8125,39.375],[1.40625,39.375],[1.40625,37.96875]]]},"properties":{"n":87}},{"type":"Feature","geometry":{"type":"Polygon","coordinates":[[[0,37.96875],[1.40625,37.96875],[1.40625,39.375],[0,39.375],[0,37.96875]]]},"properties":{"n":66}},{"type":"Feature","geometry":{"type":"Polygon","coordinates":[[[2.8125,39.375],[4.21875,39.375],[4.21875,40.78125],[2.8125,40.78125],[2.8125,39.375]]]},"properties":{"n":56}},{"type":"Feature","geometry":{"type":"Polygon","coordinates":[[[-74.53125,36.5625],[-73.125,36.5625],[-73.125,37.96875],[-74.53125,37.96875],[-74.53125,36.5625]]]},"properties":{"n":51}},{"type":"Feature","geometry":{"type":"Polygon","coordinates":[[[-80.15625,25.3125],[-78.75,25.3125],[-78.75,26.71875],[-80.15625,26.71875],[-80.15625,25.3125]]]},"properties":{"n":39}},{"type":"Feature","geometry":{"type":"Polygon","coordinates":[[[12.65625,39.375],[14.0625,39.375],[14.0625,40.78125],[12.65625,40.78125],[12.65625,39.375]]]},"properties":{"n":37}},{"type":"Feature","geometry":{"type":"Polygon","coordinates":[[[15.46875,33.75],[16.875,33.75],[16.875,35.15625],[15.46875,35.15625],[15.46875,33.75]]]},"properties":{"n":33}},{"type":"Feature","geometry":{"type":"Polygon","coordinates":[[[35.15625,33.75],[36.5625,33.75],[36.5625,35.15625],[35.15625,35.15625],[35.15625,33.75]]]},"properties":{"n":32}},{"type":"Feature","geometry":{"type":"Polygon","coordinates":[[[-77.34375,30.9375],[-75.9375,30.9375],[-75.9375,32.34375],[-77.34375,32.34375],[-77.34375,30.9375]]]},"properties":{"n":32}},{"type":"Feature","geometry":{"type":"Polygon","coordinates":[[[25.3125,33.75],[26.71875,33.75],[26.71875,35.15625],[25.3125,35.15625],[25.3125,33.75]]]},"properties":{"n":30}},{"type":"Feature","geometry":{"type":"Polygon","coordinates":[[[-75.9375,33.75],[-74.53125,33.75],[-74.53125,35.15625],[-75.9375,35.15625],[-75.9375,33.75]]]},"properties":{"n":30}},{"type":"Feature","geometry":{"type":"Polygon","coordinates":[[[-12.65625,36.5625],[-11.25,36.5625],[-11.25,37.96875],[-12.65625,37.96875],[-12.65625,36.5625]]]},"properties":{"n":29}},{"type":"Feature","geometry":{"type":"Polygon","coordinates":[[[-32.34375,32.34375],[-30.9375,32.34375],[-30.9375,33.75],[-32.34375,33.75],[-32.34375,32.34375]]]},"properties":{"n":28}},{"type":"Feature","geometry":{"type":"Polygon","coordinates":[[[-73.125,37.96875],[-71.71875,37.96875],[-71.71875,39.375],[-73.125,39.375],[-73.125,37.96875]]]},"properties":{"n":28}},{"type":"Feature","geometry":{"type":"Polygon","coordinates":[[[11.25,39.375],[12.65625,39.375],[12.65625,40.78125],[11.25,40.78125],[11.25,39.375]]]},"properties":{"n":26}},{"type":"Feature","geometry":{"type":"Polygon","coordinates":[[[-59.0625,43.59375],[-57.65625,43.59375],[-57.65625,45],[-59.0625,45],[-59.0625,43.59375]]]},"properties":{"n":26}},{"type":"Feature","geometry":{"type":"Polygon","coordinates":[[[-91.40625,26.71875],[-90,26.71875],[-90,28.125],[-91.40625,28.125],[-91.40625,26.71875]]]},"properties":{"n":26}},{"type":"Feature","geometry":{"type":"Polygon","coordinates":[[[-21.09375,52.03125],[-19.6875,52.03125],[-19.6875,53.4375],[-21.09375,53.4375],[-21.09375,52.03125]]]},"properties":{"n":25}},{"type":"Feature","geometry":{"type":"Polygon","coordinates":[[[-18.28125,40.78125],[-16.875,40.78125],[-16.875,42.1875],[-18.28125,42.1875],[-18.28125,40.78125]]]},"properties":{"n":25}},{"type":"Feature","geometry":{"type":"Polygon","coordinates":[[[2.8125,37.96875],[4.21875,37.96875],[4.21875,39.375],[2.8125,39.375],[2.8125,37.96875]]]},"properties":{"n":24}},{"type":"Feature","geometry":{"type":"Polygon","coordinates":[[[-16.875,40.78125],[-15.46875,40.78125],[-15.46875,42.1875],[-16.875,42.1875],[-16.875,40.78125]]]},"properties":{"n":24}},{"type":"Feature","geometry":{"type":"Polygon","coordinates":[[[-21.09375,39.375],[-19.6875,39.375],[-19.6875,40.78125],[-21.09375,40.78125],[-21.09375,39.375]]]},"properties":{"n":24}},{"type":"Feature","geometry":{"type":"Polygon","coordinates":[[[7.03125,40.78125],[8.4375,40.78125],[8.4375,42.1875],[7.03125,42.1875],[7.03125,40.78125]]]},"properties":{"n":23}},{"type":"Feature","geometry":{"type":"Polygon","coordinates":[[[-14.0625,36.5625],[-12.65625,36.5625],[-12.65625,37.96875],[-14.0625,37.96875],[-14.0625,36.5625]]]},"properties":{"n":23}},{"type":"Feature","geometry":{"type":"Polygon","coordinates":[[[-23.90625,29.53125],[-22.5,29.53125],[-22.5,30.9375],[-23.90625,30.9375],[-23.90625,29.53125]]]},"properties":{"n":23}},{"type":"Feature","geometry":{"type":"Polygon","coordinates":[[[-21.09375,59.0625],[-19.6875,59.0625],[-19.6875,60.46875],[-21.09375,60.46875],[-21.09375,59.0625]]]},"properties":{"n":22}},{"type":"Feature","geometry":{"type":"Polygon","coordinates":[[[-64.6875,39.375],[-63.28125,39.375],[-63.28125,40.78125],[-64.6875,40.78125],[-64.6875,39.375]]]},"properties":{"n":22}},{"type":"Feature","geometry":{"type":"Polygon","coordinates":[[[-14.0625,49.21875],[-12.65625,49.21875],[-12.65625,50.625],[-14.0625,50.625],[-14.0625,49.21875]]]},"properties":{"n":21}},{"type":"Feature","geometry":{"type":"Polygon","coordinates":[[[-75.9375,35.15625],[-74.53125,35.15625],[-74.53125,36.5625],[-75.9375,36.5625],[-75.9375,35.15625]]]},"properties":{"n":21}},{"type":"Feature","geometry":{"type":"Polygon","coordinates":[[[-66.09375,39.375],[-64.6875,39.375],[-64.6875,40.78125],[-66.09375,40.78125],[-66.09375,39.375]]]},"properties":{"n":19}},{"type":"Feature","geometry":{"type":"Polygon","coordinates":[[[-78.75,30.9375],[-77.34375,30.9375],[-77.34375,32.34375],[-78.75,32.34375],[-78.75,30.9375]]]},"properties":{"n":19}},{"type":"Feature","geometry":{"type":"Polygon","coordinates":[[[-26.71875,30.9375],[-25.3125,30.9375],[-25.3125,32.34375],[-26.71875,32.34375],[-26.71875,30.9375]]]},"properties":{"n":18}},{"type":"Feature","geometry":{"type":"Polygon","coordinates":[[[-30.9375,32.34375],[-29.53125,32.34375],[-29.53125,33.75],[-30.9375,33.75],[-30.9375,32.34375]]]},"properties":{"n":18}},{"type":"Feature","geometry":{"type":"Polygon","coordinates":[[[-64.6875,32.34375],[-63.28125,32.34375],[-63.28125,33.75],[-64.6875,33.75],[-64.6875,32.34375]]]},"properties":{"n":18}},{"type":"Feature","geometry":{"type":"Polygon","coordinates":[[[-80.15625,29.53125],[-78.75,29.53125],[-78.75,30.9375],[-80.15625,30.9375],[-80.15625,29.53125]]]},"properties":{"n":18}},{"type":"Feature","geometry":{"type":"Polygon","coordinates":[[[0,36.5625],[1.40625,36.5625],[1.40625,37.96875],[0,37.96875],[0,36.5625]]]},"properties":{"n":17}},{"type":"Feature","geometry":{"type":"Polygon","coordinates":[[[-66.09375,30.9375],[-64.6875,30.9375],[-64.6875,32.34375],[-66.09375,32.34375],[-66.09375,30.9375]]]},"properties":{"n":17}},{"type":"Feature","geometry":{"type":"Polygon","coordinates":[[[-60.46875,42.1875],[-59.0625,42.1875],[-59.0625,43.59375],[-60.46875,43.59375],[-60.46875,42.1875]]]},"properties":{"n":15}},{"type":"Feature","geometry":{"type":"Polygon","coordinates":[[[-71.71875,37.96875],[-70.3125,37.96875],[-70.3125,39.375],[-71.71875,39.375],[-71.71875,37.96875]]]},"properties":{"n":15}},{"type":"Feature","geometry":{"type":"Polygon","coordinates":[[[-71.71875,33.75],[-70.3125,33.75],[-70.3125,35.15625],[-71.71875,35.15625],[-71.71875,33.75]]]},"properties":{"n":15}},{"type":"Feature","geometry":{"type":"Polygon","coordinates":[[[-61.875,42.1875],[-60.46875,42.1875],[-60.46875,43.59375],[-61.875,43.59375],[-61.875,42.1875]]]},"properties":{"n":14}},{"type":"Feature","geometry":{"type":"Polygon","coordinates":[[[-64.6875,42.1875],[-63.28125,42.1875],[-63.28125,43.59375],[-64.6875,43.59375],[-64.6875,42.1875]]]},"properties":{"n":14}},{"type":"Feature","geometry":{"type":"Polygon","coordinates":[[[-66.09375,40.78125],[-64.6875,40.78125],[-64.6875,42.1875],[-66.09375,42.1875],[-66.09375,40.78125]]]},"properties":{"n":13}},{"type":"Feature","geometry":{"type":"Polygon","coordinates":[[[-71.71875,35.15625],[-70.3125,35.15625],[-70.3125,36.5625],[-71.71875,36.5625],[-71.71875,35.15625]]]},"properties":{"n":13}},{"type":"Feature","geometry":{"type":"Polygon","coordinates":[[[-88.59375,28.125],[-87.1875,28.125],[-87.1875,29.53125],[-88.59375,29.53125],[-88.59375,28.125]]]},"properties":{"n":13}},{"type":"Feature","geometry":{"type":"Polygon","coordinates":[[[28.125,64.6875],[29.53125,64.6875],[29.53125,66.09375],[28.125,66.09375],[28.125,64.6875]]]},"properties":{"n":12}},{"type":"Feature","geometry":{"type":"Polygon","coordinates":[[[39.375,36.5625],[40.78125,36.5625],[40.78125,37.96875],[39.375,37.96875],[39.375,36.5625]]]},"properties":{"n":12}},{"type":"Feature","geometry":{"type":"Polygon","coordinates":[[[5.625,39.375],[7.03125,39.375],[7.03125,40.78125],[5.625,40.78125],[5.625,39.375]]]},"properties":{"n":12}},{"type":"Feature","geometry":{"type":"Polygon","coordinates":[[[2.8125,40.78125],[4.21875,40.78125],[4.21875,42.1875],[2.8125,42.1875],[2.8125,40.78125]]]},"properties":{"n":12}},{"type":"Feature","geometry":{"type":"Polygon","coordinates":[[[-70.3125,37.96875],[-68.90625,37.96875],[-68.90625,39.375],[-70.3125,39.375],[-70.3125,37.96875]]]},"properties":{"n":12}},{"type":"Feature","geometry":{"type":"Polygon","coordinates":[[[-74.53125,32.34375],[-73.125,32.34375],[-73.125,33.75],[-74.53125,33.75],[-74.53125,32.34375]]]},"properties":{"n":12}},{"type":"Feature","geometry":{"type":"Polygon","coordinates":[[[-78.75,25.3125],[-77.34375,25.3125],[-77.34375,26.71875],[-78.75,26.71875],[-78.75,25.3125]]]},"properties":{"n":12}},{"type":"Feature","geometry":{"type":"Polygon","coordinates":[[[25.3125,32.34375],[26.71875,32.34375],[26.71875,33.75],[25.3125,33.75],[25.3125,32.34375]]]},"properties":{"n":11}},{"type":"Feature","geometry":{"type":"Polygon","coordinates":[[[-15.46875,49.21875],[-14.0625,49.21875],[-14.0625,50.625],[-15.46875,50.625],[-15.46875,49.21875]]]},"properties":{"n":11}},{"type":"Feature","geometry":{"type":"Polygon","coordinates":[[[-88.59375,26.71875],[-87.1875,26.71875],[-87.1875,28.125],[-88.59375,28.125],[-88.59375,26.71875]]]},"properties":{"n":11}},{"type":"Feature","geometry":{"type":"Polygon","coordinates":[[[9.84375,-5.625],[11.25,-5.625],[11.25,-4.21875],[9.84375,-4.21875],[9.84375,-5.625]]]},"properties":{"n":10}},{"type":"Feature","geometry":{"type":"Polygon","coordinates":[[[-12.65625,43.59375],[-11.25,43.59375],[-11.25,45],[-12.65625,45],[-12.65625,43.59375]]]},"properties":{"n":10}},{"type":"Feature","geometry":{"type":"Polygon","coordinates":[[[-25.3125,30.9375],[-23.90625,30.9375],[-23.90625,32.34375],[-25.3125,32.34375],[-25.3125,30.9375]]]},"properties":{"n":10}},{"type":"Feature","geometry":{"type":"Polygon","coordinates":[[[-67.5,36.5625],[-66.09375,36.5625],[-66.09375,37.96875],[-67.5,37.96875],[-67.5,36.5625]]]},"properties":{"n":10}},{"type":"Feature","geometry":{"type":"Polygon","coordinates":[[[15.46875,35.15625],[16.875,35.15625],[16.875,36.5625],[15.46875,36.5625],[15.46875,35.15625]]]},"properties":{"n":9}},{"type":"Feature","geometry":{"type":"Polygon","coordinates":[[[-12.65625,49.21875],[-11.25,49.21875],[-11.25,50.625],[-12.65625,50.625],[-12.65625,49.21875]]]},"properties":{"n":9}},{"type":"Feature","geometry":{"type":"Polygon","coordinates":[[[-43.59375,46.40625],[-42.1875,46.40625],[-42.1875,47.8125],[-43.59375,47.8125],[-43.59375,46.40625]]]},"properties":{"n":9}},{"type":"Feature","geometry":{"type":"Polygon","coordinates":[[[-57.65625,43.59375],[-56.25,43.59375],[-56.25,45],[-57.65625,45],[-57.65625,43.59375]]]},"properties":{"n":9}},{"type":"Feature","geometry":{"type":"Polygon","coordinates":[[[-64.6875,36.5625],[-63.28125,36.5625],[-63.28125,37.96875],[-64.6875,37.96875],[-64.6875,36.5625]]]},"properties":{"n":9}},{"type":"Feature","geometry":{"type":"Polygon","coordinates":[[[-66.09375,36.5625],[-64.6875,36.5625],[-64.6875,37.96875],[-66.09375,37.96875],[-66.09375,36.5625]]]},"properties":{"n":9}},{"type":"Feature","geometry":{"type":"Polygon","coordinates":[[[-71.71875,39.375],[-70.3125,39.375],[-70.3125,40.78125],[-71.71875,40.78125],[-71.71875,39.375]]]},"properties":{"n":9}},{"type":"Feature","geometry":{"type":"Polygon","coordinates":[[[-78.75,29.53125],[-77.34375,29.53125],[-77.34375,30.9375],[-78.75,30.9375],[-78.75,29.53125]]]},"properties":{"n":9}},{"type":"Feature","geometry":{"type":"Polygon","coordinates":[[[-82.96875,22.5],[-81.5625,22.5],[-81.5625,23.90625],[-82.96875,23.90625],[-82.96875,22.5]]]},"properties":{"n":9}},{"type":"Feature","geometry":{"type":"Polygon","coordinates":[[[5.625,40.78125],[7.03125,40.78125],[7.03125,42.1875],[5.625,42.1875],[5.625,40.78125]]]},"properties":{"n":8}},{"type":"Feature","geometry":{"type":"Polygon","coordinates":[[[-5.625,43.59375],[-4.21875,43.59375],[-4.21875,45],[-5.625,45],[-5.625,43.59375]]]},"properties":{"n":8}},{"type":"Feature","geometry":{"type":"Polygon","coordinates":[[[-32.34375,30.9375],[-30.9375,30.9375],[-30.9375,32.34375],[-32.34375,32.34375],[-32.34375,30.9375]]]},"properties":{"n":8}},{"type":"Feature","geometry":{"type":"Polygon","coordinates":[[[-68.90625,35.15625],[-67.5,35.15625],[-67.5,36.5625],[-68.90625,36.5625],[-68.90625,35.15625]]]},"properties":{"n":8}},{"type":"Feature","geometry":{"type":"Polygon","coordinates":[[[11.25,61.875],[12.65625,61.875],[12.65625,63.28125],[11.25,63.28125],[11.25,61.875]]]},"properties":{"n":7}},{"type":"Feature","geometry":{"type":"Polygon","coordinates":[[[61.875,14.0625],[63.28125,14.0625],[63.28125,15.46875],[61.875,15.46875],[61.875,14.0625]]]},"properties":{"n":7}},{"type":"Feature","geometry":{"type":"Polygon","coordinates":[[[4.21875,39.375],[5.625,39.375],[5.625,40.78125],[4.21875,40.78125],[4.21875,39.375]]]},"properties":{"n":7}},{"type":"Feature","geometry":{"type":"Polygon","coordinates":[[[-9.84375,56.25],[-8.4375,56.25],[-8.4375,57.65625],[-9.84375,57.65625],[-9.84375,56.25]]]},"properties":{"n":7}},{"type":"Feature","geometry":{"type":"Polygon","coordinates":[[[-14.0625,26.71875],[-12.65625,26.71875],[-12.65625,28.125],[-14.0625,28.125],[-14.0625,26.71875]]]},"properties":{"n":7}},{"type":"Feature","geometry":{"type":"Polygon","coordinates":[[[-22.5,19.6875],[-21.09375,19.6875],[-21.09375,21.09375],[-22.5,21.09375],[-22.5,19.6875]]]},"properties":{"n":7}},{"type":"Feature","geometry":{"type":"Polygon","coordinates":[[[-66.09375,35.15625],[-64.6875,35.15625],[-64.6875,36.5625],[-66.09375,36.5625],[-66.09375,35.15625]]]},"properties":{"n":7}},{"type":"Feature","geometry":{"type":"Polygon","coordinates":[[[-70.3125,36.5625],[-68.90625,36.5625],[-68.90625,37.96875],[-70.3125,37.96875],[-70.3125,36.5625]]]},"properties":{"n":7}},{"type":"Feature","geometry":{"type":"Polygon","coordinates":[[[-71.71875,36.5625],[-70.3125,36.5625],[-70.3125,37.96875],[-71.71875,37.96875],[-71.71875,36.5625]]]},"properties":{"n":7}},{"type":"Feature","geometry":{"type":"Polygon","coordinates":[[[71.71875,23.90625],[73.125,23.90625],[73.125,25.3125],[71.71875,25.3125],[71.71875,23.90625]]]},"properties":{"n":6}},{"type":"Feature","geometry":{"type":"Polygon","coordinates":[[[1.40625,36.5625],[2.8125,36.5625],[2.8125,37.96875],[1.40625,37.96875],[1.40625,36.5625]]]},"properties":{"n":6}},{"type":"Feature","geometry":{"type":"Polygon","coordinates":[[[151.875,-35.15625],[153.28125,-35.15625],[153.28125,-33.75],[151.875,-33.75],[151.875,-35.15625]]]},"properties":{"n":6}},{"type":"Feature","geometry":{"type":"Polygon","coordinates":[[[5.625,-1.40625],[7.03125,-1.40625],[7.03125,0],[5.625,0],[5.625,-1.40625]]]},"properties":{"n":6}},{"type":"Feature","geometry":{"type":"Polygon","coordinates":[[[-16.875,60.46875],[-15.46875,60.46875],[-15.46875,61.875],[-16.875,61.875],[-16.875,60.46875]]]},"properties":{"n":6}},{"type":"Feature","geometry":{"type":"Polygon","coordinates":[[[-18.28125,57.65625],[-16.875,57.65625],[-16.875,59.0625],[-18.28125,59.0625],[-18.28125,57.65625]]]},"properties":{"n":6}},{"type":"Feature","geometry":{"type":"Polygon","coordinates":[[[-25.3125,37.96875],[-23.90625,37.96875],[-23.90625,39.375],[-25.3125,39.375],[-25.3125,37.96875]]]},"properties":{"n":6}},{"type":"Feature","geometry":{"type":"Polygon","coordinates":[[[-60.46875,43.59375],[-59.0625,43.59375],[-59.0625,45],[-60.46875,45],[-60.46875,43.59375]]]},"properties":{"n":6}},{"type":"Feature","geometry":{"type":"Polygon","coordinates":[[[-73.125,36.5625],[-71.71875,36.5625],[-71.71875,37.96875],[-73.125,37.96875],[-73.125,36.5625]]]},"properties":{"n":6}},{"type":"Feature","geometry":{"type":"Polygon","coordinates":[[[-77.34375,23.90625],[-75.9375,23.90625],[-75.9375,25.3125],[-77.34375,25.3125],[-77.34375,23.90625]]]},"properties":{"n":6}},{"type":"Feature","geometry":{"type":"Polygon","coordinates":[[[-37.96875,-21.09375],[-36.5625,-21.09375],[-36.5625,-19.6875],[-37.96875,-19.6875],[-37.96875,-21.09375]]]},"properties":{"n":6}},{"type":"Feature","geometry":{"type":"Polygon","coordinates":[[[165.9375,-39.375],[167.34375,-39.375],[167.34375,-37.96875],[165.9375,-37.96875],[165.9375,-39.375]]]},"properties":{"n":5}},{"type":"Feature","geometry":{"type":"Polygon","coordinates":[[[-12.65625,59.0625],[-11.25,59.0625],[-11.25,60.46875],[-12.65625,60.46875],[-12.65625,59.0625]]]},"properties":{"n":5}},{"type":"Feature","geometry":{"type":"Polygon","coordinates":[[[-64.6875,40.78125],[-63.28125,40.78125],[-63.28125,42.1875],[-64.6875,42.1875],[-64.6875,40.78125]]]},"properties":{"n":5}},{"type":"Feature","geometry":{"type":"Polygon","coordinates":[[[-68.90625,37.96875],[-67.5,37.96875],[-67.5,39.375],[-68.90625,39.375],[-68.90625,37.96875]]]},"properties":{"n":5}},{"type":"Feature","geometry":{"type":"Polygon","coordinates":[[[-80.15625,26.71875],[-78.75,26.71875],[-78.75,28.125],[-80.15625,28.125],[-80.15625,26.71875]]]},"properties":{"n":5}},{"type":"Feature","geometry":{"type":"Polygon","coordinates":[[[-85.78125,25.3125],[-84.375,25.3125],[-84.375,26.71875],[-85.78125,26.71875],[-85.78125,25.3125]]]},"properties":{"n":5}},{"type":"Feature","geometry":{"type":"Polygon","coordinates":[[[-39.375,-22.5],[-37.96875,-22.5],[-37.96875,-21.09375],[-39.375,-21.09375],[-39.375,-22.5]]]},"properties":{"n":5}},{"type":"Feature","geometry":{"type":"Polygon","coordinates":[[[39.375,37.96875],[40.78125,37.96875],[40.78125,39.375],[39.375,39.375],[39.375,37.96875]]]},"properties":{"n":4}},{"type":"Feature","geometry":{"type":"Polygon","coordinates":[[[0,33.75],[1.40625,33.75],[1.40625,35.15625],[0,35.15625],[0,33.75]]]},"properties":{"n":4}},{"type":"Feature","geometry":{"type":"Polygon","coordinates":[[[150.46875,-7.03125],[151.875,-7.03125],[151.875,-5.625],[150.46875,-5.625],[150.46875,-7.03125]]]},"properties":{"n":4}},{"type":"Feature","geometry":{"type":"Polygon","coordinates":[[[150.46875,-35.15625],[151.875,-35.15625],[151.875,-33.75],[150.46875,-33.75],[150.46875,-35.15625]]]},"properties":{"n":4}},{"type":"Feature","geometry":{"type":"Polygon","coordinates":[[[149.0625,-39.375],[150.46875,-39.375],[150.46875,-37.96875],[149.0625,-37.96875],[149.0625,-39.375]]]},"properties":{"n":4}},{"type":"Feature","geometry":{"type":"Polygon","coordinates":[[[77.34375,-37.96875],[78.75,-37.96875],[78.75,-36.5625],[77.34375,-36.5625],[77.34375,-37.96875]]]},"properties":{"n":4}},{"type":"Feature","geometry":{"type":"Polygon","coordinates":[[[8.4375,-4.21875],[9.84375,-4.21875],[9.84375,-2.8125],[8.4375,-2.8125],[8.4375,-4.21875]]]},"properties":{"n":4}},{"type":"Feature","geometry":{"type":"Polygon","coordinates":[[[-14.0625,61.875],[-12.65625,61.875],[-12.65625,63.28125],[-14.0625,63.28125],[-14.0625,61.875]]]},"properties":{"n":4}},{"type":"Feature","geometry":{"type":"Polygon","coordinates":[[[-19.6875,59.0625],[-18.28125,59.0625],[-18.28125,60.46875],[-19.6875,60.46875],[-19.6875,59.0625]]]},"properties":{"n":4}},{"type":"Feature","geometry":{"type":"Polygon","coordinates":[[[-18.28125,56.25],[-16.875,56.25],[-16.875,57.65625],[-18.28125,57.65625],[-18.28125,56.25]]]},"properties":{"n":4}},{"type":"Feature","geometry":{"type":"Polygon","coordinates":[[[-8.4375,46.40625],[-7.03125,46.40625],[-7.03125,47.8125],[-8.4375,47.8125],[-8.4375,46.40625]]]},"properties":{"n":4}},{"type":"Feature","geometry":{"type":"Polygon","coordinates":[[[-18.28125,53.4375],[-16.875,53.4375],[-16.875,54.84375],[-18.28125,54.84375],[-18.28125,53.4375]]]},"properties":{"n":4}},{"type":"Feature","geometry":{"type":"Polygon","coordinates":[[[-14.0625,47.8125],[-12.65625,47.8125],[-12.65625,49.21875],[-14.0625,49.21875],[-14.0625,47.8125]]]},"properties":{"n":4}},{"type":"Feature","geometry":{"type":"Polygon","coordinates":[[[-29.53125,59.0625],[-28.125,59.0625],[-28.125,60.46875],[-29.53125,60.46875],[-29.53125,59.0625]]]},"properties":{"n":4}},{"type":"Feature","geometry":{"type":"Polygon","coordinates":[[[-59.0625,45],[-57.65625,45],[-57.65625,46.40625],[-59.0625,46.40625],[-59.0625,45]]]},"properties":{"n":4}},{"type":"Feature","geometry":{"type":"Polygon","coordinates":[[[-5.625,42.1875],[-4.21875,42.1875],[-4.21875,43.59375],[-5.625,43.59375],[-5.625,42.1875]]]},"properties":{"n":4}},{"type":"Feature","geometry":{"type":"Polygon","coordinates":[[[-11.25,37.96875],[-9.84375,37.96875],[-9.84375,39.375],[-11.25,39.375],[-11.25,37.96875]]]},"properties":{"n":4}},{"type":"Feature","geometry":{"type":"Polygon","coordinates":[[[-15.46875,39.375],[-14.0625,39.375],[-14.0625,40.78125],[-15.46875,40.78125],[-15.46875,39.375]]]},"properties":{"n":4}},{"type":"Feature","geometry":{"type":"Polygon","coordinates":[[[-29.53125,42.1875],[-28.125,42.1875],[-28.125,43.59375],[-29.53125,43.59375],[-29.53125,42.1875]]]},"properties":{"n":4}},{"type":"Feature","geometry":{"type":"Polygon","coordinates":[[[-50.625,40.78125],[-49.21875,40.78125],[-49.21875,42.1875],[-50.625,42.1875],[-50.625,40.78125]]]},"properties":{"n":4}},{"type":"Feature","geometry":{"type":"Polygon","coordinates":[[[-66.09375,37.96875],[-64.6875,37.96875],[-64.6875,39.375],[-66.09375,39.375],[-66.09375,37.96875]]]},"properties":{"n":4}},{"type":"Feature","geometry":{"type":"Polygon","coordinates":[[[-63.28125,35.15625],[-61.875,35.15625],[-61.875,36.5625],[-63.28125,36.5625],[-63.28125,35.15625]]]},"properties":{"n":4}},{"type":"Feature","geometry":{"type":"Polygon","coordinates":[[[-67.5,35.15625],[-66.09375,35.15625],[-66.09375,36.5625],[-67.5,36.5625],[-67.5,35.15625]]]},"properties":{"n":4}},{"type":"Feature","geometry":{"type":"Polygon","coordinates":[[[-66.09375,32.34375],[-64.6875,32.34375],[-64.6875,33.75],[-66.09375,33.75],[-66.09375,32.34375]]]},"properties":{"n":4}},{"type":"Feature","geometry":{"type":"Polygon","coordinates":[[[-68.90625,36.5625],[-67.5,36.5625],[-67.5,37.96875],[-68.90625,37.96875],[-68.90625,36.5625]]]},"properties":{"n":4}},{"type":"Feature","geometry":{"type":"Polygon","coordinates":[[[-82.96875,23.90625],[-81.5625,23.90625],[-81.5625,25.3125],[-82.96875,25.3125],[-82.96875,23.90625]]]},"properties":{"n":4}},{"type":"Feature","geometry":{"type":"Polygon","coordinates":[[[-37.96875,-18.28125],[-36.5625,-18.28125],[-36.5625,-16.875],[-37.96875,-16.875],[-37.96875,-18.28125]]]},"properties":{"n":4}},{"type":"Feature","geometry":{"type":"Polygon","coordinates":[[[14.0625,50.625],[15.46875,50.625],[15.46875,52.03125],[14.0625,52.03125],[14.0625,50.625]]]},"properties":{"n":3}},{"type":"Feature","geometry":{"type":"Polygon","coordinates":[[[11.25,37.96875],[12.65625,37.96875],[12.65625,39.375],[11.25,39.375],[11.25,37.96875]]]},"properties":{"n":3}},{"type":"Feature","geometry":{"type":"Polygon","coordinates":[[[150.46875,-8.4375],[151.875,-8.4375],[151.875,-7.03125],[150.46875,-7.03125],[150.46875,-8.4375]]]},"properties":{"n":3}},{"type":"Feature","geometry":{"type":"Polygon","coordinates":[[[146.25,-12.65625],[147.65625,-12.65625],[147.65625,-11.25],[146.25,-11.25],[146.25,-12.65625]]]},"properties":{"n":3}},{"type":"Feature","geometry":{"type":"Polygon","coordinates":[[[43.59375,-33.75],[45,-33.75],[45,-32.34375],[43.59375,-32.34375],[43.59375,-33.75]]]},"properties":{"n":3}},{"type":"Feature","geometry":{"type":"Polygon","coordinates":[[[-9.84375,59.0625],[-8.4375,59.0625],[-8.4375,60.46875],[-9.84375,60.46875],[-9.84375,59.0625]]]},"properties":{"n":3}},{"type":"Feature","geometry":{"type":"Polygon","coordinates":[[[-25.3125,61.875],[-23.90625,61.875],[-23.90625,63.28125],[-25.3125,63.28125],[-25.3125,61.875]]]},"properties":{"n":3}},{"type":"Feature","geometry":{"type":"Polygon","coordinates":[[[-60.46875,46.40625],[-59.0625,46.40625],[-59.0625,47.8125],[-60.46875,47.8125],[-60.46875,46.40625]]]},"properties":{"n":3}},{"type":"Feature","geometry":{"type":"Polygon","coordinates":[[[-4.21875,43.59375],[-2.8125,43.59375],[-2.8125,45],[-4.21875,45],[-4.21875,43.59375]]]},"properties":{"n":3}},{"type":"Feature","geometry":{"type":"Polygon","coordinates":[[[-9.84375,35.15625],[-8.4375,35.15625],[-8.4375,36.5625],[-9.84375,36.5625],[-9.84375,35.15625]]]},"properties":{"n":3}},{"type":"Feature","geometry":{"type":"Polygon","coordinates":[[[-30.9375,42.1875],[-29.53125,42.1875],[-29.53125,43.59375],[-30.9375,43.59375],[-30.9375,42.1875]]]},"properties":{"n":3}},{"type":"Feature","geometry":{"type":"Polygon","coordinates":[[[-29.53125,40.78125],[-28.125,40.78125],[-28.125,42.1875],[-29.53125,42.1875],[-29.53125,40.78125]]]},"properties":{"n":3}},{"type":"Feature","geometry":{"type":"Polygon","coordinates":[[[-29.53125,37.96875],[-28.125,37.96875],[-28.125,39.375],[-29.53125,39.375],[-29.53125,37.96875]]]},"properties":{"n":3}},{"type":"Feature","geometry":{"type":"Polygon","coordinates":[[[-23.90625,19.6875],[-22.5,19.6875],[-22.5,21.09375],[-23.90625,21.09375],[-23.90625,19.6875]]]},"properties":{"n":3}},{"type":"Feature","geometry":{"type":"Polygon","coordinates":[[[-26.71875,16.875],[-25.3125,16.875],[-25.3125,18.28125],[-26.71875,18.28125],[-26.71875,16.875]]]},"properties":{"n":3}},{"type":"Feature","geometry":{"type":"Polygon","coordinates":[[[-54.84375,43.59375],[-53.4375,43.59375],[-53.4375,45],[-54.84375,45],[-54.84375,43.59375]]]},"properties":{"n":3}},{"type":"Feature","geometry":{"type":"Polygon","coordinates":[[[-56.25,43.59375],[-54.84375,43.59375],[-54.84375,45],[-56.25,45],[-56.25,43.59375]]]},"properties":{"n":3}},{"type":"Feature","geometry":{"type":"Polygon","coordinates":[[[-67.5,39.375],[-66.09375,39.375],[-66.09375,40.78125],[-67.5,40.78125],[-67.5,39.375]]]},"properties":{"n":3}},{"type":"Feature","geometry":{"type":"Polygon","coordinates":[[[-61.875,35.15625],[-60.46875,35.15625],[-60.46875,36.5625],[-61.875,36.5625],[-61.875,35.15625]]]},"properties":{"n":3}},{"type":"Feature","geometry":{"type":"Polygon","coordinates":[[[-70.3125,39.375],[-68.90625,39.375],[-68.90625,40.78125],[-70.3125,40.78125],[-70.3125,39.375]]]},"properties":{"n":3}},{"type":"Feature","geometry":{"type":"Polygon","coordinates":[[[-77.34375,32.34375],[-75.9375,32.34375],[-75.9375,33.75],[-77.34375,33.75],[-77.34375,32.34375]]]},"properties":{"n":3}},{"type":"Feature","geometry":{"type":"Polygon","coordinates":[[[-81.5625,23.90625],[-80.15625,23.90625],[-80.15625,25.3125],[-81.5625,25.3125],[-81.5625,23.90625]]]},"properties":{"n":3}},{"type":"Feature","geometry":{"type":"Polygon","coordinates":[[[-91.40625,25.3125],[-90,25.3125],[-90,26.71875],[-91.40625,26.71875],[-91.40625,25.3125]]]},"properties":{"n":3}},{"type":"Feature","geometry":{"type":"Polygon","coordinates":[[[-29.53125,-21.09375],[-28.125,-21.09375],[-28.125,-19.6875],[-29.53125,-19.6875],[-29.53125,-21.09375]]]},"properties":{"n":3}},{"type":"Feature","geometry":{"type":"Polygon","coordinates":[[[-39.375,-15.46875],[-37.96875,-15.46875],[-37.96875,-14.0625],[-39.375,-14.0625],[-39.375,-15.46875]]]},"properties":{"n":3}},{"type":"Feature","geometry":{"type":"Polygon","coordinates":[[[-39.375,-16.875],[-37.96875,-16.875],[-37.96875,-15.46875],[-39.375,-15.46875],[-39.375,-16.875]]]},"properties":{"n":3}},{"type":"Feature","geometry":{"type":"Polygon","coordinates":[[[-36.5625,-18.28125],[-35.15625,-18.28125],[-35.15625,-16.875],[-36.5625,-16.875],[-36.5625,-18.28125]]]},"properties":{"n":3}},{"type":"Feature","geometry":{"type":"Polygon","coordinates":[[[-36.5625,-21.09375],[-35.15625,-21.09375],[-35.15625,-19.6875],[-36.5625,-19.6875],[-36.5625,-21.09375]]]},"properties":{"n":3}},{"type":"Feature","geometry":{"type":"Polygon","coordinates":[[[9.84375,57.65625],[11.25,57.65625],[11.25,59.0625],[9.84375,59.0625],[9.84375,57.65625]]]},"properties":{"n":2}},{"type":"Feature","geometry":{"type":"Polygon","coordinates":[[[28.125,33.75],[29.53125,33.75],[29.53125,35.15625],[28.125,35.15625],[28.125,33.75]]]},"properties":{"n":2}},{"type":"Feature","geometry":{"type":"Polygon","coordinates":[[[18.28125,36.5625],[19.6875,36.5625],[19.6875,37.96875],[18.28125,37.96875],[18.28125,36.5625]]]},"properties":{"n":2}},{"type":"Feature","geometry":{"type":"Polygon","coordinates":[[[15.46875,37.96875],[16.875,37.96875],[16.875,39.375],[15.46875,39.375],[15.46875,37.96875]]]},"properties":{"n":2}},{"type":"Feature","geometry":{"type":"Polygon","coordinates":[[[14.0625,35.15625],[15.46875,35.15625],[15.46875,36.5625],[14.0625,36.5625],[14.0625,35.15625]]]},"properties":{"n":2}},{"type":"Feature","geometry":{"type":"Polygon","coordinates":[[[1.40625,40.78125],[2.8125,40.78125],[2.8125,42.1875],[1.40625,42.1875],[1.40625,40.78125]]]},"properties":{"n":2}},{"type":"Feature","geometry":{"type":"Polygon","coordinates":[[[168.75,-21.09375],[170.15625,-21.09375],[170.15625,-19.6875],[168.75,-19.6875],[168.75,-21.09375]]]},"properties":{"n":2}},{"type":"Feature","geometry":{"type":"Polygon","coordinates":[[[167.34375,-22.5],[168.75,-22.5],[168.75,-21.09375],[167.34375,-21.09375],[167.34375,-22.5]]]},"properties":{"n":2}},{"type":"Feature","geometry":{"type":"Polygon","coordinates":[[[151.875,-5.625],[153.28125,-5.625],[153.28125,-4.21875],[151.875,-4.21875],[151.875,-5.625]]]},"properties":{"n":2}},{"type":"Feature","geometry":{"type":"Polygon","coordinates":[[[147.65625,-12.65625],[149.0625,-12.65625],[149.0625,-11.25],[147.65625,-11.25],[147.65625,-12.65625]]]},"properties":{"n":2}},{"type":"Feature","geometry":{"type":"Polygon","coordinates":[[[147.65625,-14.0625],[149.0625,-14.0625],[149.0625,-12.65625],[147.65625,-12.65625],[147.65625,-14.0625]]]},"properties":{"n":2}},{"type":"Feature","geometry":{"type":"Polygon","coordinates":[[[158.90625,-33.75],[160.3125,-33.75],[160.3125,-32.34375],[158.90625,-32.34375],[158.90625,-33.75]]]},"properties":{"n":2}},{"type":"Feature","geometry":{"type":"Polygon","coordinates":[[[54.84375,-21.09375],[56.25,-21.09375],[56.25,-19.6875],[54.84375,-19.6875],[54.84375,-21.09375]]]},"properties":{"n":2}},{"type":"Feature","geometry":{"type":"Polygon","coordinates":[[[77.34375,-39.375],[78.75,-39.375],[78.75,-37.96875],[77.34375,-37.96875],[77.34375,-39.375]]]},"properties":{"n":2}},{"type":"Feature","geometry":{"type":"Polygon","coordinates":[[[64.6875,-25.3125],[66.09375,-25.3125],[66.09375,-23.90625],[64.6875,-23.90625],[64.6875,-25.3125]]]},"properties":{"n":2}},{"type":"Feature","geometry":{"type":"Polygon","coordinates":[[[45,-32.34375],[46.40625,-32.34375],[46.40625,-30.9375],[45,-30.9375],[45,-32.34375]]]},"properties":{"n":2}},{"type":"Feature","geometry":{"type":"Polygon","coordinates":[[[8.4375,-2.8125],[9.84375,-2.8125],[9.84375,-1.40625],[8.4375,-1.40625],[8.4375,-2.8125]]]},"properties":{"n":2}},{"type":"Feature","geometry":{"type":"Polygon","coordinates":[[[43.59375,-35.15625],[45,-35.15625],[45,-33.75],[43.59375,-33.75],[43.59375,-35.15625]]]},"properties":{"n":2}},{"type":"Feature","geometry":{"type":"Polygon","coordinates":[[[1.40625,-33.75],[2.8125,-33.75],[2.8125,-32.34375],[1.40625,-32.34375],[1.40625,-33.75]]]},"properties":{"n":2}},{"type":"Feature","geometry":{"type":"Polygon","coordinates":[[[15.46875,-35.15625],[16.875,-35.15625],[16.875,-33.75],[15.46875,-33.75],[15.46875,-35.15625]]]},"properties":{"n":2}},{"type":"Feature","geometry":{"type":"Polygon","coordinates":[[[-7.03125,59.0625],[-5.625,59.0625],[-5.625,60.46875],[-7.03125,60.46875],[-7.03125,59.0625]]]},"properties":{"n":2}},{"type":"Feature","geometry":{"type":"Polygon","coordinates":[[[-19.6875,61.875],[-18.28125,61.875],[-18.28125,63.28125],[-19.6875,63.28125],[-19.6875,61.875]]]},"properties":{"n":2}},{"type":"Feature","geometry":{"type":"Polygon","coordinates":[[[-16.875,59.0625],[-15.46875,59.0625],[-15.46875,60.46875],[-16.875,60.46875],[-16.875,59.0625]]]},"properties":{"n":2}},{"type":"Feature","geometry":{"type":"Polygon","coordinates":[[[-5.625,45],[-4.21875,45],[-4.21875,46.40625],[-5.625,46.40625],[-5.625,45]]]},"properties":{"n":2}},{"type":"Feature","geometry":{"type":"Polygon","coordinates":[[[-9.84375,46.40625],[-8.4375,46.40625],[-8.4375,47.8125],[-9.84375,47.8125],[-9.84375,46.40625]]]},"properties":{"n":2}},{"type":"Feature","geometry":{"type":"Polygon","coordinates":[[[-12.65625,47.8125],[-11.25,47.8125],[-11.25,49.21875],[-12.65625,49.21875],[-12.65625,47.8125]]]},"properties":{"n":2}},{"type":"Feature","geometry":{"type":"Polygon","coordinates":[[[-29.53125,63.28125],[-28.125,63.28125],[-28.125,64.6875],[-29.53125,64.6875],[-29.53125,63.28125]]]},"properties":{"n":2}},{"type":"Feature","geometry":{"type":"Polygon","coordinates":[[[-25.3125,60.46875],[-23.90625,60.46875],[-23.90625,61.875],[-25.3125,61.875],[-25.3125,60.46875]]]},"properties":{"n":2}},{"type":"Feature","geometry":{"type":"Polygon","coordinates":[[[-26.71875,60.46875],[-25.3125,60.46875],[-25.3125,61.875],[-26.71875,61.875],[-26.71875,60.46875]]]},"properties":{"n":2}},{"type":"Feature","geometry":{"type":"Polygon","coordinates":[[[-29.53125,49.21875],[-28.125,49.21875],[-28.125,50.625],[-29.53125,50.625],[-29.53125,49.21875]]]},"properties":{"n":2}},{"type":"Feature","geometry":{"type":"Polygon","coordinates":[[[-46.40625,52.03125],[-45,52.03125],[-45,53.4375],[-46.40625,53.4375],[-46.40625,52.03125]]]},"properties":{"n":2}},{"type":"Feature","geometry":{"type":"Polygon","coordinates":[[[-49.21875,49.21875],[-47.8125,49.21875],[-47.8125,50.625],[-49.21875,50.625],[-49.21875,49.21875]]]},"properties":{"n":2}},{"type":"Feature","geometry":{"type":"Polygon","coordinates":[[[-47.8125,46.40625],[-46.40625,46.40625],[-46.40625,47.8125],[-47.8125,47.8125],[-47.8125,46.40625]]]},"properties":{"n":2}},{"type":"Feature","geometry":{"type":"Polygon","coordinates":[[[-59.0625,46.40625],[-57.65625,46.40625],[-57.65625,47.8125],[-59.0625,47.8125],[-59.0625,46.40625]]]},"properties":{"n":2}},{"type":"Feature","geometry":{"type":"Polygon","coordinates":[[[-1.40625,36.5625],[0,36.5625],[0,37.96875],[-1.40625,37.96875],[-1.40625,36.5625]]]},"properties":{"n":2}},{"type":"Feature","geometry":{"type":"Polygon","coordinates":[[[-2.8125,36.5625],[-1.40625,36.5625],[-1.40625,37.96875],[-2.8125,37.96875],[-2.8125,36.5625]]]},"properties":{"n":2}},{"type":"Feature","geometry":{"type":"Polygon","coordinates":[[[-5.625,35.15625],[-4.21875,35.15625],[-4.21875,36.5625],[-5.625,36.5625],[-5.625,35.15625]]]},"properties":{"n":2}},{"type":"Feature","geometry":{"type":"Polygon","coordinates":[[[-9.84375,33.75],[-8.4375,33.75],[-8.4375,35.15625],[-9.84375,35.15625],[-9.84375,33.75]]]},"properties":{"n":2}},{"type":"Feature","geometry":{"type":"Polygon","coordinates":[[[-22.5,43.59375],[-21.09375,43.59375],[-21.09375,45],[-22.5,45],[-22.5,43.59375]]]},"properties":{"n":2}},{"type":"Feature","geometry":{"type":"Polygon","coordinates":[[[-12.65625,37.96875],[-11.25,37.96875],[-11.25,39.375],[-12.65625,39.375],[-12.65625,37.96875]]]},"properties":{"n":2}},{"type":"Feature","geometry":{"type":"Polygon","coordinates":[[[-14.0625,35.15625],[-12.65625,35.15625],[-12.65625,36.5625],[-14.0625,36.5625],[-14.0625,35.15625]]]},"properties":{"n":2}},{"type":"Feature","geometry":{"type":"Polygon","coordinates":[[[-16.875,30.9375],[-15.46875,30.9375],[-15.46875,32.34375],[-16.875,32.34375],[-16.875,30.9375]]]},"properties":{"n":2}},{"type":"Feature","geometry":{"type":"Polygon","coordinates":[[[-19.6875,32.34375],[-18.28125,32.34375],[-18.28125,33.75],[-19.6875,33.75],[-19.6875,32.34375]]]},"properties":{"n":2}},{"type":"Feature","geometry":{"type":"Polygon","coordinates":[[[-22.5,25.3125],[-21.09375,25.3125],[-21.09375,26.71875],[-22.5,26.71875],[-22.5,25.3125]]]},"properties":{"n":2}},{"type":"Feature","geometry":{"type":"Polygon","coordinates":[[[-22.5,23.90625],[-21.09375,23.90625],[-21.09375,25.3125],[-22.5,25.3125],[-22.5,23.90625]]]},"properties":{"n":2}},{"type":"Feature","geometry":{"type":"Polygon","coordinates":[[[-21.09375,22.5],[-19.6875,22.5],[-19.6875,23.90625],[-21.09375,23.90625],[-21.09375,22.5]]]},"properties":{"n":2}},{"type":"Feature","geometry":{"type":"Polygon","coordinates":[[[-23.90625,40.78125],[-22.5,40.78125],[-22.5,42.1875],[-23.90625,42.1875],[-23.90625,40.78125]]]},"properties":{"n":2}},{"type":"Feature","geometry":{"type":"Polygon","coordinates":[[[-28.125,36.5625],[-26.71875,36.5625],[-26.71875,37.96875],[-28.125,37.96875],[-28.125,36.5625]]]},"properties":{"n":2}},{"type":"Feature","geometry":{"type":"Polygon","coordinates":[[[-18.28125,21.09375],[-16.875,21.09375],[-16.875,22.5],[-18.28125,22.5],[-18.28125,21.09375]]]},"properties":{"n":2}},{"type":"Feature","geometry":{"type":"Polygon","coordinates":[[[-25.3125,18.28125],[-23.90625,18.28125],[-23.90625,19.6875],[-25.3125,19.6875],[-25.3125,18.28125]]]},"properties":{"n":2}},{"type":"Feature","geometry":{"type":"Polygon","coordinates":[[[-25.3125,16.875],[-23.90625,16.875],[-23.90625,18.28125],[-25.3125,18.28125],[-25.3125,16.875]]]},"properties":{"n":2}},{"type":"Feature","geometry":{"type":"Polygon","coordinates":[[[-61.875,43.59375],[-60.46875,43.59375],[-60.46875,45],[-61.875,45],[-61.875,43.59375]]]},"properties":{"n":2}},{"type":"Feature","geometry":{"type":"Polygon","coordinates":[[[-67.5,42.1875],[-66.09375,42.1875],[-66.09375,43.59375],[-67.5,43.59375],[-67.5,42.1875]]]},"properties":{"n":2}},{"type":"Feature","geometry":{"type":"Polygon","coordinates":[[[-57.65625,32.34375],[-56.25,32.34375],[-56.25,33.75],[-57.65625,33.75],[-57.65625,32.34375]]]},"properties":{"n":2}},{"type":"Feature","geometry":{"type":"Polygon","coordinates":[[[-67.5,28.125],[-66.09375,28.125],[-66.09375,29.53125],[-67.5,29.53125],[-67.5,28.125]]]},"properties":{"n":2}},{"type":"Feature","geometry":{"type":"Polygon","coordinates":[[[-68.90625,39.375],[-67.5,39.375],[-67.5,40.78125],[-68.90625,40.78125],[-68.90625,39.375]]]},"properties":{"n":2}},{"type":"Feature","geometry":{"type":"Polygon","coordinates":[[[-78.75,32.34375],[-77.34375,32.34375],[-77.34375,33.75],[-78.75,33.75],[-78.75,32.34375]]]},"properties":{"n":2}},{"type":"Feature","geometry":{"type":"Polygon","coordinates":[[[-70.3125,25.3125],[-68.90625,25.3125],[-68.90625,26.71875],[-70.3125,26.71875],[-70.3125,25.3125]]]},"properties":{"n":2}},{"type":"Feature","geometry":{"type":"Polygon","coordinates":[[[-71.71875,22.5],[-70.3125,22.5],[-70.3125,23.90625],[-71.71875,23.90625],[-71.71875,22.5]]]},"properties":{"n":2}},{"type":"Feature","geometry":{"type":"Polygon","coordinates":[[[-77.34375,25.3125],[-75.9375,25.3125],[-75.9375,26.71875],[-77.34375,26.71875],[-77.34375,25.3125]]]},"properties":{"n":2}},{"type":"Feature","geometry":{"type":"Polygon","coordinates":[[[-80.15625,28.125],[-78.75,28.125],[-78.75,29.53125],[-80.15625,29.53125],[-80.15625,28.125]]]},"properties":{"n":2}},{"type":"Feature","geometry":{"type":"Polygon","coordinates":[[[-84.375,23.90625],[-82.96875,23.90625],[-82.96875,25.3125],[-84.375,25.3125],[-84.375,23.90625]]]},"properties":{"n":2}},{"type":"Feature","geometry":{"type":"Polygon","coordinates":[[[-84.375,22.5],[-82.96875,22.5],[-82.96875,23.90625],[-84.375,23.90625],[-84.375,22.5]]]},"properties":{"n":2}},{"type":"Feature","geometry":{"type":"Polygon","coordinates":[[[-85.78125,26.71875],[-84.375,26.71875],[-84.375,28.125],[-85.78125,28.125],[-85.78125,26.71875]]]},"properties":{"n":2}},{"type":"Feature","geometry":{"type":"Polygon","coordinates":[[[-90,22.5],[-88.59375,22.5],[-88.59375,23.90625],[-90,23.90625],[-90,22.5]]]},"properties":{"n":2}},{"type":"Feature","geometry":{"type":"Polygon","coordinates":[[[-84.375,19.6875],[-82.96875,19.6875],[-82.96875,21.09375],[-84.375,21.09375],[-84.375,19.6875]]]},"properties":{"n":2}},{"type":"Feature","geometry":{"type":"Polygon","coordinates":[[[-95.625,25.3125],[-94.21875,25.3125],[-94.21875,26.71875],[-95.625,26.71875],[-95.625,25.3125]]]},"properties":{"n":2}},{"type":"Feature","geometry":{"type":"Polygon","coordinates":[[[-94.21875,23.90625],[-92.8125,23.90625],[-92.8125,25.3125],[-94.21875,25.3125],[-94.21875,23.90625]]]},"properties":{"n":2}},{"type":"Feature","geometry":{"type":"Polygon","coordinates":[[[-119.53125,32.34375],[-118.125,32.34375],[-118.125,33.75],[-119.53125,33.75],[-119.53125,32.34375]]]},"properties":{"n":2}},{"type":"Feature","geometry":{"type":"Polygon","coordinates":[[[-9.84375,-4.21875],[-8.4375,-4.21875],[-8.4375,-2.8125],[-9.84375,-2.8125],[-9.84375,-4.21875]]]},"properties":{"n":2}},{"type":"Feature","geometry":{"type":"Polygon","coordinates":[[[-33.75,-21.09375],[-32.34375,-21.09375],[-32.34375,-19.6875],[-33.75,-19.6875],[-33.75,-21.09375]]]},"properties":{"n":2}},{"type":"Feature","geometry":{"type":"Polygon","coordinates":[[[-37.96875,-22.5],[-36.5625,-22.5],[-36.5625,-21.09375],[-37.96875,-21.09375],[-37.96875,-22.5]]]},"properties":{"n":2}},{"type":"Feature","geometry":{"type":"Polygon","coordinates":[[[-177.1875,-19.6875],[-175.78125,-19.6875],[-175.78125,-18.28125],[-177.1875,-18.28125],[-177.1875,-19.6875]]]},"properties":{"n":2}},{"type":"Feature","geometry":{"type":"Polygon","coordinates":[[[139.21875,33.75],[140.625,33.75],[140.625,35.15625],[139.21875,35.15625],[139.21875,33.75]]]},"properties":{"n":1}},{"type":"Feature","geometry":{"type":"Polygon","coordinates":[[[153.28125,1.40625],[154.6875,1.40625],[154.6875,2.8125],[153.28125,2.8125],[153.28125,1.40625]]]},"properties":{"n":1}},{"type":"Feature","geometry":{"type":"Polygon","coordinates":[[[92.8125,11.25],[94.21875,11.25],[94.21875,12.65625],[92.8125,12.65625],[92.8125,11.25]]]},"properties":{"n":1}},{"type":"Feature","geometry":{"type":"Polygon","coordinates":[[[23.90625,45],[25.3125,45],[25.3125,46.40625],[23.90625,46.40625],[23.90625,45]]]},"properties":{"n":1}},{"type":"Feature","geometry":{"type":"Polygon","coordinates":[[[70.3125,37.96875],[71.71875,37.96875],[71.71875,39.375],[70.3125,39.375],[70.3125,37.96875]]]},"properties":{"n":1}},{"type":"Feature","geometry":{"type":"Polygon","coordinates":[[[74.53125,30.9375],[75.9375,30.9375],[75.9375,32.34375],[74.53125,32.34375],[74.53125,30.9375]]]},"properties":{"n":1}},{"type":"Feature","geometry":{"type":"Polygon","coordinates":[[[47.8125,40.78125],[49.21875,40.78125],[49.21875,42.1875],[47.8125,42.1875],[47.8125,40.78125]]]},"properties":{"n":1}},{"type":"Feature","geometry":{"type":"Polygon","coordinates":[[[46.40625,40.78125],[47.8125,40.78125],[47.8125,42.1875],[46.40625,42.1875],[46.40625,40.78125]]]},"properties":{"n":1}},{"type":"Feature","geometry":{"type":"Polygon","coordinates":[[[63.28125,30.9375],[64.6875,30.9375],[64.6875,32.34375],[63.28125,32.34375],[63.28125,30.9375]]]},"properties":{"n":1}},{"type":"Feature","geometry":{"type":"Polygon","coordinates":[[[64.6875,12.65625],[66.09375,12.65625],[66.09375,14.0625],[64.6875,14.0625],[64.6875,12.65625]]]},"properties":{"n":1}},{"type":"Feature","geometry":{"type":"Polygon","coordinates":[[[64.6875,9.84375],[66.09375,9.84375],[66.09375,11.25],[64.6875,11.25],[64.6875,9.84375]]]},"properties":{"n":1}},{"type":"Feature","geometry":{"type":"Polygon","coordinates":[[[22.5,33.75],[23.90625,33.75],[23.90625,35.15625],[22.5,35.15625],[22.5,33.75]]]},"properties":{"n":1}},{"type":"Feature","geometry":{"type":"Polygon","coordinates":[[[16.875,37.96875],[18.28125,37.96875],[18.28125,39.375],[16.875,39.375],[16.875,37.96875]]]},"properties":{"n":1}},{"type":"Feature","geometry":{"type":"Polygon","coordinates":[[[16.875,36.5625],[18.28125,36.5625],[18.28125,37.96875],[16.875,37.96875],[16.875,36.5625]]]},"properties":{"n":1}},{"type":"Feature","geometry":{"type":"Polygon","coordinates":[[[21.09375,33.75],[22.5,33.75],[22.5,35.15625],[21.09375,35.15625],[21.09375,33.75]]]},"properties":{"n":1}},{"type":"Feature","geometry":{"type":"Polygon","coordinates":[[[0,39.375],[1.40625,39.375],[1.40625,40.78125],[0,40.78125],[0,39.375]]]},"properties":{"n":1}},{"type":"Feature","geometry":{"type":"Polygon","coordinates":[[[5.625,37.96875],[7.03125,37.96875],[7.03125,39.375],[5.625,39.375],[5.625,37.96875]]]},"properties":{"n":1}},{"type":"Feature","geometry":{"type":"Polygon","coordinates":[[[4.21875,37.96875],[5.625,37.96875],[5.625,39.375],[4.21875,39.375],[4.21875,37.96875]]]},"properties":{"n":1}},{"type":"Feature","geometry":{"type":"Polygon","coordinates":[[[21.09375,32.34375],[22.5,32.34375],[22.5,33.75],[21.09375,33.75],[21.09375,32.34375]]]},"properties":{"n":1}},{"type":"Feature","geometry":{"type":"Polygon","coordinates":[[[19.6875,32.34375],[21.09375,32.34375],[21.09375,33.75],[19.6875,33.75],[19.6875,32.34375]]]},"properties":{"n":1}},{"type":"Feature","geometry":{"type":"Polygon","coordinates":[[[165.9375,-21.09375],[167.34375,-21.09375],[167.34375,-19.6875],[165.9375,-19.6875],[165.9375,-21.09375]]]},"properties":{"n":1}},{"type":"Feature","geometry":{"type":"Polygon","coordinates":[[[153.28125,-4.21875],[154.6875,-4.21875],[154.6875,-2.8125],[153.28125,-2.8125],[153.28125,-4.21875]]]},"properties":{"n":1}},{"type":"Feature","geometry":{"type":"Polygon","coordinates":[[[151.875,-7.03125],[153.28125,-7.03125],[153.28125,-5.625],[151.875,-5.625],[151.875,-7.03125]]]},"properties":{"n":1}},{"type":"Feature","geometry":{"type":"Polygon","coordinates":[[[150.46875,-9.84375],[151.875,-9.84375],[151.875,-8.4375],[150.46875,-8.4375],[150.46875,-9.84375]]]},"properties":{"n":1}},{"type":"Feature","geometry":{"type":"Polygon","coordinates":[[[146.25,-15.46875],[147.65625,-15.46875],[147.65625,-14.0625],[146.25,-14.0625],[146.25,-15.46875]]]},"properties":{"n":1}},{"type":"Feature","geometry":{"type":"Polygon","coordinates":[[[147.65625,-18.28125],[149.0625,-18.28125],[149.0625,-16.875],[147.65625,-16.875],[147.65625,-18.28125]]]},"properties":{"n":1}},{"type":"Feature","geometry":{"type":"Polygon","coordinates":[[[113.90625,-40.78125],[115.3125,-40.78125],[115.3125,-39.375],[113.90625,-39.375],[113.90625,-40.78125]]]},"properties":{"n":1}},{"type":"Feature","geometry":{"type":"Polygon","coordinates":[[[109.6875,-30.9375],[111.09375,-30.9375],[111.09375,-29.53125],[109.6875,-29.53125],[109.6875,-30.9375]]]},"properties":{"n":1}},{"type":"Feature","geometry":{"type":"Polygon","coordinates":[[[109.6875,-35.15625],[111.09375,-35.15625],[111.09375,-33.75],[109.6875,-33.75],[109.6875,-35.15625]]]},"properties":{"n":1}},{"type":"Feature","geometry":{"type":"Polygon","coordinates":[[[109.6875,-36.5625],[111.09375,-36.5625],[111.09375,-35.15625],[109.6875,-35.15625],[109.6875,-36.5625]]]},"properties":{"n":1}},{"type":"Feature","geometry":{"type":"Polygon","coordinates":[[[178.59375,-47.8125],[180,-47.8125],[180,-46.40625],[178.59375,-46.40625],[178.59375,-47.8125]]]},"properties":{"n":1}},{"type":"Feature","geometry":{"type":"Polygon","coordinates":[[[149.0625,-53.4375],[150.46875,-53.4375],[150.46875,-52.03125],[149.0625,-52.03125],[149.0625,-53.4375]]]},"properties":{"n":1}},{"type":"Feature","geometry":{"type":"Polygon","coordinates":[[[115.3125,-60.46875],[116.71875,-60.46875],[116.71875,-59.0625],[115.3125,-59.0625],[115.3125,-60.46875]]]},"properties":{"n":1}},{"type":"Feature","geometry":{"type":"Polygon","coordinates":[[[63.28125,-12.65625],[64.6875,-12.65625],[64.6875,-11.25],[63.28125,-11.25],[63.28125,-12.65625]]]},"properties":{"n":1}},{"type":"Feature","geometry":{"type":"Polygon","coordinates":[[[61.875,-22.5],[63.28125,-22.5],[63.28125,-21.09375],[61.875,-21.09375],[61.875,-22.5]]]},"properties":{"n":1}},{"type":"Feature","geometry":{"type":"Polygon","coordinates":[[[54.84375,-22.5],[56.25,-22.5],[56.25,-21.09375],[54.84375,-21.09375],[54.84375,-22.5]]]},"properties":{"n":1}},{"type":"Feature","geometry":{"type":"Polygon","coordinates":[[[68.90625,-26.71875],[70.3125,-26.71875],[70.3125,-25.3125],[68.90625,-25.3125],[68.90625,-26.71875]]]},"properties":{"n":1}},{"type":"Feature","geometry":{"type":"Polygon","coordinates":[[[59.0625,-29.53125],[60.46875,-29.53125],[60.46875,-28.125],[59.0625,-28.125],[59.0625,-29.53125]]]},"properties":{"n":1}},{"type":"Feature","geometry":{"type":"Polygon","coordinates":[[[42.1875,-15.46875],[43.59375,-15.46875],[43.59375,-14.0625],[42.1875,-14.0625],[42.1875,-15.46875]]]},"properties":{"n":1}},{"type":"Feature","geometry":{"type":"Polygon","coordinates":[[[42.1875,-43.59375],[43.59375,-43.59375],[43.59375,-42.1875],[42.1875,-42.1875],[42.1875,-43.59375]]]},"properties":{"n":1}},{"type":"Feature","geometry":{"type":"Polygon","coordinates":[[[35.15625,-45],[36.5625,-45],[36.5625,-43.59375],[35.15625,-43.59375],[35.15625,-45]]]},"properties":{"n":1}},{"type":"Feature","geometry":{"type":"Polygon","coordinates":[[[2.8125,-30.9375],[4.21875,-30.9375],[4.21875,-29.53125],[2.8125,-29.53125],[2.8125,-30.9375]]]},"properties":{"n":1}},{"type":"Feature","geometry":{"type":"Polygon","coordinates":[[[0,-29.53125],[1.40625,-29.53125],[1.40625,-28.125],[0,-28.125],[0,-29.53125]]]},"properties":{"n":1}},{"type":"Feature","geometry":{"type":"Polygon","coordinates":[[[21.09375,-40.78125],[22.5,-40.78125],[22.5,-39.375],[21.09375,-39.375],[21.09375,-40.78125]]]},"properties":{"n":1}},{"type":"Feature","geometry":{"type":"Polygon","coordinates":[[[16.875,-42.1875],[18.28125,-42.1875],[18.28125,-40.78125],[16.875,-40.78125],[16.875,-42.1875]]]},"properties":{"n":1}},{"type":"Feature","geometry":{"type":"Polygon","coordinates":[[[1.40625,-35.15625],[2.8125,-35.15625],[2.8125,-33.75],[1.40625,-33.75],[1.40625,-35.15625]]]},"properties":{"n":1}},{"type":"Feature","geometry":{"type":"Polygon","coordinates":[[[-8.4375,59.0625],[-7.03125,59.0625],[-7.03125,60.46875],[-8.4375,60.46875],[-8.4375,59.0625]]]},"properties":{"n":1}},{"type":"Feature","geometry":{"type":"Polygon","coordinates":[[[-18.28125,60.46875],[-16.875,60.46875],[-16.875,61.875],[-18.28125,61.875],[-18.28125,60.46875]]]},"properties":{"n":1}},{"type":"Feature","geometry":{"type":"Polygon","coordinates":[[[-21.09375,60.46875],[-19.6875,60.46875],[-19.6875,61.875],[-21.09375,61.875],[-21.09375,60.46875]]]},"properties":{"n":1}},{"type":"Feature","geometry":{"type":"Polygon","coordinates":[[[-22.5,59.0625],[-21.09375,59.0625],[-21.09375,60.46875],[-22.5,60.46875],[-22.5,59.0625]]]},"properties":{"n":1}},{"type":"Feature","geometry":{"type":"Polygon","coordinates":[[[-7.03125,46.40625],[-5.625,46.40625],[-5.625,47.8125],[-7.03125,47.8125],[-7.03125,46.40625]]]},"properties":{"n":1}},{"type":"Feature","geometry":{"type":"Polygon","coordinates":[[[-9.84375,45],[-8.4375,45],[-8.4375,46.40625],[-9.84375,46.40625],[-9.84375,45]]]},"properties":{"n":1}},{"type":"Feature","geometry":{"type":"Polygon","coordinates":[[[-16.875,52.03125],[-15.46875,52.03125],[-15.46875,53.4375],[-16.875,53.4375],[-16.875,52.03125]]]},"properties":{"n":1}},{"type":"Feature","geometry":{"type":"Polygon","coordinates":[[[-16.875,49.21875],[-15.46875,49.21875],[-15.46875,50.625],[-16.875,50.625],[-16.875,49.21875]]]},"properties":{"n":1}},{"type":"Feature","geometry":{"type":"Polygon","coordinates":[[[-14.0625,46.40625],[-12.65625,46.40625],[-12.65625,47.8125],[-14.0625,47.8125],[-14.0625,46.40625]]]},"properties":{"n":1}},{"type":"Feature","geometry":{"type":"Polygon","coordinates":[[[-18.28125,47.8125],[-16.875,47.8125],[-16.875,49.21875],[-18.28125,49.21875],[-18.28125,47.8125]]]},"properties":{"n":1}},{"type":"Feature","geometry":{"type":"Polygon","coordinates":[[[-18.28125,46.40625],[-16.875,46.40625],[-16.875,47.8125],[-18.28125,47.8125],[-18.28125,46.40625]]]},"properties":{"n":1}},{"type":"Feature","geometry":{"type":"Polygon","coordinates":[[[-18.28125,45],[-16.875,45],[-16.875,46.40625],[-18.28125,46.40625],[-18.28125,45]]]},"properties":{"n":1}},{"type":"Feature","geometry":{"type":"Polygon","coordinates":[[[-23.90625,61.875],[-22.5,61.875],[-22.5,63.28125],[-23.90625,63.28125],[-23.90625,61.875]]]},"properties":{"n":1}},{"type":"Feature","geometry":{"type":"Polygon","coordinates":[[[-28.125,61.875],[-26.71875,61.875],[-26.71875,63.28125],[-28.125,63.28125],[-28.125,61.875]]]},"properties":{"n":1}},{"type":"Feature","geometry":{"type":"Polygon","coordinates":[[[-29.53125,64.6875],[-28.125,64.6875],[-28.125,66.09375],[-29.53125,66.09375],[-29.53125,64.6875]]]},"properties":{"n":1}},{"type":"Feature","geometry":{"type":"Polygon","coordinates":[[[-33.75,64.6875],[-32.34375,64.6875],[-32.34375,66.09375],[-33.75,66.09375],[-33.75,64.6875]]]},"properties":{"n":1}},{"type":"Feature","geometry":{"type":"Polygon","coordinates":[[[-23.90625,59.0625],[-22.5,59.0625],[-22.5,60.46875],[-23.90625,60.46875],[-23.90625,59.0625]]]},"properties":{"n":1}},{"type":"Feature","geometry":{"type":"Polygon","coordinates":[[[-26.71875,56.25],[-25.3125,56.25],[-25.3125,57.65625],[-26.71875,57.65625],[-26.71875,56.25]]]},"properties":{"n":1}},{"type":"Feature","geometry":{"type":"Polygon","coordinates":[[[-32.34375,56.25],[-30.9375,56.25],[-30.9375,57.65625],[-32.34375,57.65625],[-32.34375,56.25]]]},"properties":{"n":1}},{"type":"Feature","geometry":{"type":"Polygon","coordinates":[[[-36.5625,63.28125],[-35.15625,63.28125],[-35.15625,64.6875],[-36.5625,64.6875],[-36.5625,63.28125]]]},"properties":{"n":1}},{"type":"Feature","geometry":{"type":"Polygon","coordinates":[[[-40.78125,61.875],[-39.375,61.875],[-39.375,63.28125],[-40.78125,63.28125],[-40.78125,61.875]]]},"properties":{"n":1}},{"type":"Feature","geometry":{"type":"Polygon","coordinates":[[[-35.15625,56.25],[-33.75,56.25],[-33.75,57.65625],[-35.15625,57.65625],[-35.15625,56.25]]]},"properties":{"n":1}},{"type":"Feature","geometry":{"type":"Polygon","coordinates":[[[-26.71875,54.84375],[-25.3125,54.84375],[-25.3125,56.25],[-26.71875,56.25],[-26.71875,54.84375]]]},"properties":{"n":1}},{"type":"Feature","geometry":{"type":"Polygon","coordinates":[[[-33.75,50.625],[-32.34375,50.625],[-32.34375,52.03125],[-33.75,52.03125],[-33.75,50.625]]]},"properties":{"n":1}},{"type":"Feature","geometry":{"type":"Polygon","coordinates":[[[-28.125,49.21875],[-26.71875,49.21875],[-26.71875,50.625],[-28.125,50.625],[-28.125,49.21875]]]},"properties":{"n":1}},{"type":"Feature","geometry":{"type":"Polygon","coordinates":[[[-29.53125,47.8125],[-28.125,47.8125],[-28.125,49.21875],[-29.53125,49.21875],[-29.53125,47.8125]]]},"properties":{"n":1}},{"type":"Feature","geometry":{"type":"Polygon","coordinates":[[[-29.53125,45],[-28.125,45],[-28.125,46.40625],[-29.53125,46.40625],[-29.53125,45]]]},"properties":{"n":1}},{"type":"Feature","geometry":{"type":"Polygon","coordinates":[[[-35.15625,52.03125],[-33.75,52.03125],[-33.75,53.4375],[-35.15625,53.4375],[-35.15625,52.03125]]]},"properties":{"n":1}},{"type":"Feature","geometry":{"type":"Polygon","coordinates":[[[-37.96875,52.03125],[-36.5625,52.03125],[-36.5625,53.4375],[-37.96875,53.4375],[-37.96875,52.03125]]]},"properties":{"n":1}},{"type":"Feature","geometry":{"type":"Polygon","coordinates":[[[-43.59375,45],[-42.1875,45],[-42.1875,46.40625],[-43.59375,46.40625],[-43.59375,45]]]},"properties":{"n":1}},{"type":"Feature","geometry":{"type":"Polygon","coordinates":[[[-59.0625,57.65625],[-57.65625,57.65625],[-57.65625,59.0625],[-59.0625,59.0625],[-59.0625,57.65625]]]},"properties":{"n":1}},{"type":"Feature","geometry":{"type":"Polygon","coordinates":[[[-50.625,49.21875],[-49.21875,49.21875],[-49.21875,50.625],[-50.625,50.625],[-50.625,49.21875]]]},"properties":{"n":1}},{"type":"Feature","geometry":{"type":"Polygon","coordinates":[[[-50.625,45],[-49.21875,45],[-49.21875,46.40625],[-50.625,46.40625],[-50.625,45]]]},"properties":{"n":1}},{"type":"Feature","geometry":{"type":"Polygon","coordinates":[[[-4.21875,36.5625],[-2.8125,36.5625],[-2.8125,37.96875],[-4.21875,37.96875],[-4.21875,36.5625]]]},"properties":{"n":1}},{"type":"Feature","geometry":{"type":"Polygon","coordinates":[[[-4.21875,35.15625],[-2.8125,35.15625],[-2.8125,36.5625],[-4.21875,36.5625],[-4.21875,35.15625]]]},"properties":{"n":1}},{"type":"Feature","geometry":{"type":"Polygon","coordinates":[[[-11.25,36.5625],[-9.84375,36.5625],[-9.84375,37.96875],[-11.25,37.96875],[-11.25,36.5625]]]},"properties":{"n":1}},{"type":"Feature","geometry":{"type":"Polygon","coordinates":[[[-8.4375,35.15625],[-7.03125,35.15625],[-7.03125,36.5625],[-8.4375,36.5625],[-8.4375,35.15625]]]},"properties":{"n":1}},{"type":"Feature","geometry":{"type":"Polygon","coordinates":[[[-14.0625,42.1875],[-12.65625,42.1875],[-12.65625,43.59375],[-14.0625,43.59375],[-14.0625,42.1875]]]},"properties":{"n":1}},{"type":"Feature","geometry":{"type":"Polygon","coordinates":[[[-16.875,43.59375],[-15.46875,43.59375],[-15.46875,45],[-16.875,45],[-16.875,43.59375]]]},"properties":{"n":1}},{"type":"Feature","geometry":{"type":"Polygon","coordinates":[[[-12.65625,40.78125],[-11.25,40.78125],[-11.25,42.1875],[-12.65625,42.1875],[-12.65625,40.78125]]]},"properties":{"n":1}},{"type":"Feature","geometry":{"type":"Polygon","coordinates":[[[-14.0625,40.78125],[-12.65625,40.78125],[-12.65625,42.1875],[-14.0625,42.1875],[-14.0625,40.78125]]]},"properties":{"n":1}},{"type":"Feature","geometry":{"type":"Polygon","coordinates":[[[-18.28125,43.59375],[-16.875,43.59375],[-16.875,45],[-18.28125,45],[-18.28125,43.59375]]]},"properties":{"n":1}},{"type":"Feature","geometry":{"type":"Polygon","coordinates":[[[-18.28125,42.1875],[-16.875,42.1875],[-16.875,43.59375],[-18.28125,43.59375],[-18.28125,42.1875]]]},"properties":{"n":1}},{"type":"Feature","geometry":{"type":"Polygon","coordinates":[[[-12.65625,35.15625],[-11.25,35.15625],[-11.25,36.5625],[-12.65625,36.5625],[-12.65625,35.15625]]]},"properties":{"n":1}},{"type":"Feature","geometry":{"type":"Polygon","coordinates":[[[-12.65625,33.75],[-11.25,33.75],[-11.25,35.15625],[-12.65625,35.15625],[-12.65625,33.75]]]},"properties":{"n":1}},{"type":"Feature","geometry":{"type":"Polygon","coordinates":[[[-22.5,37.96875],[-21.09375,37.96875],[-21.09375,39.375],[-22.5,39.375],[-22.5,37.96875]]]},"properties":{"n":1}},{"type":"Feature","geometry":{"type":"Polygon","coordinates":[[[-19.6875,33.75],[-18.28125,33.75],[-18.28125,35.15625],[-19.6875,35.15625],[-19.6875,33.75]]]},"properties":{"n":1}},{"type":"Feature","geometry":{"type":"Polygon","coordinates":[[[-15.46875,28.125],[-14.0625,28.125],[-14.0625,29.53125],[-15.46875,29.53125],[-15.46875,28.125]]]},"properties":{"n":1}},{"type":"Feature","geometry":{"type":"Polygon","coordinates":[[[-16.875,28.125],[-15.46875,28.125],[-15.46875,29.53125],[-16.875,29.53125],[-16.875,28.125]]]},"properties":{"n":1}},{"type":"Feature","geometry":{"type":"Polygon","coordinates":[[[-21.09375,30.9375],[-19.6875,30.9375],[-19.6875,32.34375],[-21.09375,32.34375],[-21.09375,30.9375]]]},"properties":{"n":1}},{"type":"Feature","geometry":{"type":"Polygon","coordinates":[[[-18.28125,28.125],[-16.875,28.125],[-16.875,29.53125],[-18.28125,29.53125],[-18.28125,28.125]]]},"properties":{"n":1}},{"type":"Feature","geometry":{"type":"Polygon","coordinates":[[[-28.125,42.1875],[-26.71875,42.1875],[-26.71875,43.59375],[-28.125,43.59375],[-28.125,42.1875]]]},"properties":{"n":1}},{"type":"Feature","geometry":{"type":"Polygon","coordinates":[[[-28.125,39.375],[-26.71875,39.375],[-26.71875,40.78125],[-28.125,40.78125],[-28.125,39.375]]]},"properties":{"n":1}},{"type":"Feature","geometry":{"type":"Polygon","coordinates":[[[-30.9375,40.78125],[-29.53125,40.78125],[-29.53125,42.1875],[-30.9375,42.1875],[-30.9375,40.78125]]]},"properties":{"n":1}},{"type":"Feature","geometry":{"type":"Polygon","coordinates":[[[-23.90625,36.5625],[-22.5,36.5625],[-22.5,37.96875],[-23.90625,37.96875],[-23.90625,36.5625]]]},"properties":{"n":1}},{"type":"Feature","geometry":{"type":"Polygon","coordinates":[[[-25.3125,36.5625],[-23.90625,36.5625],[-23.90625,37.96875],[-25.3125,37.96875],[-25.3125,36.5625]]]},"properties":{"n":1}},{"type":"Feature","geometry":{"type":"Polygon","coordinates":[[[-23.90625,35.15625],[-22.5,35.15625],[-22.5,36.5625],[-23.90625,36.5625],[-23.90625,35.15625]]]},"properties":{"n":1}},{"type":"Feature","geometry":{"type":"Polygon","coordinates":[[[-28.125,35.15625],[-26.71875,35.15625],[-26.71875,36.5625],[-28.125,36.5625],[-28.125,35.15625]]]},"properties":{"n":1}},{"type":"Feature","geometry":{"type":"Polygon","coordinates":[[[-36.5625,40.78125],[-35.15625,40.78125],[-35.15625,42.1875],[-36.5625,42.1875],[-36.5625,40.78125]]]},"properties":{"n":1}},{"type":"Feature","geometry":{"type":"Polygon","coordinates":[[[-36.5625,39.375],[-35.15625,39.375],[-35.15625,40.78125],[-36.5625,40.78125],[-36.5625,39.375]]]},"properties":{"n":1}},{"type":"Feature","geometry":{"type":"Polygon","coordinates":[[[-37.96875,39.375],[-36.5625,39.375],[-36.5625,40.78125],[-37.96875,40.78125],[-37.96875,39.375]]]},"properties":{"n":1}},{"type":"Feature","geometry":{"type":"Polygon","coordinates":[[[-45,43.59375],[-43.59375,43.59375],[-43.59375,45],[-45,45],[-45,43.59375]]]},"properties":{"n":1}},{"type":"Feature","geometry":{"type":"Polygon","coordinates":[[[-43.59375,39.375],[-42.1875,39.375],[-42.1875,40.78125],[-43.59375,40.78125],[-43.59375,39.375]]]},"properties":{"n":1}},{"type":"Feature","geometry":{"type":"Polygon","coordinates":[[[-23.90625,30.9375],[-22.5,30.9375],[-22.5,32.34375],[-23.90625,32.34375],[-23.90625,30.9375]]]},"properties":{"n":1}},{"type":"Feature","geometry":{"type":"Polygon","coordinates":[[[-28.125,30.9375],[-26.71875,30.9375],[-26.71875,32.34375],[-28.125,32.34375],[-28.125,30.9375]]]},"properties":{"n":1}},{"type":"Feature","geometry":{"type":"Polygon","coordinates":[[[-35.15625,30.9375],[-33.75,30.9375],[-33.75,32.34375],[-35.15625,32.34375],[-35.15625,30.9375]]]},"properties":{"n":1}},{"type":"Feature","geometry":{"type":"Polygon","coordinates":[[[-39.375,30.9375],[-37.96875,30.9375],[-37.96875,32.34375],[-39.375,32.34375],[-39.375,30.9375]]]},"properties":{"n":1}},{"type":"Feature","geometry":{"type":"Polygon","coordinates":[[[-45,30.9375],[-43.59375,30.9375],[-43.59375,32.34375],[-45,32.34375],[-45,30.9375]]]},"properties":{"n":1}},{"type":"Feature","geometry":{"type":"Polygon","coordinates":[[[-19.6875,21.09375],[-18.28125,21.09375],[-18.28125,22.5],[-19.6875,22.5],[-19.6875,21.09375]]]},"properties":{"n":1}},{"type":"Feature","geometry":{"type":"Polygon","coordinates":[[[-18.28125,19.6875],[-16.875,19.6875],[-16.875,21.09375],[-18.28125,21.09375],[-18.28125,19.6875]]]},"properties":{"n":1}},{"type":"Feature","geometry":{"type":"Polygon","coordinates":[[[-22.5,21.09375],[-21.09375,21.09375],[-21.09375,22.5],[-22.5,22.5],[-22.5,21.09375]]]},"properties":{"n":1}},{"type":"Feature","geometry":{"type":"Polygon","coordinates":[[[-19.6875,18.28125],[-18.28125,18.28125],[-18.28125,19.6875],[-19.6875,19.6875],[-19.6875,18.28125]]]},"properties":{"n":1}},{"type":"Feature","geometry":{"type":"Polygon","coordinates":[[[-21.09375,16.875],[-19.6875,16.875],[-19.6875,18.28125],[-21.09375,18.28125],[-21.09375,16.875]]]},"properties":{"n":1}},{"type":"Feature","geometry":{"type":"Polygon","coordinates":[[[-19.6875,15.46875],[-18.28125,15.46875],[-18.28125,16.875],[-19.6875,16.875],[-19.6875,15.46875]]]},"properties":{"n":1}},{"type":"Feature","geometry":{"type":"Polygon","coordinates":[[[-21.09375,14.0625],[-19.6875,14.0625],[-19.6875,15.46875],[-21.09375,15.46875],[-21.09375,14.0625]]]},"properties":{"n":1}},{"type":"Feature","geometry":{"type":"Polygon","coordinates":[[[-18.28125,0],[-16.875,0],[-16.875,1.40625],[-18.28125,1.40625],[-18.28125,0]]]},"properties":{"n":1}},{"type":"Feature","geometry":{"type":"Polygon","coordinates":[[[-23.90625,14.0625],[-22.5,14.0625],[-22.5,15.46875],[-23.90625,15.46875],[-23.90625,14.0625]]]},"properties":{"n":1}},{"type":"Feature","geometry":{"type":"Polygon","coordinates":[[[-50.625,42.1875],[-49.21875,42.1875],[-49.21875,43.59375],[-50.625,43.59375],[-50.625,42.1875]]]},"properties":{"n":1}},{"type":"Feature","geometry":{"type":"Polygon","coordinates":[[[-47.8125,40.78125],[-46.40625,40.78125],[-46.40625,42.1875],[-47.8125,42.1875],[-47.8125,40.78125]]]},"properties":{"n":1}},{"type":"Feature","geometry":{"type":"Polygon","coordinates":[[[-54.84375,40.78125],[-53.4375,40.78125],[-53.4375,42.1875],[-54.84375,42.1875],[-54.84375,40.78125]]]},"properties":{"n":1}},{"type":"Feature","geometry":{"type":"Polygon","coordinates":[[[-56.25,39.375],[-54.84375,39.375],[-54.84375,40.78125],[-56.25,40.78125],[-56.25,39.375]]]},"properties":{"n":1}},{"type":"Feature","geometry":{"type":"Polygon","coordinates":[[[-57.65625,40.78125],[-56.25,40.78125],[-56.25,42.1875],[-57.65625,42.1875],[-57.65625,40.78125]]]},"properties":{"n":1}},{"type":"Feature","geometry":{"type":"Polygon","coordinates":[[[-59.0625,39.375],[-57.65625,39.375],[-57.65625,40.78125],[-59.0625,40.78125],[-59.0625,39.375]]]},"properties":{"n":1}},{"type":"Feature","geometry":{"type":"Polygon","coordinates":[[[-61.875,40.78125],[-60.46875,40.78125],[-60.46875,42.1875],[-61.875,42.1875],[-61.875,40.78125]]]},"properties":{"n":1}},{"type":"Feature","geometry":{"type":"Polygon","coordinates":[[[-63.28125,42.1875],[-61.875,42.1875],[-61.875,43.59375],[-63.28125,43.59375],[-63.28125,42.1875]]]},"properties":{"n":1}},{"type":"Feature","geometry":{"type":"Polygon","coordinates":[[[-66.09375,42.1875],[-64.6875,42.1875],[-64.6875,43.59375],[-66.09375,43.59375],[-66.09375,42.1875]]]},"properties":{"n":1}},{"type":"Feature","geometry":{"type":"Polygon","coordinates":[[[-60.46875,35.15625],[-59.0625,35.15625],[-59.0625,36.5625],[-60.46875,36.5625],[-60.46875,35.15625]]]},"properties":{"n":1}},{"type":"Feature","geometry":{"type":"Polygon","coordinates":[[[-67.5,37.96875],[-66.09375,37.96875],[-66.09375,39.375],[-67.5,39.375],[-67.5,37.96875]]]},"properties":{"n":1}},{"type":"Feature","geometry":{"type":"Polygon","coordinates":[[[-47.8125,30.9375],[-46.40625,30.9375],[-46.40625,32.34375],[-47.8125,32.34375],[-47.8125,30.9375]]]},"properties":{"n":1}},{"type":"Feature","geometry":{"type":"Polygon","coordinates":[[[-50.625,30.9375],[-49.21875,30.9375],[-49.21875,32.34375],[-50.625,32.34375],[-50.625,30.9375]]]},"properties":{"n":1}},{"type":"Feature","geometry":{"type":"Polygon","coordinates":[[[-56.25,32.34375],[-54.84375,32.34375],[-54.84375,33.75],[-56.25,33.75],[-56.25,32.34375]]]},"properties":{"n":1}},{"type":"Feature","geometry":{"type":"Polygon","coordinates":[[[-54.84375,30.9375],[-53.4375,30.9375],[-53.4375,32.34375],[-54.84375,32.34375],[-54.84375,30.9375]]]},"properties":{"n":1}},{"type":"Feature","geometry":{"type":"Polygon","coordinates":[[[-56.25,23.90625],[-54.84375,23.90625],[-54.84375,25.3125],[-56.25,25.3125],[-56.25,23.90625]]]},"properties":{"n":1}},{"type":"Feature","geometry":{"type":"Polygon","coordinates":[[[-59.0625,30.9375],[-57.65625,30.9375],[-57.65625,32.34375],[-59.0625,32.34375],[-59.0625,30.9375]]]},"properties":{"n":1}},{"type":"Feature","geometry":{"type":"Polygon","coordinates":[[[-60.46875,32.34375],[-59.0625,32.34375],[-59.0625,33.75],[-60.46875,33.75],[-60.46875,32.34375]]]},"properties":{"n":1}},{"type":"Feature","geometry":{"type":"Polygon","coordinates":[[[-67.5,29.53125],[-66.09375,29.53125],[-66.09375,30.9375],[-67.5,30.9375],[-67.5,29.53125]]]},"properties":{"n":1}},{"type":"Feature","geometry":{"type":"Polygon","coordinates":[[[-57.65625,26.71875],[-56.25,26.71875],[-56.25,28.125],[-57.65625,28.125],[-57.65625,26.71875]]]},"properties":{"n":1}},{"type":"Feature","geometry":{"type":"Polygon","coordinates":[[[-59.0625,26.71875],[-57.65625,26.71875],[-57.65625,28.125],[-59.0625,28.125],[-59.0625,26.71875]]]},"properties":{"n":1}},{"type":"Feature","geometry":{"type":"Polygon","coordinates":[[[-57.65625,25.3125],[-56.25,25.3125],[-56.25,26.71875],[-57.65625,26.71875],[-57.65625,25.3125]]]},"properties":{"n":1}},{"type":"Feature","geometry":{"type":"Polygon","coordinates":[[[-59.0625,23.90625],[-57.65625,23.90625],[-57.65625,25.3125],[-59.0625,25.3125],[-59.0625,23.90625]]]},"properties":{"n":1}},{"type":"Feature","geometry":{"type":"Polygon","coordinates":[[[-60.46875,23.90625],[-59.0625,23.90625],[-59.0625,25.3125],[-60.46875,25.3125],[-60.46875,23.90625]]]},"properties":{"n":1}},{"type":"Feature","geometry":{"type":"Polygon","coordinates":[[[-61.875,23.90625],[-60.46875,23.90625],[-60.46875,25.3125],[-61.875,25.3125],[-61.875,23.90625]]]},"properties":{"n":1}},{"type":"Feature","geometry":{"type":"Polygon","coordinates":[[[-67.5,25.3125],[-66.09375,25.3125],[-66.09375,26.71875],[-67.5,26.71875],[-67.5,25.3125]]]},"properties":{"n":1}},{"type":"Feature","geometry":{"type":"Polygon","coordinates":[[[-64.6875,23.90625],[-63.28125,23.90625],[-63.28125,25.3125],[-64.6875,25.3125],[-64.6875,23.90625]]]},"properties":{"n":1}},{"type":"Feature","geometry":{"type":"Polygon","coordinates":[[[-73.125,39.375],[-71.71875,39.375],[-71.71875,40.78125],[-73.125,40.78125],[-73.125,39.375]]]},"properties":{"n":1}},{"type":"Feature","geometry":{"type":"Polygon","coordinates":[[[-73.125,35.15625],[-71.71875,35.15625],[-71.71875,36.5625],[-73.125,36.5625],[-73.125,35.15625]]]},"properties":{"n":1}},{"type":"Feature","geometry":{"type":"Polygon","coordinates":[[[-70.3125,32.34375],[-68.90625,32.34375],[-68.90625,33.75],[-70.3125,33.75],[-70.3125,32.34375]]]},"properties":{"n":1}},{"type":"Feature","geometry":{"type":"Polygon","coordinates":[[[-68.90625,30.9375],[-67.5,30.9375],[-67.5,32.34375],[-68.90625,32.34375],[-68.90625,30.9375]]]},"properties":{"n":1}},{"type":"Feature","geometry":{"type":"Polygon","coordinates":[[[-71.71875,30.9375],[-70.3125,30.9375],[-70.3125,32.34375],[-71.71875,32.34375],[-71.71875,30.9375]]]},"properties":{"n":1}},{"type":"Feature","geometry":{"type":"Polygon","coordinates":[[[-70.3125,29.53125],[-68.90625,29.53125],[-68.90625,30.9375],[-70.3125,30.9375],[-70.3125,29.53125]]]},"properties":{"n":1}},{"type":"Feature","geometry":{"type":"Polygon","coordinates":[[[-68.90625,28.125],[-67.5,28.125],[-67.5,29.53125],[-68.90625,29.53125],[-68.90625,28.125]]]},"properties":{"n":1}},{"type":"Feature","geometry":{"type":"Polygon","coordinates":[[[-70.3125,28.125],[-68.90625,28.125],[-68.90625,29.53125],[-70.3125,29.53125],[-70.3125,28.125]]]},"properties":{"n":1}},{"type":"Feature","geometry":{"type":"Polygon","coordinates":[[[-68.90625,26.71875],[-67.5,26.71875],[-67.5,28.125],[-68.90625,28.125],[-68.90625,26.71875]]]},"properties":{"n":1}},{"type":"Feature","geometry":{"type":"Polygon","coordinates":[[[-71.71875,26.71875],[-70.3125,26.71875],[-70.3125,28.125],[-71.71875,28.125],[-71.71875,26.71875]]]},"properties":{"n":1}},{"type":"Feature","geometry":{"type":"Polygon","coordinates":[[[-68.90625,23.90625],[-67.5,23.90625],[-67.5,25.3125],[-68.90625,25.3125],[-68.90625,23.90625]]]},"properties":{"n":1}},{"type":"Feature","geometry":{"type":"Polygon","coordinates":[[[-70.3125,23.90625],[-68.90625,23.90625],[-68.90625,25.3125],[-70.3125,25.3125],[-70.3125,23.90625]]]},"properties":{"n":1}},{"type":"Feature","geometry":{"type":"Polygon","coordinates":[[[-68.90625,22.5],[-67.5,22.5],[-67.5,23.90625],[-68.90625,23.90625],[-68.90625,22.5]]]},"properties":{"n":1}},{"type":"Feature","geometry":{"type":"Polygon","coordinates":[[[-71.71875,23.90625],[-70.3125,23.90625],[-70.3125,25.3125],[-71.71875,25.3125],[-71.71875,23.90625]]]},"properties":{"n":1}},{"type":"Feature","geometry":{"type":"Polygon","coordinates":[[[-77.34375,26.71875],[-75.9375,26.71875],[-75.9375,28.125],[-77.34375,28.125],[-77.34375,26.71875]]]},"properties":{"n":1}},{"type":"Feature","geometry":{"type":"Polygon","coordinates":[[[-78.75,23.90625],[-77.34375,23.90625],[-77.34375,25.3125],[-78.75,25.3125],[-78.75,23.90625]]]},"properties":{"n":1}},{"type":"Feature","geometry":{"type":"Polygon","coordinates":[[[-77.34375,22.5],[-75.9375,22.5],[-75.9375,23.90625],[-77.34375,23.90625],[-77.34375,22.5]]]},"properties":{"n":1}},{"type":"Feature","geometry":{"type":"Polygon","coordinates":[[[-87.1875,28.125],[-85.78125,28.125],[-85.78125,29.53125],[-87.1875,29.53125],[-87.1875,28.125]]]},"properties":{"n":1}},{"type":"Feature","geometry":{"type":"Polygon","coordinates":[[[-90,26.71875],[-88.59375,26.71875],[-88.59375,28.125],[-90,28.125],[-90,26.71875]]]},"properties":{"n":1}},{"type":"Feature","geometry":{"type":"Polygon","coordinates":[[[-87.1875,23.90625],[-85.78125,23.90625],[-85.78125,25.3125],[-87.1875,25.3125],[-87.1875,23.90625]]]},"properties":{"n":1}},{"type":"Feature","geometry":{"type":"Polygon","coordinates":[[[-61.875,12.65625],[-60.46875,12.65625],[-60.46875,14.0625],[-61.875,14.0625],[-61.875,12.65625]]]},"properties":{"n":1}},{"type":"Feature","geometry":{"type":"Polygon","coordinates":[[[-70.3125,21.09375],[-68.90625,21.09375],[-68.90625,22.5],[-70.3125,22.5],[-70.3125,21.09375]]]},"properties":{"n":1}},{"type":"Feature","geometry":{"type":"Polygon","coordinates":[[[-70.3125,19.6875],[-68.90625,19.6875],[-68.90625,21.09375],[-70.3125,21.09375],[-70.3125,19.6875]]]},"properties":{"n":1}},{"type":"Feature","geometry":{"type":"Polygon","coordinates":[[[-73.125,21.09375],[-71.71875,21.09375],[-71.71875,22.5],[-73.125,22.5],[-73.125,21.09375]]]},"properties":{"n":1}},{"type":"Feature","geometry":{"type":"Polygon","coordinates":[[[-71.71875,19.6875],[-70.3125,19.6875],[-70.3125,21.09375],[-71.71875,21.09375],[-71.71875,19.6875]]]},"properties":{"n":1}},{"type":"Feature","geometry":{"type":"Polygon","coordinates":[[[-68.90625,14.0625],[-67.5,14.0625],[-67.5,15.46875],[-68.90625,15.46875],[-68.90625,14.0625]]]},"properties":{"n":1}},{"type":"Feature","geometry":{"type":"Polygon","coordinates":[[[-74.53125,12.65625],[-73.125,12.65625],[-73.125,14.0625],[-74.53125,14.0625],[-74.53125,12.65625]]]},"properties":{"n":1}},{"type":"Feature","geometry":{"type":"Polygon","coordinates":[[[-81.5625,21.09375],[-80.15625,21.09375],[-80.15625,22.5],[-81.5625,22.5],[-81.5625,21.09375]]]},"properties":{"n":1}},{"type":"Feature","geometry":{"type":"Polygon","coordinates":[[[-85.78125,21.09375],[-84.375,21.09375],[-84.375,22.5],[-85.78125,22.5],[-85.78125,21.09375]]]},"properties":{"n":1}},{"type":"Feature","geometry":{"type":"Polygon","coordinates":[[[-78.75,9.84375],[-77.34375,9.84375],[-77.34375,11.25],[-78.75,11.25],[-78.75,9.84375]]]},"properties":{"n":1}},{"type":"Feature","geometry":{"type":"Polygon","coordinates":[[[-92.8125,26.71875],[-91.40625,26.71875],[-91.40625,28.125],[-92.8125,28.125],[-92.8125,26.71875]]]},"properties":{"n":1}},{"type":"Feature","geometry":{"type":"Polygon","coordinates":[[[-94.21875,25.3125],[-92.8125,25.3125],[-92.8125,26.71875],[-94.21875,26.71875],[-94.21875,25.3125]]]},"properties":{"n":1}},{"type":"Feature","geometry":{"type":"Polygon","coordinates":[[[-91.40625,23.90625],[-90,23.90625],[-90,25.3125],[-91.40625,25.3125],[-91.40625,23.90625]]]},"properties":{"n":1}},{"type":"Feature","geometry":{"type":"Polygon","coordinates":[[[-97.03125,26.71875],[-95.625,26.71875],[-95.625,28.125],[-97.03125,28.125],[-97.03125,26.71875]]]},"properties":{"n":1}},{"type":"Feature","geometry":{"type":"Polygon","coordinates":[[[-97.03125,22.5],[-95.625,22.5],[-95.625,23.90625],[-97.03125,23.90625],[-97.03125,22.5]]]},"properties":{"n":1}},{"type":"Feature","geometry":{"type":"Polygon","coordinates":[[[-123.75,35.15625],[-122.34375,35.15625],[-122.34375,36.5625],[-123.75,36.5625],[-123.75,35.15625]]]},"properties":{"n":1}},{"type":"Feature","geometry":{"type":"Polygon","coordinates":[[[-118.125,32.34375],[-116.71875,32.34375],[-116.71875,33.75],[-118.125,33.75],[-118.125,32.34375]]]},"properties":{"n":1}},{"type":"Feature","geometry":{"type":"Polygon","coordinates":[[[-116.71875,26.71875],[-115.3125,26.71875],[-115.3125,28.125],[-116.71875,28.125],[-116.71875,26.71875]]]},"properties":{"n":1}},{"type":"Feature","geometry":{"type":"Polygon","coordinates":[[[-113.90625,23.90625],[-112.5,23.90625],[-112.5,25.3125],[-113.90625,25.3125],[-113.90625,23.90625]]]},"properties":{"n":1}},{"type":"Feature","geometry":{"type":"Polygon","coordinates":[[[-92.8125,19.6875],[-91.40625,19.6875],[-91.40625,21.09375],[-92.8125,21.09375],[-92.8125,19.6875]]]},"properties":{"n":1}},{"type":"Feature","geometry":{"type":"Polygon","coordinates":[[[-95.625,21.09375],[-94.21875,21.09375],[-94.21875,22.5],[-95.625,22.5],[-95.625,21.09375]]]},"properties":{"n":1}},{"type":"Feature","geometry":{"type":"Polygon","coordinates":[[[-94.21875,18.28125],[-92.8125,18.28125],[-92.8125,19.6875],[-94.21875,19.6875],[-94.21875,18.28125]]]},"properties":{"n":1}},{"type":"Feature","geometry":{"type":"Polygon","coordinates":[[[-98.4375,21.09375],[-97.03125,21.09375],[-97.03125,22.5],[-98.4375,22.5],[-98.4375,21.09375]]]},"properties":{"n":1}},{"type":"Feature","geometry":{"type":"Polygon","coordinates":[[[-144.84375,30.9375],[-143.4375,30.9375],[-143.4375,32.34375],[-144.84375,32.34375],[-144.84375,30.9375]]]},"properties":{"n":1}},{"type":"Feature","geometry":{"type":"Polygon","coordinates":[[[-139.21875,23.90625],[-137.8125,23.90625],[-137.8125,25.3125],[-139.21875,25.3125],[-139.21875,23.90625]]]},"properties":{"n":1}},{"type":"Feature","geometry":{"type":"Polygon","coordinates":[[[-156.09375,19.6875],[-154.6875,19.6875],[-154.6875,21.09375],[-156.09375,21.09375],[-156.09375,19.6875]]]},"properties":{"n":1}},{"type":"Feature","geometry":{"type":"Polygon","coordinates":[[[-32.34375,-21.09375],[-30.9375,-21.09375],[-30.9375,-19.6875],[-32.34375,-19.6875],[-32.34375,-21.09375]]]},"properties":{"n":1}},{"type":"Feature","geometry":{"type":"Polygon","coordinates":[[[-37.96875,-14.0625],[-36.5625,-14.0625],[-36.5625,-12.65625],[-37.96875,-12.65625],[-37.96875,-14.0625]]]},"properties":{"n":1}},{"type":"Feature","geometry":{"type":"Polygon","coordinates":[[[-39.375,-14.0625],[-37.96875,-14.0625],[-37.96875,-12.65625],[-39.375,-12.65625],[-39.375,-14.0625]]]},"properties":{"n":1}},{"type":"Feature","geometry":{"type":"Polygon","coordinates":[[[-36.5625,-15.46875],[-35.15625,-15.46875],[-35.15625,-14.0625],[-36.5625,-14.0625],[-36.5625,-15.46875]]]},"properties":{"n":1}},{"type":"Feature","geometry":{"type":"Polygon","coordinates":[[[-37.96875,-16.875],[-36.5625,-16.875],[-36.5625,-15.46875],[-37.96875,-15.46875],[-37.96875,-16.875]]]},"properties":{"n":1}},{"type":"Feature","geometry":{"type":"Polygon","coordinates":[[[-37.96875,-19.6875],[-36.5625,-19.6875],[-36.5625,-18.28125],[-37.96875,-18.28125],[-37.96875,-19.6875]]]},"properties":{"n":1}},{"type":"Feature","geometry":{"type":"Polygon","coordinates":[[[-40.78125,-21.09375],[-39.375,-21.09375],[-39.375,-19.6875],[-40.78125,-19.6875],[-40.78125,-21.09375]]]},"properties":{"n":1}},{"type":"Feature","geometry":{"type":"Polygon","coordinates":[[[-40.78125,-22.5],[-39.375,-22.5],[-39.375,-21.09375],[-40.78125,-21.09375],[-40.78125,-22.5]]]},"properties":{"n":1}},{"type":"Feature","geometry":{"type":"Polygon","coordinates":[[[-71.71875,-19.6875],[-70.3125,-19.6875],[-70.3125,-18.28125],[-71.71875,-18.28125],[-71.71875,-19.6875]]]},"properties":{"n":1}},{"type":"Feature","geometry":{"type":"Polygon","coordinates":[[[-73.125,-23.90625],[-71.71875,-23.90625],[-71.71875,-22.5],[-73.125,-22.5],[-73.125,-23.90625]]]},"properties":{"n":1}},{"type":"Feature","geometry":{"type":"Polygon","coordinates":[[[-52.03125,-60.46875],[-50.625,-60.46875],[-50.625,-59.0625],[-52.03125,-59.0625],[-52.03125,-60.46875]]]},"properties":{"n":1}},{"type":"Feature","geometry":{"type":"Polygon","coordinates":[[[-104.0625,-9.84375],[-102.65625,-9.84375],[-102.65625,-8.4375],[-104.0625,-8.4375],[-104.0625,-9.84375]]]},"properties":{"n":1}},{"type":"Feature","geometry":{"type":"Polygon","coordinates":[[[-133.59375,-16.875],[-132.1875,-16.875],[-132.1875,-15.46875],[-133.59375,-15.46875],[-133.59375,-16.875]]]},"properties":{"n":1}},{"type":"Feature","geometry":{"type":"Polygon","coordinates":[[[-91.40625,-35.15625],[-90,-35.15625],[-90,-33.75],[-91.40625,-33.75],[-91.40625,-35.15625]]]},"properties":{"n":1}},{"type":"Feature","geometry":{"type":"Polygon","coordinates":[[[-156.09375,-1.40625],[-154.6875,-1.40625],[-154.6875,0],[-156.09375,0],[-156.09375,-1.40625]]]},"properties":{"n":1}},{"type":"Feature","geometry":{"type":"Polygon","coordinates":[[[-160.3125,-1.40625],[-158.90625,-1.40625],[-158.90625,0],[-160.3125,0],[-160.3125,-1.40625]]]},"properties":{"n":1}}]}