{"type":"FeatureCollection","features":[{"type":"Feature","geometry":{"type":"Polygon","coordinates":[[[175.78125,-73.125],[177.1875,-73.125],[177.1875,-71.71875],[175.78125,-71.71875],[175.78125,-73.125]]]},"properties":{"n":1179}},{"type":"Feature","geometry":{"type":"Polygon","coordinates":[[[-180,-73.125],[-178.59375,-73.125],[-178.59375,-71.71875],[-180,-71.71875],[-180,-73.125]]]},"properties":{"n":391}},{"type":"Feature","geometry":{"type":"Polygon","coordinates":[[[175.78125,-71.71875],[177.1875,-71.71875],[177.1875,-70.3125],[175.78125,-70.3125],[175.78125,-71.71875]]]},"properties":{"n":371}},{"type":"Feature","geometry":{"type":"Polygon","coordinates":[[[-122.34375,-68.90625],[-120.9375,-68.90625],[-120.9375,-67.5],[-122.34375,-67.5],[-122.34375,-68.90625]]]},"properties":{"n":335}},{"type":"Feature","geometry":{"type":"Polygon","coordinates":[[[-180,-71.71875],[-178.59375,-71.71875],[-178.59375,-70.3125],[-180,-70.3125],[-180,-71.71875]]]},"properties":{"n":296}},{"type":"Feature","geometry":{"type":"Polygon","coordinates":[[[-178.59375,-71.71875],[-177.1875,-71.71875],[-177.1875,-70.3125],[-178.59375,-70.3125],[-178.59375,-71.71875]]]},"properties":{"n":281}},{"type":"Feature","geometry":{"type":"Polygon","coordinates":[[[-171.5625,-64.6875],[-170.15625,-64.6875],[-170.15625,-63.28125],[-171.5625,-63.28125],[-171.5625,-64.6875]]]},"properties":{"n":256}},{"type":"Feature","geometry":{"type":"Polygon","coordinates":[[[-123.75,-70.3125],[-122.34375,-70.3125],[-122.34375,-68.90625],[-123.75,-68.90625],[-123.75,-70.3125]]]},"properties":{"n":252}},{"type":"Feature","geometry":{"type":"Polygon","coordinates":[[[-177.1875,-67.5],[-175.78125,-67.5],[-175.78125,-66.09375],[-177.1875,-66.09375],[-177.1875,-67.5]]]},"properties":{"n":251}},{"type":"Feature","geometry":{"type":"Polygon","coordinates":[[[-175.78125,-75.9375],[-174.375,-75.9375],[-174.375,-74.53125],[-175.78125,-74.53125],[-175.78125,-75.9375]]]},"properties":{"n":232}},{"type":"Feature","geometry":{"type":"Polygon","coordinates":[[[-175.78125,-67.5],[-174.375,-67.5],[-174.375,-66.09375],[-175.78125,-66.09375],[-175.78125,-67.5]]]},"properties":{"n":163}},{"type":"Feature","geometry":{"type":"Polygon","coordinates":[[[-125.15625,-70.3125],[-123.75,-70.3125],[-123.75,-68.90625],[-125.15625,-68.90625],[-125.15625,-70.3125]]]},"properties":{"n":118}},{"type":"Feature","geometry":{"type":"Polygon","coordinates":[[[-178.59375,-73.125],[-177.1875,-73.125],[-177.1875,-71.71875],[-178.59375,-71.71875],[-178.59375,-73.125]]]},"properties":{"n":118}},{"type":"Feature","geometry":{"type":"Polygon","coordinates":[[[178.59375,-73.125],[180,-73.125],[180,-71.71875],[178.59375,-71.71875],[178.59375,-73.125]]]},"properties":{"n":109}},{"type":"Feature","geometry":{"type":"Polygon","coordinates":[[[-129.375,-70.3125],[-127.96875,-70.3125],[-127.96875,-68.90625],[-129.375,-68.90625],[-129.375,-70.3125]]]},"properties":{"n":109}},{"type":"Feature","geometry":{"type":"Polygon","coordinates":[[[174.375,-73.125],[175.78125,-73.125],[175.78125,-71.71875],[174.375,-71.71875],[174.375,-73.125]]]},"properties":{"n":104}},{"type":"Feature","geometry":{"type":"Polygon","coordinates":[[[-180,-74.53125],[-178.59375,-74.53125],[-178.59375,-73.125],[-180,-73.125],[-180,-74.53125]]]},"properties":{"n":89}},{"type":"Feature","geometry":{"type":"Polygon","coordinates":[[[-11.25,-71.71875],[-9.84375,-71.71875],[-9.84375,-70.3125],[-11.25,-70.3125],[-11.25,-71.71875]]]},"properties":{"n":79}},{"type":"Feature","geometry":{"type":"Polygon","coordinates":[[[171.5625,-73.125],[172.96875,-73.125],[172.96875,-71.71875],[171.5625,-71.71875],[171.5625,-73.125]]]},"properties":{"n":78}},{"type":"Feature","geometry":{"type":"Polygon","coordinates":[[[109.6875,-67.5],[111.09375,-67.5],[111.09375,-66.09375],[109.6875,-66.09375],[109.6875,-67.5]]]},"properties":{"n":76}},{"type":"Feature","geometry":{"type":"Polygon","coordinates":[[[-175.78125,-66.09375],[-174.375,-66.09375],[-174.375,-64.6875],[-175.78125,-64.6875],[-175.78125,-66.09375]]]},"properties":{"n":73}},{"type":"Feature","geometry":{"type":"Polygon","coordinates":[[[-126.5625,-70.3125],[-125.15625,-70.3125],[-125.15625,-68.90625],[-126.5625,-68.90625],[-126.5625,-70.3125]]]},"properties":{"n":60}},{"type":"Feature","geometry":{"type":"Polygon","coordinates":[[[-120.9375,-70.3125],[-119.53125,-70.3125],[-119.53125,-68.90625],[-120.9375,-68.90625],[-120.9375,-70.3125]]]},"properties":{"n":51}},{"type":"Feature","geometry":{"type":"Polygon","coordinates":[[[-174.375,-67.5],[-172.96875,-67.5],[-172.96875,-66.09375],[-174.375,-66.09375],[-174.375,-67.5]]]},"properties":{"n":48}},{"type":"Feature","geometry":{"type":"Polygon","coordinates":[[[-174.375,-75.9375],[-172.96875,-75.9375],[-172.96875,-74.53125],[-174.375,-74.53125],[-174.375,-75.9375]]]},"properties":{"n":48}},{"type":"Feature","geometry":{"type":"Polygon","coordinates":[[[177.1875,-73.125],[178.59375,-73.125],[178.59375,-71.71875],[177.1875,-71.71875],[177.1875,-73.125]]]},"properties":{"n":47}},{"type":"Feature","geometry":{"type":"Polygon","coordinates":[[[-177.1875,-73.125],[-175.78125,-73.125],[-175.78125,-71.71875],[-177.1875,-71.71875],[-177.1875,-73.125]]]},"properties":{"n":44}},{"type":"Feature","geometry":{"type":"Polygon","coordinates":[[[-127.96875,-70.3125],[-126.5625,-70.3125],[-126.5625,-68.90625],[-127.96875,-68.90625],[-127.96875,-70.3125]]]},"properties":{"n":40}},{"type":"Feature","geometry":{"type":"Polygon","coordinates":[[[-177.1875,-71.71875],[-175.78125,-71.71875],[-175.78125,-70.3125],[-177.1875,-70.3125],[-177.1875,-71.71875]]]},"properties":{"n":39}},{"type":"Feature","geometry":{"type":"Polygon","coordinates":[[[-178.59375,-74.53125],[-177.1875,-74.53125],[-177.1875,-73.125],[-178.59375,-73.125],[-178.59375,-74.53125]]]},"properties":{"n":36}},{"type":"Feature","geometry":{"type":"Polygon","coordinates":[[[178.59375,-71.71875],[180,-71.71875],[180,-70.3125],[178.59375,-70.3125],[178.59375,-71.71875]]]},"properties":{"n":34}},{"type":"Feature","geometry":{"type":"Polygon","coordinates":[[[-178.59375,-66.09375],[-177.1875,-66.09375],[-177.1875,-64.6875],[-178.59375,-64.6875],[-178.59375,-66.09375]]]},"properties":{"n":33}},{"type":"Feature","geometry":{"type":"Polygon","coordinates":[[[-122.34375,-70.3125],[-120.9375,-70.3125],[-120.9375,-68.90625],[-122.34375,-68.90625],[-122.34375,-70.3125]]]},"properties":{"n":28}},{"type":"Feature","geometry":{"type":"Polygon","coordinates":[[[-172.96875,-75.9375],[-171.5625,-75.9375],[-171.5625,-74.53125],[-172.96875,-74.53125],[-172.96875,-75.9375]]]},"properties":{"n":26}},{"type":"Feature","geometry":{"type":"Polygon","coordinates":[[[-172.96875,-67.5],[-171.5625,-67.5],[-171.5625,-66.09375],[-172.96875,-66.09375],[-172.96875,-67.5]]]},"properties":{"n":25}},{"type":"Feature","geometry":{"type":"Polygon","coordinates":[[[-130.78125,-70.3125],[-129.375,-70.3125],[-129.375,-68.90625],[-130.78125,-68.90625],[-130.78125,-70.3125]]]},"properties":{"n":24}},{"type":"Feature","geometry":{"type":"Polygon","coordinates":[[[172.96875,-73.125],[174.375,-73.125],[174.375,-71.71875],[172.96875,-71.71875],[172.96875,-73.125]]]},"properties":{"n":23}},{"type":"Feature","geometry":{"type":"Polygon","coordinates":[[[177.1875,-71.71875],[178.59375,-71.71875],[178.59375,-70.3125],[177.1875,-70.3125],[177.1875,-71.71875]]]},"properties":{"n":21}},{"type":"Feature","geometry":{"type":"Polygon","coordinates":[[[-180,-66.09375],[-178.59375,-66.09375],[-178.59375,-64.6875],[-180,-64.6875],[-180,-66.09375]]]},"properties":{"n":20}},{"type":"Feature","geometry":{"type":"Polygon","coordinates":[[[-180,-70.3125],[-178.59375,-70.3125],[-178.59375,-68.90625],[-180,-68.90625],[-180,-70.3125]]]},"properties":{"n":20}},{"type":"Feature","geometry":{"type":"Polygon","coordinates":[[[-56.25,-61.875],[-54.84375,-61.875],[-54.84375,-60.46875],[-56.25,-60.46875],[-56.25,-61.875]]]},"properties":{"n":19}},{"type":"Feature","geometry":{"type":"Polygon","coordinates":[[[177.1875,-68.90625],[178.59375,-68.90625],[178.59375,-67.5],[177.1875,-67.5],[177.1875,-68.90625]]]},"properties":{"n":18}},{"type":"Feature","geometry":{"type":"Polygon","coordinates":[[[132.1875,-66.09375],[133.59375,-66.09375],[133.59375,-64.6875],[132.1875,-64.6875],[132.1875,-66.09375]]]},"properties":{"n":18}},{"type":"Feature","geometry":{"type":"Polygon","coordinates":[[[-177.1875,-66.09375],[-175.78125,-66.09375],[-175.78125,-64.6875],[-177.1875,-64.6875],[-177.1875,-66.09375]]]},"properties":{"n":15}},{"type":"Feature","geometry":{"type":"Polygon","coordinates":[[[-104.0625,-71.71875],[-102.65625,-71.71875],[-102.65625,-70.3125],[-104.0625,-70.3125],[-104.0625,-71.71875]]]},"properties":{"n":14}},{"type":"Feature","geometry":{"type":"Polygon","coordinates":[[[-180,-68.90625],[-178.59375,-68.90625],[-178.59375,-67.5],[-180,-67.5],[-180,-68.90625]]]},"properties":{"n":14}},{"type":"Feature","geometry":{"type":"Polygon","coordinates":[[[-171.5625,-75.9375],[-170.15625,-75.9375],[-170.15625,-74.53125],[-171.5625,-74.53125],[-171.5625,-75.9375]]]},"properties":{"n":14}},{"type":"Feature","geometry":{"type":"Polygon","coordinates":[[[-177.1875,-74.53125],[-175.78125,-74.53125],[-175.78125,-73.125],[-177.1875,-73.125],[-177.1875,-74.53125]]]},"properties":{"n":14}},{"type":"Feature","geometry":{"type":"Polygon","coordinates":[[[-161.71875,-77.34375],[-160.3125,-77.34375],[-160.3125,-75.9375],[-161.71875,-75.9375],[-161.71875,-77.34375]]]},"properties":{"n":13}},{"type":"Feature","geometry":{"type":"Polygon","coordinates":[[[-161.71875,-78.75],[-160.3125,-78.75],[-160.3125,-77.34375],[-161.71875,-77.34375],[-161.71875,-78.75]]]},"properties":{"n":13}},{"type":"Feature","geometry":{"type":"Polygon","coordinates":[[[-178.59375,-75.9375],[-177.1875,-75.9375],[-177.1875,-74.53125],[-178.59375,-74.53125],[-178.59375,-75.9375]]]},"properties":{"n":13}},{"type":"Feature","geometry":{"type":"Polygon","coordinates":[[[172.96875,-68.90625],[174.375,-68.90625],[174.375,-67.5],[172.96875,-67.5],[172.96875,-68.90625]]]},"properties":{"n":11}},{"type":"Feature","geometry":{"type":"Polygon","coordinates":[[[178.59375,-68.90625],[180,-68.90625],[180,-67.5],[178.59375,-67.5],[178.59375,-68.90625]]]},"properties":{"n":10}},{"type":"Feature","geometry":{"type":"Polygon","coordinates":[[[132.1875,-64.6875],[133.59375,-64.6875],[133.59375,-63.28125],[132.1875,-63.28125],[132.1875,-64.6875]]]},"properties":{"n":10}},{"type":"Feature","geometry":{"type":"Polygon","coordinates":[[[133.59375,-66.09375],[135,-66.09375],[135,-64.6875],[133.59375,-64.6875],[133.59375,-66.09375]]]},"properties":{"n":10}},{"type":"Feature","geometry":{"type":"Polygon","coordinates":[[[-60.46875,-63.28125],[-59.0625,-63.28125],[-59.0625,-61.875],[-60.46875,-61.875],[-60.46875,-63.28125]]]},"properties":{"n":10}},{"type":"Feature","geometry":{"type":"Polygon","coordinates":[[[-64.6875,-66.09375],[-63.28125,-66.09375],[-63.28125,-64.6875],[-64.6875,-64.6875],[-64.6875,-66.09375]]]},"properties":{"n":10}},{"type":"Feature","geometry":{"type":"Polygon","coordinates":[[[-178.59375,-68.90625],[-177.1875,-68.90625],[-177.1875,-67.5],[-178.59375,-67.5],[-178.59375,-68.90625]]]},"properties":{"n":9}},{"type":"Feature","geometry":{"type":"Polygon","coordinates":[[[174.375,-64.6875],[175.78125,-64.6875],[175.78125,-63.28125],[174.375,-63.28125],[174.375,-64.6875]]]},"properties":{"n":7}},{"type":"Feature","geometry":{"type":"Polygon","coordinates":[[[139.21875,-67.5],[140.625,-67.5],[140.625,-66.09375],[139.21875,-66.09375],[139.21875,-67.5]]]},"properties":{"n":6}},{"type":"Feature","geometry":{"type":"Polygon","coordinates":[[[133.59375,-64.6875],[135,-64.6875],[135,-63.28125],[133.59375,-63.28125],[133.59375,-64.6875]]]},"properties":{"n":6}},{"type":"Feature","geometry":{"type":"Polygon","coordinates":[[[-67.5,-67.5],[-66.09375,-67.5],[-66.09375,-66.09375],[-67.5,-66.09375],[-67.5,-67.5]]]},"properties":{"n":6}},{"type":"Feature","geometry":{"type":"Polygon","coordinates":[[[-129.375,-71.71875],[-127.96875,-71.71875],[-127.96875,-70.3125],[-129.375,-70.3125],[-129.375,-71.71875]]]},"properties":{"n":6}},{"type":"Feature","geometry":{"type":"Polygon","coordinates":[[[-178.59375,-67.5],[-177.1875,-67.5],[-177.1875,-66.09375],[-178.59375,-66.09375],[-178.59375,-67.5]]]},"properties":{"n":6}},{"type":"Feature","geometry":{"type":"Polygon","coordinates":[[[61.875,-68.90625],[63.28125,-68.90625],[63.28125,-67.5],[61.875,-67.5],[61.875,-68.90625]]]},"properties":{"n":5}},{"type":"Feature","geometry":{"type":"Polygon","coordinates":[[[-61.875,-63.28125],[-60.46875,-63.28125],[-60.46875,-61.875],[-61.875,-61.875],[-61.875,-63.28125]]]},"properties":{"n":5}},{"type":"Feature","geometry":{"type":"Polygon","coordinates":[[[-172.96875,-64.6875],[-171.5625,-64.6875],[-171.5625,-63.28125],[-172.96875,-63.28125],[-172.96875,-64.6875]]]},"properties":{"n":5}},{"type":"Feature","geometry":{"type":"Polygon","coordinates":[[[-167.34375,-78.75],[-165.9375,-78.75],[-165.9375,-77.34375],[-167.34375,-77.34375],[-167.34375,-78.75]]]},"properties":{"n":5}},{"type":"Feature","geometry":{"type":"Polygon","coordinates":[[[-177.1875,-75.9375],[-175.78125,-75.9375],[-175.78125,-74.53125],[-177.1875,-74.53125],[-177.1875,-75.9375]]]},"properties":{"n":5}},{"type":"Feature","geometry":{"type":"Polygon","coordinates":[[[171.5625,-64.6875],[172.96875,-64.6875],[172.96875,-63.28125],[171.5625,-63.28125],[171.5625,-64.6875]]]},"properties":{"n":4}},{"type":"Feature","geometry":{"type":"Polygon","coordinates":[[[170.15625,-74.53125],[171.5625,-74.53125],[171.5625,-73.125],[170.15625,-73.125],[170.15625,-74.53125]]]},"properties":{"n":4}},{"type":"Feature","geometry":{"type":"Polygon","coordinates":[[[-63.28125,-64.6875],[-61.875,-64.6875],[-61.875,-63.28125],[-63.28125,-63.28125],[-63.28125,-64.6875]]]},"properties":{"n":4}},{"type":"Feature","geometry":{"type":"Polygon","coordinates":[[[-22.5,-74.53125],[-21.09375,-74.53125],[-21.09375,-73.125],[-22.5,-73.125],[-22.5,-74.53125]]]},"properties":{"n":3}},{"type":"Feature","geometry":{"type":"Polygon","coordinates":[[[-122.34375,-67.5],[-120.9375,-67.5],[-120.9375,-66.09375],[-122.34375,-66.09375],[-122.34375,-67.5]]]},"properties":{"n":3}},{"type":"Feature","geometry":{"type":"Polygon","coordinates":[[[157.5,-54.84375],[158.90625,-54.84375],[158.90625,-53.4375],[157.5,-53.4375],[157.5,-54.84375]]]},"properties":{"n":2}},{"type":"Feature","geometry":{"type":"Polygon","coordinates":[[[171.5625,-67.5],[172.96875,-67.5],[172.96875,-66.09375],[171.5625,-66.09375],[171.5625,-67.5]]]},"properties":{"n":2}},{"type":"Feature","geometry":{"type":"Polygon","coordinates":[[[170.15625,-67.5],[171.5625,-67.5],[171.5625,-66.09375],[170.15625,-66.09375],[170.15625,-67.5]]]},"properties":{"n":2}},{"type":"Feature","geometry":{"type":"Polygon","coordinates":[[[163.125,-67.5],[164.53125,-67.5],[164.53125,-66.09375],[163.125,-66.09375],[163.125,-67.5]]]},"properties":{"n":2}},{"type":"Feature","geometry":{"type":"Polygon","coordinates":[[[161.71875,-67.5],[163.125,-67.5],[163.125,-66.09375],[161.71875,-66.09375],[161.71875,-67.5]]]},"properties":{"n":2}},{"type":"Feature","geometry":{"type":"Polygon","coordinates":[[[139.21875,-66.09375],[140.625,-66.09375],[140.625,-64.6875],[139.21875,-64.6875],[139.21875,-66.09375]]]},"properties":{"n":2}},{"type":"Feature","geometry":{"type":"Polygon","coordinates":[[[171.5625,-71.71875],[172.96875,-71.71875],[172.96875,-70.3125],[171.5625,-70.3125],[171.5625,-71.71875]]]},"properties":{"n":2}},{"type":"Feature","geometry":{"type":"Polygon","coordinates":[[[170.15625,-71.71875],[171.5625,-71.71875],[171.5625,-70.3125],[170.15625,-70.3125],[170.15625,-71.71875]]]},"properties":{"n":2}},{"type":"Feature","geometry":{"type":"Polygon","coordinates":[[[167.34375,-68.90625],[168.75,-68.90625],[168.75,-67.5],[167.34375,-67.5],[167.34375,-68.90625]]]},"properties":{"n":2}},{"type":"Feature","geometry":{"type":"Polygon","coordinates":[[[70.3125,-67.5],[71.71875,-67.5],[71.71875,-66.09375],[70.3125,-66.09375],[70.3125,-67.5]]]},"properties":{"n":2}},{"type":"Feature","geometry":{"type":"Polygon","coordinates":[[[68.90625,-66.09375],[70.3125,-66.09375],[70.3125,-64.6875],[68.90625,-64.6875],[68.90625,-66.09375]]]},"properties":{"n":2}},{"type":"Feature","geometry":{"type":"Polygon","coordinates":[[[52.03125,-66.09375],[53.4375,-66.09375],[53.4375,-64.6875],[52.03125,-64.6875],[52.03125,-66.09375]]]},"properties":{"n":2}},{"type":"Feature","geometry":{"type":"Polygon","coordinates":[[[-56.25,-60.46875],[-54.84375,-60.46875],[-54.84375,-59.0625],[-56.25,-59.0625],[-56.25,-60.46875]]]},"properties":{"n":2}},{"type":"Feature","geometry":{"type":"Polygon","coordinates":[[[-66.09375,-66.09375],[-64.6875,-66.09375],[-64.6875,-64.6875],[-66.09375,-64.6875],[-66.09375,-66.09375]]]},"properties":{"n":2}},{"type":"Feature","geometry":{"type":"Polygon","coordinates":[[[-67.5,-66.09375],[-66.09375,-66.09375],[-66.09375,-64.6875],[-67.5,-64.6875],[-67.5,-66.09375]]]},"properties":{"n":2}},{"type":"Feature","geometry":{"type":"Polygon","coordinates":[[[-91.40625,-66.09375],[-90,-66.09375],[-90,-64.6875],[-91.40625,-64.6875],[-91.40625,-66.09375]]]},"properties":{"n":2}},{"type":"Feature","geometry":{"type":"Polygon","coordinates":[[[-171.5625,-66.09375],[-170.15625,-66.09375],[-170.15625,-64.6875],[-171.5625,-64.6875],[-171.5625,-66.09375]]]},"properties":{"n":2}},{"type":"Feature","geometry":{"type":"Polygon","coordinates":[[[-172.96875,-73.125],[-171.5625,-73.125],[-171.5625,-71.71875],[-172.96875,-71.71875],[-172.96875,-73.125]]]},"properties":{"n":2}},{"type":"Feature","geometry":{"type":"Polygon","coordinates":[[[-170.15625,-75.9375],[-168.75,-75.9375],[-168.75,-74.53125],[-170.15625,-74.53125],[-170.15625,-75.9375]]]},"properties":{"n":2}},{"type":"Feature","geometry":{"type":"Polygon","coordinates":[[[-180,-75.9375],[-178.59375,-75.9375],[-178.59375,-74.53125],[-180,-74.53125],[-180,-75.9375]]]},"properties":{"n":2}},{"type":"Feature","geometry":{"type":"Polygon","coordinates":[[[172.96875,-63.28125],[174.375,-63.28125],[174.375,-61.875],[172.96875,-61.875],[172.96875,-63.28125]]]},"properties":{"n":1}},{"type":"Feature","geometry":{"type":"Polygon","coordinates":[[[164.53125,-67.5],[165.9375,-67.5],[165.9375,-66.09375],[164.53125,-66.09375],[164.53125,-67.5]]]},"properties":{"n":1}},{"type":"Feature","geometry":{"type":"Polygon","coordinates":[[[160.3125,-66.09375],[161.71875,-66.09375],[161.71875,-64.6875],[160.3125,-64.6875],[160.3125,-66.09375]]]},"properties":{"n":1}},{"type":"Feature","geometry":{"type":"Polygon","coordinates":[[[175.78125,-77.34375],[177.1875,-77.34375],[177.1875,-75.9375],[175.78125,-75.9375],[175.78125,-77.34375]]]},"properties":{"n":1}},{"type":"Feature","geometry":{"type":"Polygon","coordinates":[[[165.9375,-68.90625],[167.34375,-68.90625],[167.34375,-67.5],[165.9375,-67.5],[165.9375,-68.90625]]]},"properties":{"n":1}},{"type":"Feature","geometry":{"type":"Polygon","coordinates":[[[165.9375,-70.3125],[167.34375,-70.3125],[167.34375,-68.90625],[165.9375,-68.90625],[165.9375,-70.3125]]]},"properties":{"n":1}},{"type":"Feature","geometry":{"type":"Polygon","coordinates":[[[164.53125,-70.3125],[165.9375,-70.3125],[165.9375,-68.90625],[164.53125,-68.90625],[164.53125,-70.3125]]]},"properties":{"n":1}},{"type":"Feature","geometry":{"type":"Polygon","coordinates":[[[165.9375,-78.75],[167.34375,-78.75],[167.34375,-77.34375],[165.9375,-77.34375],[165.9375,-78.75]]]},"properties":{"n":1}},{"type":"Feature","geometry":{"type":"Polygon","coordinates":[[[73.125,-67.5],[74.53125,-67.5],[74.53125,-66.09375],[73.125,-66.09375],[73.125,-67.5]]]},"properties":{"n":1}},{"type":"Feature","geometry":{"type":"Polygon","coordinates":[[[71.71875,-67.5],[73.125,-67.5],[73.125,-66.09375],[71.71875,-66.09375],[71.71875,-67.5]]]},"properties":{"n":1}},{"type":"Feature","geometry":{"type":"Polygon","coordinates":[[[68.90625,-67.5],[70.3125,-67.5],[70.3125,-66.09375],[68.90625,-66.09375],[68.90625,-67.5]]]},"properties":{"n":1}},{"type":"Feature","geometry":{"type":"Polygon","coordinates":[[[61.875,-67.5],[63.28125,-67.5],[63.28125,-66.09375],[61.875,-66.09375],[61.875,-67.5]]]},"properties":{"n":1}},{"type":"Feature","geometry":{"type":"Polygon","coordinates":[[[1.40625,-66.09375],[2.8125,-66.09375],[2.8125,-64.6875],[1.40625,-64.6875],[1.40625,-66.09375]]]},"properties":{"n":1}},{"type":"Feature","geometry":{"type":"Polygon","coordinates":[[[11.25,-68.90625],[12.65625,-68.90625],[12.65625,-67.5],[11.25,-67.5],[11.25,-68.90625]]]},"properties":{"n":1}},{"type":"Feature","geometry":{"type":"Polygon","coordinates":[[[7.03125,-68.90625],[8.4375,-68.90625],[8.4375,-67.5],[7.03125,-67.5],[7.03125,-68.90625]]]},"properties":{"n":1}},{"type":"Feature","geometry":{"type":"Polygon","coordinates":[[[-18.28125,-63.28125],[-16.875,-63.28125],[-16.875,-61.875],[-18.28125,-61.875],[-18.28125,-63.28125]]]},"properties":{"n":1}},{"type":"Feature","geometry":{"type":"Polygon","coordinates":[[[-30.9375,-59.0625],[-29.53125,-59.0625],[-29.53125,-57.65625],[-30.9375,-57.65625],[-30.9375,-59.0625]]]},"properties":{"n":1}},{"type":"Feature","geometry":{"type":"Polygon","coordinates":[[[-42.1875,-57.65625],[-40.78125,-57.65625],[-40.78125,-56.25],[-42.1875,-56.25],[-42.1875,-57.65625]]]},"properties":{"n":1}},{"type":"Feature","geometry":{"type":"Polygon","coordinates":[[[-12.65625,-71.71875],[-11.25,-71.71875],[-11.25,-70.3125],[-12.65625,-70.3125],[-12.65625,-71.71875]]]},"properties":{"n":1}},{"type":"Feature","geometry":{"type":"Polygon","coordinates":[[[-47.8125,-54.84375],[-46.40625,-54.84375],[-46.40625,-53.4375],[-47.8125,-53.4375],[-47.8125,-54.84375]]]},"properties":{"n":1}},{"type":"Feature","geometry":{"type":"Polygon","coordinates":[[[-46.40625,-60.46875],[-45,-60.46875],[-45,-59.0625],[-46.40625,-59.0625],[-46.40625,-60.46875]]]},"properties":{"n":1}},{"type":"Feature","geometry":{"type":"Polygon","coordinates":[[[-47.8125,-61.875],[-46.40625,-61.875],[-46.40625,-60.46875],[-47.8125,-60.46875],[-47.8125,-61.875]]]},"properties":{"n":1}},{"type":"Feature","geometry":{"type":"Polygon","coordinates":[[[-49.21875,-61.875],[-47.8125,-61.875],[-47.8125,-60.46875],[-49.21875,-60.46875],[-49.21875,-61.875]]]},"properties":{"n":1}},{"type":"Feature","geometry":{"type":"Polygon","coordinates":[[[-54.84375,-61.875],[-53.4375,-61.875],[-53.4375,-60.46875],[-54.84375,-60.46875],[-54.84375,-61.875]]]},"properties":{"n":1}},{"type":"Feature","geometry":{"type":"Polygon","coordinates":[[[-57.65625,-61.875],[-56.25,-61.875],[-56.25,-60.46875],[-57.65625,-60.46875],[-57.65625,-61.875]]]},"properties":{"n":1}},{"type":"Feature","geometry":{"type":"Polygon","coordinates":[[[-59.0625,-61.875],[-57.65625,-61.875],[-57.65625,-60.46875],[-59.0625,-60.46875],[-59.0625,-61.875]]]},"properties":{"n":1}},{"type":"Feature","geometry":{"type":"Polygon","coordinates":[[[-61.875,-61.875],[-60.46875,-61.875],[-60.46875,-60.46875],[-61.875,-60.46875],[-61.875,-61.875]]]},"properties":{"n":1}},{"type":"Feature","geometry":{"type":"Polygon","coordinates":[[[-68.90625,-66.09375],[-67.5,-66.09375],[-67.5,-64.6875],[-68.90625,-64.6875],[-68.90625,-66.09375]]]},"properties":{"n":1}},{"type":"Feature","geometry":{"type":"Polygon","coordinates":[[[-123.75,-66.09375],[-122.34375,-66.09375],[-122.34375,-64.6875],[-123.75,-64.6875],[-123.75,-66.09375]]]},"properties":{"n":1}},{"type":"Feature","geometry":{"type":"Polygon","coordinates":[[[-160.3125,-77.34375],[-158.90625,-77.34375],[-158.90625,-75.9375],[-160.3125,-75.9375],[-160.3125,-77.34375]]]},"properties":{"n":1}},{"type":"Feature","geometry":{"type":"Polygon","coordinates":[[[-163.125,-78.75],[-161.71875,-78.75],[-161.71875,-77.34375],[-163.125,-77.34375],[-163.125,-78.75]]]},"properties":{"n":1}},{"type":"Feature","geometry":{"type":"Polygon","coordinates":[[[-178.59375,-70.3125],[-177.1875,-70.3125],[-177.1875,-68.90625],[-178.59375,-68.90625],[-178.59375,-70.3125]]]},"properties":{"n":1}}]}