{"type":"FeatureCollection","features":[{"type":"Feature","geometry":{"type":"Polygon","coordinates":[[[4.21875,52.03125],[5.625,52.03125],[5.625,53.4375],[4.21875,53.4375],[4.21875,52.03125]]]},"properties":{"n":37093}},{"type":"Feature","geometry":{"type":"Polygon","coordinates":[[[-4.21875,53.4375],[-2.8125,53.4375],[-2.8125,54.84375],[-4.21875,54.84375],[-4.21875,53.4375]]]},"properties":{"n":32866}},{"type":"Feature","geometry":{"type":"Polygon","coordinates":[[[1.40625,50.625],[2.8125,50.625],[2.8125,52.03125],[1.40625,52.03125],[1.40625,50.625]]]},"properties":{"n":27836}},{"type":"Feature","geometry":{"type":"Polygon","coordinates":[[[5.625,54.84375],[7.03125,54.84375],[7.03125,56.25],[5.625,56.25],[5.625,54.84375]]]},"properties":{"n":21155}},{"type":"Feature","geometry":{"type":"Polygon","coordinates":[[[4.21875,53.4375],[5.625,53.4375],[5.625,54.84375],[4.21875,54.84375],[4.21875,53.4375]]]},"properties":{"n":20673}},{"type":"Feature","geometry":{"type":"Polygon","coordinates":[[[7.03125,54.84375],[8.4375,54.84375],[8.4375,56.25],[7.03125,56.25],[7.03125,54.84375]]]},"properties":{"n":19892}},{"type":"Feature","geometry":{"type":"Polygon","coordinates":[[[2.8125,52.03125],[4.21875,52.03125],[4.21875,53.4375],[2.8125,53.4375],[2.8125,52.03125]]]},"properties":{"n":18195}},{"type":"Feature","geometry":{"type":"Polygon","coordinates":[[[11.25,56.25],[12.65625,56.25],[12.65625,57.65625],[11.25,57.65625],[11.25,56.25]]]},"properties":{"n":17909}},{"type":"Feature","geometry":{"type":"Polygon","coordinates":[[[5.625,53.4375],[7.03125,53.4375],[7.03125,54.84375],[5.625,54.84375],[5.625,53.4375]]]},"properties":{"n":16176}},{"type":"Feature","geometry":{"type":"Polygon","coordinates":[[[4.21875,54.84375],[5.625,54.84375],[5.625,56.25],[4.21875,56.25],[4.21875,54.84375]]]},"properties":{"n":16064}},{"type":"Feature","geometry":{"type":"Polygon","coordinates":[[[-5.625,50.625],[-4.21875,50.625],[-4.21875,52.03125],[-5.625,52.03125],[-5.625,50.625]]]},"properties":{"n":15264}},{"type":"Feature","geometry":{"type":"Polygon","coordinates":[[[2.8125,50.625],[4.21875,50.625],[4.21875,52.03125],[2.8125,52.03125],[2.8125,50.625]]]},"properties":{"n":15034}},{"type":"Feature","geometry":{"type":"Polygon","coordinates":[[[2.8125,53.4375],[4.21875,53.4375],[4.21875,54.84375],[2.8125,54.84375],[2.8125,53.4375]]]},"properties":{"n":14969}},{"type":"Feature","geometry":{"type":"Polygon","coordinates":[[[0,50.625],[1.40625,50.625],[1.40625,52.03125],[0,52.03125],[0,50.625]]]},"properties":{"n":13370}},{"type":"Feature","geometry":{"type":"Polygon","coordinates":[[[12.65625,54.84375],[14.0625,54.84375],[14.0625,56.25],[12.65625,56.25],[12.65625,54.84375]]]},"properties":{"n":13109}},{"type":"Feature","geometry":{"type":"Polygon","coordinates":[[[7.03125,53.4375],[8.4375,53.4375],[8.4375,54.84375],[7.03125,54.84375],[7.03125,53.4375]]]},"properties":{"n":12900}},{"type":"Feature","geometry":{"type":"Polygon","coordinates":[[[14.0625,54.84375],[15.46875,54.84375],[15.46875,56.25],[14.0625,56.25],[14.0625,54.84375]]]},"properties":{"n":12567}},{"type":"Feature","geometry":{"type":"Polygon","coordinates":[[[1.40625,52.03125],[2.8125,52.03125],[2.8125,53.4375],[1.40625,53.4375],[1.40625,52.03125]]]},"properties":{"n":12076}},{"type":"Feature","geometry":{"type":"Polygon","coordinates":[[[1.40625,53.4375],[2.8125,53.4375],[2.8125,54.84375],[1.40625,54.84375],[1.40625,53.4375]]]},"properties":{"n":10911}},{"type":"Feature","geometry":{"type":"Polygon","coordinates":[[[9.84375,54.84375],[11.25,54.84375],[11.25,56.25],[9.84375,56.25],[9.84375,54.84375]]]},"properties":{"n":10834}},{"type":"Feature","geometry":{"type":"Polygon","coordinates":[[[5.625,56.25],[7.03125,56.25],[7.03125,57.65625],[5.625,57.65625],[5.625,56.25]]]},"properties":{"n":9985}},{"type":"Feature","geometry":{"type":"Polygon","coordinates":[[[7.03125,56.25],[8.4375,56.25],[8.4375,57.65625],[7.03125,57.65625],[7.03125,56.25]]]},"properties":{"n":9680}},{"type":"Feature","geometry":{"type":"Polygon","coordinates":[[[0,53.4375],[1.40625,53.4375],[1.40625,54.84375],[0,54.84375],[0,53.4375]]]},"properties":{"n":8816}},{"type":"Feature","geometry":{"type":"Polygon","coordinates":[[[-4.21875,49.21875],[-2.8125,49.21875],[-2.8125,50.625],[-4.21875,50.625],[-4.21875,49.21875]]]},"properties":{"n":8607}},{"type":"Feature","geometry":{"type":"Polygon","coordinates":[[[9.84375,57.65625],[11.25,57.65625],[11.25,59.0625],[9.84375,59.0625],[9.84375,57.65625]]]},"properties":{"n":8506}},{"type":"Feature","geometry":{"type":"Polygon","coordinates":[[[4.21875,56.25],[5.625,56.25],[5.625,57.65625],[4.21875,57.65625],[4.21875,56.25]]]},"properties":{"n":7784}},{"type":"Feature","geometry":{"type":"Polygon","coordinates":[[[-4.21875,52.03125],[-2.8125,52.03125],[-2.8125,53.4375],[-4.21875,53.4375],[-4.21875,52.03125]]]},"properties":{"n":7763}},{"type":"Feature","geometry":{"type":"Polygon","coordinates":[[[9.84375,56.25],[11.25,56.25],[11.25,57.65625],[9.84375,57.65625],[9.84375,56.25]]]},"properties":{"n":7226}},{"type":"Feature","geometry":{"type":"Polygon","coordinates":[[[14.0625,53.4375],[15.46875,53.4375],[15.46875,54.84375],[14.0625,54.84375],[14.0625,53.4375]]]},"properties":{"n":7049}},{"type":"Feature","geometry":{"type":"Polygon","coordinates":[[[0,49.21875],[1.40625,49.21875],[1.40625,50.625],[0,50.625],[0,49.21875]]]},"properties":{"n":6866}},{"type":"Feature","geometry":{"type":"Polygon","coordinates":[[[11.25,53.4375],[12.65625,53.4375],[12.65625,54.84375],[11.25,54.84375],[11.25,53.4375]]]},"properties":{"n":6682}},{"type":"Feature","geometry":{"type":"Polygon","coordinates":[[[-1.40625,49.21875],[0,49.21875],[0,50.625],[-1.40625,50.625],[-1.40625,49.21875]]]},"properties":{"n":6533}},{"type":"Feature","geometry":{"type":"Polygon","coordinates":[[[-7.03125,53.4375],[-5.625,53.4375],[-5.625,54.84375],[-7.03125,54.84375],[-7.03125,53.4375]]]},"properties":{"n":6185}},{"type":"Feature","geometry":{"type":"Polygon","coordinates":[[[15.46875,54.84375],[16.875,54.84375],[16.875,56.25],[15.46875,56.25],[15.46875,54.84375]]]},"properties":{"n":6109}},{"type":"Feature","geometry":{"type":"Polygon","coordinates":[[[-7.03125,52.03125],[-5.625,52.03125],[-5.625,53.4375],[-7.03125,53.4375],[-7.03125,52.03125]]]},"properties":{"n":5635}},{"type":"Feature","geometry":{"type":"Polygon","coordinates":[[[8.4375,56.25],[9.84375,56.25],[9.84375,57.65625],[8.4375,57.65625],[8.4375,56.25]]]},"properties":{"n":5454}},{"type":"Feature","geometry":{"type":"Polygon","coordinates":[[[-1.40625,56.25],[0,56.25],[0,57.65625],[-1.40625,57.65625],[-1.40625,56.25]]]},"properties":{"n":5400}},{"type":"Feature","geometry":{"type":"Polygon","coordinates":[[[-8.4375,54.84375],[-7.03125,54.84375],[-7.03125,56.25],[-8.4375,56.25],[-8.4375,54.84375]]]},"properties":{"n":5390}},{"type":"Feature","geometry":{"type":"Polygon","coordinates":[[[9.84375,53.4375],[11.25,53.4375],[11.25,54.84375],[9.84375,54.84375],[9.84375,53.4375]]]},"properties":{"n":5293}},{"type":"Feature","geometry":{"type":"Polygon","coordinates":[[[12.65625,53.4375],[14.0625,53.4375],[14.0625,54.84375],[12.65625,54.84375],[12.65625,53.4375]]]},"properties":{"n":5203}},{"type":"Feature","geometry":{"type":"Polygon","coordinates":[[[-2.8125,57.65625],[-1.40625,57.65625],[-1.40625,59.0625],[-2.8125,59.0625],[-2.8125,57.65625]]]},"properties":{"n":5026}},{"type":"Feature","geometry":{"type":"Polygon","coordinates":[[[2.8125,54.84375],[4.21875,54.84375],[4.21875,56.25],[2.8125,56.25],[2.8125,54.84375]]]},"properties":{"n":4517}},{"type":"Feature","geometry":{"type":"Polygon","coordinates":[[[-5.625,52.03125],[-4.21875,52.03125],[-4.21875,53.4375],[-5.625,53.4375],[-5.625,52.03125]]]},"properties":{"n":4317}},{"type":"Feature","geometry":{"type":"Polygon","coordinates":[[[-4.21875,57.65625],[-2.8125,57.65625],[-2.8125,59.0625],[-4.21875,59.0625],[-4.21875,57.65625]]]},"properties":{"n":4298}},{"type":"Feature","geometry":{"type":"Polygon","coordinates":[[[-1.40625,54.84375],[0,54.84375],[0,56.25],[-1.40625,56.25],[-1.40625,54.84375]]]},"properties":{"n":4189}},{"type":"Feature","geometry":{"type":"Polygon","coordinates":[[[-5.625,53.4375],[-4.21875,53.4375],[-4.21875,54.84375],[-5.625,54.84375],[-5.625,53.4375]]]},"properties":{"n":3957}},{"type":"Feature","geometry":{"type":"Polygon","coordinates":[[[11.25,54.84375],[12.65625,54.84375],[12.65625,56.25],[11.25,56.25],[11.25,54.84375]]]},"properties":{"n":3775}},{"type":"Feature","geometry":{"type":"Polygon","coordinates":[[[15.46875,53.4375],[16.875,53.4375],[16.875,54.84375],[15.46875,54.84375],[15.46875,53.4375]]]},"properties":{"n":3689}},{"type":"Feature","geometry":{"type":"Polygon","coordinates":[[[-8.4375,50.625],[-7.03125,50.625],[-7.03125,52.03125],[-8.4375,52.03125],[-8.4375,50.625]]]},"properties":{"n":3358}},{"type":"Feature","geometry":{"type":"Polygon","coordinates":[[[-9.84375,53.4375],[-8.4375,53.4375],[-8.4375,54.84375],[-9.84375,54.84375],[-9.84375,53.4375]]]},"properties":{"n":3214}},{"type":"Feature","geometry":{"type":"Polygon","coordinates":[[[-7.03125,50.625],[-5.625,50.625],[-5.625,52.03125],[-7.03125,52.03125],[-7.03125,50.625]]]},"properties":{"n":3204}},{"type":"Feature","geometry":{"type":"Polygon","coordinates":[[[0,54.84375],[1.40625,54.84375],[1.40625,56.25],[0,56.25],[0,54.84375]]]},"properties":{"n":3190}},{"type":"Feature","geometry":{"type":"Polygon","coordinates":[[[-2.8125,56.25],[-1.40625,56.25],[-1.40625,57.65625],[-2.8125,57.65625],[-2.8125,56.25]]]},"properties":{"n":2997}},{"type":"Feature","geometry":{"type":"Polygon","coordinates":[[[1.40625,54.84375],[2.8125,54.84375],[2.8125,56.25],[1.40625,56.25],[1.40625,54.84375]]]},"properties":{"n":2728}},{"type":"Feature","geometry":{"type":"Polygon","coordinates":[[[-1.40625,50.625],[0,50.625],[0,52.03125],[-1.40625,52.03125],[-1.40625,50.625]]]},"properties":{"n":2681}},{"type":"Feature","geometry":{"type":"Polygon","coordinates":[[[-7.03125,57.65625],[-5.625,57.65625],[-5.625,59.0625],[-7.03125,59.0625],[-7.03125,57.65625]]]},"properties":{"n":2638}},{"type":"Feature","geometry":{"type":"Polygon","coordinates":[[[16.875,54.84375],[18.28125,54.84375],[18.28125,56.25],[16.875,56.25],[16.875,54.84375]]]},"properties":{"n":2466}},{"type":"Feature","geometry":{"type":"Polygon","coordinates":[[[2.8125,56.25],[4.21875,56.25],[4.21875,57.65625],[2.8125,57.65625],[2.8125,56.25]]]},"properties":{"n":2323}},{"type":"Feature","geometry":{"type":"Polygon","coordinates":[[[1.40625,49.21875],[2.8125,49.21875],[2.8125,50.625],[1.40625,50.625],[1.40625,49.21875]]]},"properties":{"n":2204}},{"type":"Feature","geometry":{"type":"Polygon","coordinates":[[[-1.40625,57.65625],[0,57.65625],[0,59.0625],[-1.40625,59.0625],[-1.40625,57.65625]]]},"properties":{"n":2173}},{"type":"Feature","geometry":{"type":"Polygon","coordinates":[[[0,52.03125],[1.40625,52.03125],[1.40625,53.4375],[0,53.4375],[0,52.03125]]]},"properties":{"n":2171}},{"type":"Feature","geometry":{"type":"Polygon","coordinates":[[[-9.84375,54.84375],[-8.4375,54.84375],[-8.4375,56.25],[-9.84375,56.25],[-9.84375,54.84375]]]},"properties":{"n":2147}},{"type":"Feature","geometry":{"type":"Polygon","coordinates":[[[-2.8125,59.0625],[-1.40625,59.0625],[-1.40625,60.46875],[-2.8125,60.46875],[-2.8125,59.0625]]]},"properties":{"n":2078}},{"type":"Feature","geometry":{"type":"Polygon","coordinates":[[[0,56.25],[1.40625,56.25],[1.40625,57.65625],[0,57.65625],[0,56.25]]]},"properties":{"n":2070}},{"type":"Feature","geometry":{"type":"Polygon","coordinates":[[[-5.625,49.21875],[-4.21875,49.21875],[-4.21875,50.625],[-5.625,50.625],[-5.625,49.21875]]]},"properties":{"n":2013}},{"type":"Feature","geometry":{"type":"Polygon","coordinates":[[[-7.03125,54.84375],[-5.625,54.84375],[-5.625,56.25],[-7.03125,56.25],[-7.03125,54.84375]]]},"properties":{"n":2007}},{"type":"Feature","geometry":{"type":"Polygon","coordinates":[[[-2.8125,49.21875],[-1.40625,49.21875],[-1.40625,50.625],[-2.8125,50.625],[-2.8125,49.21875]]]},"properties":{"n":1985}},{"type":"Feature","geometry":{"type":"Polygon","coordinates":[[[1.40625,56.25],[2.8125,56.25],[2.8125,57.65625],[1.40625,57.65625],[1.40625,56.25]]]},"properties":{"n":1894}},{"type":"Feature","geometry":{"type":"Polygon","coordinates":[[[-5.625,57.65625],[-4.21875,57.65625],[-4.21875,59.0625],[-5.625,59.0625],[-5.625,57.65625]]]},"properties":{"n":1640}},{"type":"Feature","geometry":{"type":"Polygon","coordinates":[[[-11.25,53.4375],[-9.84375,53.4375],[-9.84375,54.84375],[-11.25,54.84375],[-11.25,53.4375]]]},"properties":{"n":1639}},{"type":"Feature","geometry":{"type":"Polygon","coordinates":[[[-7.03125,49.21875],[-5.625,49.21875],[-5.625,50.625],[-7.03125,50.625],[-7.03125,49.21875]]]},"properties":{"n":1571}},{"type":"Feature","geometry":{"type":"Polygon","coordinates":[[[1.40625,57.65625],[2.8125,57.65625],[2.8125,59.0625],[1.40625,59.0625],[1.40625,57.65625]]]},"properties":{"n":1552}},{"type":"Feature","geometry":{"type":"Polygon","coordinates":[[[-2.8125,50.625],[-1.40625,50.625],[-1.40625,52.03125],[-2.8125,52.03125],[-2.8125,50.625]]]},"properties":{"n":1483}},{"type":"Feature","geometry":{"type":"Polygon","coordinates":[[[-8.4375,57.65625],[-7.03125,57.65625],[-7.03125,59.0625],[-8.4375,59.0625],[-8.4375,57.65625]]]},"properties":{"n":1338}},{"type":"Feature","geometry":{"type":"Polygon","coordinates":[[[18.28125,53.4375],[19.6875,53.4375],[19.6875,54.84375],[18.28125,54.84375],[18.28125,53.4375]]]},"properties":{"n":1326}},{"type":"Feature","geometry":{"type":"Polygon","coordinates":[[[-7.03125,47.8125],[-5.625,47.8125],[-5.625,49.21875],[-7.03125,49.21875],[-7.03125,47.8125]]]},"properties":{"n":1183}},{"type":"Feature","geometry":{"type":"Polygon","coordinates":[[[8.4375,54.84375],[9.84375,54.84375],[9.84375,56.25],[8.4375,56.25],[8.4375,54.84375]]]},"properties":{"n":1148}},{"type":"Feature","geometry":{"type":"Polygon","coordinates":[[[8.4375,57.65625],[9.84375,57.65625],[9.84375,59.0625],[8.4375,59.0625],[8.4375,57.65625]]]},"properties":{"n":1140}},{"type":"Feature","geometry":{"type":"Polygon","coordinates":[[[-8.4375,56.25],[-7.03125,56.25],[-7.03125,57.65625],[-8.4375,57.65625],[-8.4375,56.25]]]},"properties":{"n":1136}},{"type":"Feature","geometry":{"type":"Polygon","coordinates":[[[-1.40625,59.0625],[0,59.0625],[0,60.46875],[-1.40625,60.46875],[-1.40625,59.0625]]]},"properties":{"n":1096}},{"type":"Feature","geometry":{"type":"Polygon","coordinates":[[[2.8125,57.65625],[4.21875,57.65625],[4.21875,59.0625],[2.8125,59.0625],[2.8125,57.65625]]]},"properties":{"n":1095}},{"type":"Feature","geometry":{"type":"Polygon","coordinates":[[[-1.40625,53.4375],[0,53.4375],[0,54.84375],[-1.40625,54.84375],[-1.40625,53.4375]]]},"properties":{"n":1030}},{"type":"Feature","geometry":{"type":"Polygon","coordinates":[[[-9.84375,50.625],[-8.4375,50.625],[-8.4375,52.03125],[-9.84375,52.03125],[-9.84375,50.625]]]},"properties":{"n":988}},{"type":"Feature","geometry":{"type":"Polygon","coordinates":[[[-1.40625,60.46875],[0,60.46875],[0,61.875],[-1.40625,61.875],[-1.40625,60.46875]]]},"properties":{"n":951}},{"type":"Feature","geometry":{"type":"Polygon","coordinates":[[[11.25,57.65625],[12.65625,57.65625],[12.65625,59.0625],[11.25,59.0625],[11.25,57.65625]]]},"properties":{"n":939}},{"type":"Feature","geometry":{"type":"Polygon","coordinates":[[[-11.25,50.625],[-9.84375,50.625],[-9.84375,52.03125],[-11.25,52.03125],[-11.25,50.625]]]},"properties":{"n":931}},{"type":"Feature","geometry":{"type":"Polygon","coordinates":[[[-5.625,54.84375],[-4.21875,54.84375],[-4.21875,56.25],[-5.625,56.25],[-5.625,54.84375]]]},"properties":{"n":888}},{"type":"Feature","geometry":{"type":"Polygon","coordinates":[[[-5.625,59.0625],[-4.21875,59.0625],[-4.21875,60.46875],[-5.625,60.46875],[-5.625,59.0625]]]},"properties":{"n":855}},{"type":"Feature","geometry":{"type":"Polygon","coordinates":[[[18.28125,54.84375],[19.6875,54.84375],[19.6875,56.25],[18.28125,56.25],[18.28125,54.84375]]]},"properties":{"n":847}},{"type":"Feature","geometry":{"type":"Polygon","coordinates":[[[-4.21875,47.8125],[-2.8125,47.8125],[-2.8125,49.21875],[-4.21875,49.21875],[-4.21875,47.8125]]]},"properties":{"n":832}},{"type":"Feature","geometry":{"type":"Polygon","coordinates":[[[-7.03125,56.25],[-5.625,56.25],[-5.625,57.65625],[-7.03125,57.65625],[-7.03125,56.25]]]},"properties":{"n":817}},{"type":"Feature","geometry":{"type":"Polygon","coordinates":[[[-9.84375,52.03125],[-8.4375,52.03125],[-8.4375,53.4375],[-9.84375,53.4375],[-9.84375,52.03125]]]},"properties":{"n":771}},{"type":"Feature","geometry":{"type":"Polygon","coordinates":[[[-9.84375,56.25],[-8.4375,56.25],[-8.4375,57.65625],[-9.84375,57.65625],[-9.84375,56.25]]]},"properties":{"n":759}},{"type":"Feature","geometry":{"type":"Polygon","coordinates":[[[-4.21875,59.0625],[-2.8125,59.0625],[-2.8125,60.46875],[-4.21875,60.46875],[-4.21875,59.0625]]]},"properties":{"n":757}},{"type":"Feature","geometry":{"type":"Polygon","coordinates":[[[-11.25,52.03125],[-9.84375,52.03125],[-9.84375,53.4375],[-11.25,53.4375],[-11.25,52.03125]]]},"properties":{"n":756}},{"type":"Feature","geometry":{"type":"Polygon","coordinates":[[[-4.21875,50.625],[-2.8125,50.625],[-2.8125,52.03125],[-4.21875,52.03125],[-4.21875,50.625]]]},"properties":{"n":670}},{"type":"Feature","geometry":{"type":"Polygon","coordinates":[[[-2.8125,54.84375],[-1.40625,54.84375],[-1.40625,56.25],[-2.8125,56.25],[-2.8125,54.84375]]]},"properties":{"n":605}},{"type":"Feature","geometry":{"type":"Polygon","coordinates":[[[0,57.65625],[1.40625,57.65625],[1.40625,59.0625],[0,59.0625],[0,57.65625]]]},"properties":{"n":484}},{"type":"Feature","geometry":{"type":"Polygon","coordinates":[[[4.21875,57.65625],[5.625,57.65625],[5.625,59.0625],[4.21875,59.0625],[4.21875,57.65625]]]},"properties":{"n":480}},{"type":"Feature","geometry":{"type":"Polygon","coordinates":[[[1.40625,59.0625],[2.8125,59.0625],[2.8125,60.46875],[1.40625,60.46875],[1.40625,59.0625]]]},"properties":{"n":405}},{"type":"Feature","geometry":{"type":"Polygon","coordinates":[[[-8.4375,52.03125],[-7.03125,52.03125],[-7.03125,53.4375],[-8.4375,53.4375],[-8.4375,52.03125]]]},"properties":{"n":399}},{"type":"Feature","geometry":{"type":"Polygon","coordinates":[[[-9.84375,47.8125],[-8.4375,47.8125],[-8.4375,49.21875],[-9.84375,49.21875],[-9.84375,47.8125]]]},"properties":{"n":348}},{"type":"Feature","geometry":{"type":"Polygon","coordinates":[[[0,59.0625],[1.40625,59.0625],[1.40625,60.46875],[0,60.46875],[0,59.0625]]]},"properties":{"n":342}},{"type":"Feature","geometry":{"type":"Polygon","coordinates":[[[19.6875,54.84375],[21.09375,54.84375],[21.09375,56.25],[19.6875,56.25],[19.6875,54.84375]]]},"properties":{"n":249}},{"type":"Feature","geometry":{"type":"Polygon","coordinates":[[[16.875,56.25],[18.28125,56.25],[18.28125,57.65625],[16.875,57.65625],[16.875,56.25]]]},"properties":{"n":234}},{"type":"Feature","geometry":{"type":"Polygon","coordinates":[[[-8.4375,53.4375],[-7.03125,53.4375],[-7.03125,54.84375],[-8.4375,54.84375],[-8.4375,53.4375]]]},"properties":{"n":230}},{"type":"Feature","geometry":{"type":"Polygon","coordinates":[[[-9.84375,57.65625],[-8.4375,57.65625],[-8.4375,59.0625],[-9.84375,59.0625],[-9.84375,57.65625]]]},"properties":{"n":220}},{"type":"Feature","geometry":{"type":"Polygon","coordinates":[[[-8.4375,47.8125],[-7.03125,47.8125],[-7.03125,49.21875],[-8.4375,49.21875],[-8.4375,47.8125]]]},"properties":{"n":208}},{"type":"Feature","geometry":{"type":"Polygon","coordinates":[[[18.28125,56.25],[19.6875,56.25],[19.6875,57.65625],[18.28125,57.65625],[18.28125,56.25]]]},"properties":{"n":164}},{"type":"Feature","geometry":{"type":"Polygon","coordinates":[[[0,60.46875],[1.40625,60.46875],[1.40625,61.875],[0,61.875],[0,60.46875]]]},"properties":{"n":137}},{"type":"Feature","geometry":{"type":"Polygon","coordinates":[[[14.0625,67.5],[15.46875,67.5],[15.46875,68.90625],[14.0625,68.90625],[14.0625,67.5]]]},"properties":{"n":119}},{"type":"Feature","geometry":{"type":"Polygon","coordinates":[[[25.3125,70.3125],[26.71875,70.3125],[26.71875,71.71875],[25.3125,71.71875],[25.3125,70.3125]]]},"properties":{"n":118}},{"type":"Feature","geometry":{"type":"Polygon","coordinates":[[[5.625,52.03125],[7.03125,52.03125],[7.03125,53.4375],[5.625,53.4375],[5.625,52.03125]]]},"properties":{"n":114}},{"type":"Feature","geometry":{"type":"Polygon","coordinates":[[[28.125,70.3125],[29.53125,70.3125],[29.53125,71.71875],[28.125,71.71875],[28.125,70.3125]]]},"properties":{"n":112}},{"type":"Feature","geometry":{"type":"Polygon","coordinates":[[[-5.625,47.8125],[-4.21875,47.8125],[-4.21875,49.21875],[-5.625,49.21875],[-5.625,47.8125]]]},"properties":{"n":110}},{"type":"Feature","geometry":{"type":"Polygon","coordinates":[[[-9.84375,49.21875],[-8.4375,49.21875],[-8.4375,50.625],[-9.84375,50.625],[-9.84375,49.21875]]]},"properties":{"n":102}},{"type":"Feature","geometry":{"type":"Polygon","coordinates":[[[-7.03125,59.0625],[-5.625,59.0625],[-5.625,60.46875],[-7.03125,60.46875],[-7.03125,59.0625]]]},"properties":{"n":100}},{"type":"Feature","geometry":{"type":"Polygon","coordinates":[[[11.25,67.5],[12.65625,67.5],[12.65625,68.90625],[11.25,68.90625],[11.25,67.5]]]},"properties":{"n":96}},{"type":"Feature","geometry":{"type":"Polygon","coordinates":[[[16.875,53.4375],[18.28125,53.4375],[18.28125,54.84375],[16.875,54.84375],[16.875,53.4375]]]},"properties":{"n":95}},{"type":"Feature","geometry":{"type":"Polygon","coordinates":[[[8.4375,53.4375],[9.84375,53.4375],[9.84375,54.84375],[8.4375,54.84375],[8.4375,53.4375]]]},"properties":{"n":94}},{"type":"Feature","geometry":{"type":"Polygon","coordinates":[[[12.65625,67.5],[14.0625,67.5],[14.0625,68.90625],[12.65625,68.90625],[12.65625,67.5]]]},"properties":{"n":89}},{"type":"Feature","geometry":{"type":"Polygon","coordinates":[[[-2.8125,60.46875],[-1.40625,60.46875],[-1.40625,61.875],[-2.8125,61.875],[-2.8125,60.46875]]]},"properties":{"n":87}},{"type":"Feature","geometry":{"type":"Polygon","coordinates":[[[-12.65625,52.03125],[-11.25,52.03125],[-11.25,53.4375],[-12.65625,53.4375],[-12.65625,52.03125]]]},"properties":{"n":85}},{"type":"Feature","geometry":{"type":"Polygon","coordinates":[[[23.90625,70.3125],[25.3125,70.3125],[25.3125,71.71875],[23.90625,71.71875],[23.90625,70.3125]]]},"properties":{"n":83}},{"type":"Feature","geometry":{"type":"Polygon","coordinates":[[[5.625,61.875],[7.03125,61.875],[7.03125,63.28125],[5.625,63.28125],[5.625,61.875]]]},"properties":{"n":77}},{"type":"Feature","geometry":{"type":"Polygon","coordinates":[[[-4.21875,54.84375],[-2.8125,54.84375],[-2.8125,56.25],[-4.21875,56.25],[-4.21875,54.84375]]]},"properties":{"n":76}},{"type":"Feature","geometry":{"type":"Polygon","coordinates":[[[18.28125,68.90625],[19.6875,68.90625],[19.6875,70.3125],[18.28125,70.3125],[18.28125,68.90625]]]},"properties":{"n":74}},{"type":"Feature","geometry":{"type":"Polygon","coordinates":[[[12.65625,66.09375],[14.0625,66.09375],[14.0625,67.5],[12.65625,67.5],[12.65625,66.09375]]]},"properties":{"n":70}},{"type":"Feature","geometry":{"type":"Polygon","coordinates":[[[9.84375,59.0625],[11.25,59.0625],[11.25,60.46875],[9.84375,60.46875],[9.84375,59.0625]]]},"properties":{"n":62}},{"type":"Feature","geometry":{"type":"Polygon","coordinates":[[[29.53125,68.90625],[30.9375,68.90625],[30.9375,70.3125],[29.53125,70.3125],[29.53125,68.90625]]]},"properties":{"n":61}},{"type":"Feature","geometry":{"type":"Polygon","coordinates":[[[11.25,66.09375],[12.65625,66.09375],[12.65625,67.5],[11.25,67.5],[11.25,66.09375]]]},"properties":{"n":61}},{"type":"Feature","geometry":{"type":"Polygon","coordinates":[[[29.53125,70.3125],[30.9375,70.3125],[30.9375,71.71875],[29.53125,71.71875],[29.53125,70.3125]]]},"properties":{"n":60}},{"type":"Feature","geometry":{"type":"Polygon","coordinates":[[[21.09375,70.3125],[22.5,70.3125],[22.5,71.71875],[21.09375,71.71875],[21.09375,70.3125]]]},"properties":{"n":56}},{"type":"Feature","geometry":{"type":"Polygon","coordinates":[[[16.875,68.90625],[18.28125,68.90625],[18.28125,70.3125],[16.875,70.3125],[16.875,68.90625]]]},"properties":{"n":56}},{"type":"Feature","geometry":{"type":"Polygon","coordinates":[[[-67.5,45],[-66.09375,45],[-66.09375,46.40625],[-67.5,46.40625],[-67.5,45]]]},"properties":{"n":52}},{"type":"Feature","geometry":{"type":"Polygon","coordinates":[[[15.46875,56.25],[16.875,56.25],[16.875,57.65625],[15.46875,57.65625],[15.46875,56.25]]]},"properties":{"n":48}},{"type":"Feature","geometry":{"type":"Polygon","coordinates":[[[19.6875,56.25],[21.09375,56.25],[21.09375,57.65625],[19.6875,57.65625],[19.6875,56.25]]]},"properties":{"n":45}},{"type":"Feature","geometry":{"type":"Polygon","coordinates":[[[2.8125,59.0625],[4.21875,59.0625],[4.21875,60.46875],[2.8125,60.46875],[2.8125,59.0625]]]},"properties":{"n":45}},{"type":"Feature","geometry":{"type":"Polygon","coordinates":[[[-8.4375,49.21875],[-7.03125,49.21875],[-7.03125,50.625],[-8.4375,50.625],[-8.4375,49.21875]]]},"properties":{"n":45}},{"type":"Feature","geometry":{"type":"Polygon","coordinates":[[[18.28125,57.65625],[19.6875,57.65625],[19.6875,59.0625],[18.28125,59.0625],[18.28125,57.65625]]]},"properties":{"n":43}},{"type":"Feature","geometry":{"type":"Polygon","coordinates":[[[22.5,70.3125],[23.90625,70.3125],[23.90625,71.71875],[22.5,71.71875],[22.5,70.3125]]]},"properties":{"n":40}},{"type":"Feature","geometry":{"type":"Polygon","coordinates":[[[11.25,64.6875],[12.65625,64.6875],[12.65625,66.09375],[11.25,66.09375],[11.25,64.6875]]]},"properties":{"n":39}},{"type":"Feature","geometry":{"type":"Polygon","coordinates":[[[12.65625,56.25],[14.0625,56.25],[14.0625,57.65625],[12.65625,57.65625],[12.65625,56.25]]]},"properties":{"n":37}},{"type":"Feature","geometry":{"type":"Polygon","coordinates":[[[22.5,68.90625],[23.90625,68.90625],[23.90625,70.3125],[22.5,70.3125],[22.5,68.90625]]]},"properties":{"n":36}},{"type":"Feature","geometry":{"type":"Polygon","coordinates":[[[-67.5,43.59375],[-66.09375,43.59375],[-66.09375,45],[-67.5,45],[-67.5,43.59375]]]},"properties":{"n":36}},{"type":"Feature","geometry":{"type":"Polygon","coordinates":[[[7.03125,57.65625],[8.4375,57.65625],[8.4375,59.0625],[7.03125,59.0625],[7.03125,57.65625]]]},"properties":{"n":35}},{"type":"Feature","geometry":{"type":"Polygon","coordinates":[[[15.46875,68.90625],[16.875,68.90625],[16.875,70.3125],[15.46875,70.3125],[15.46875,68.90625]]]},"properties":{"n":33}},{"type":"Feature","geometry":{"type":"Polygon","coordinates":[[[-2.8125,47.8125],[-1.40625,47.8125],[-1.40625,49.21875],[-2.8125,49.21875],[-2.8125,47.8125]]]},"properties":{"n":33}},{"type":"Feature","geometry":{"type":"Polygon","coordinates":[[[-5.625,56.25],[-4.21875,56.25],[-4.21875,57.65625],[-5.625,57.65625],[-5.625,56.25]]]},"properties":{"n":32}},{"type":"Feature","geometry":{"type":"Polygon","coordinates":[[[21.09375,68.90625],[22.5,68.90625],[22.5,70.3125],[21.09375,70.3125],[21.09375,68.90625]]]},"properties":{"n":31}},{"type":"Feature","geometry":{"type":"Polygon","coordinates":[[[-63.28125,43.59375],[-61.875,43.59375],[-61.875,45],[-63.28125,45],[-63.28125,43.59375]]]},"properties":{"n":30}},{"type":"Feature","geometry":{"type":"Polygon","coordinates":[[[8.4375,63.28125],[9.84375,63.28125],[9.84375,64.6875],[8.4375,64.6875],[8.4375,63.28125]]]},"properties":{"n":28}},{"type":"Feature","geometry":{"type":"Polygon","coordinates":[[[30.9375,68.90625],[32.34375,68.90625],[32.34375,70.3125],[30.9375,70.3125],[30.9375,68.90625]]]},"properties":{"n":27}},{"type":"Feature","geometry":{"type":"Polygon","coordinates":[[[19.6875,68.90625],[21.09375,68.90625],[21.09375,70.3125],[19.6875,70.3125],[19.6875,68.90625]]]},"properties":{"n":27}},{"type":"Feature","geometry":{"type":"Polygon","coordinates":[[[4.21875,59.0625],[5.625,59.0625],[5.625,60.46875],[4.21875,60.46875],[4.21875,59.0625]]]},"properties":{"n":27}},{"type":"Feature","geometry":{"type":"Polygon","coordinates":[[[30.9375,70.3125],[32.34375,70.3125],[32.34375,71.71875],[30.9375,71.71875],[30.9375,70.3125]]]},"properties":{"n":26}},{"type":"Feature","geometry":{"type":"Polygon","coordinates":[[[-2.8125,46.40625],[-1.40625,46.40625],[-1.40625,47.8125],[-2.8125,47.8125],[-2.8125,46.40625]]]},"properties":{"n":26}},{"type":"Feature","geometry":{"type":"Polygon","coordinates":[[[18.28125,70.3125],[19.6875,70.3125],[19.6875,71.71875],[18.28125,71.71875],[18.28125,70.3125]]]},"properties":{"n":24}},{"type":"Feature","geometry":{"type":"Polygon","coordinates":[[[1.40625,60.46875],[2.8125,60.46875],[2.8125,61.875],[1.40625,61.875],[1.40625,60.46875]]]},"properties":{"n":21}},{"type":"Feature","geometry":{"type":"Polygon","coordinates":[[[4.21875,50.625],[5.625,50.625],[5.625,52.03125],[4.21875,52.03125],[4.21875,50.625]]]},"properties":{"n":21}},{"type":"Feature","geometry":{"type":"Polygon","coordinates":[[[26.71875,70.3125],[28.125,70.3125],[28.125,71.71875],[26.71875,71.71875],[26.71875,70.3125]]]},"properties":{"n":20}},{"type":"Feature","geometry":{"type":"Polygon","coordinates":[[[14.0625,68.90625],[15.46875,68.90625],[15.46875,70.3125],[14.0625,70.3125],[14.0625,68.90625]]]},"properties":{"n":20}},{"type":"Feature","geometry":{"type":"Polygon","coordinates":[[[-11.25,49.21875],[-9.84375,49.21875],[-9.84375,50.625],[-11.25,50.625],[-11.25,49.21875]]]},"properties":{"n":20}},{"type":"Feature","geometry":{"type":"Polygon","coordinates":[[[9.84375,63.28125],[11.25,63.28125],[11.25,64.6875],[9.84375,64.6875],[9.84375,63.28125]]]},"properties":{"n":19}},{"type":"Feature","geometry":{"type":"Polygon","coordinates":[[[-11.25,54.84375],[-9.84375,54.84375],[-9.84375,56.25],[-11.25,56.25],[-11.25,54.84375]]]},"properties":{"n":19}},{"type":"Feature","geometry":{"type":"Polygon","coordinates":[[[39.375,68.90625],[40.78125,68.90625],[40.78125,70.3125],[39.375,70.3125],[39.375,68.90625]]]},"properties":{"n":18}},{"type":"Feature","geometry":{"type":"Polygon","coordinates":[[[37.96875,68.90625],[39.375,68.90625],[39.375,70.3125],[37.96875,70.3125],[37.96875,68.90625]]]},"properties":{"n":18}},{"type":"Feature","geometry":{"type":"Polygon","coordinates":[[[35.15625,68.90625],[36.5625,68.90625],[36.5625,70.3125],[35.15625,70.3125],[35.15625,68.90625]]]},"properties":{"n":18}},{"type":"Feature","geometry":{"type":"Polygon","coordinates":[[[40.78125,68.90625],[42.1875,68.90625],[42.1875,70.3125],[40.78125,70.3125],[40.78125,68.90625]]]},"properties":{"n":15}},{"type":"Feature","geometry":{"type":"Polygon","coordinates":[[[-12.65625,53.4375],[-11.25,53.4375],[-11.25,54.84375],[-12.65625,54.84375],[-12.65625,53.4375]]]},"properties":{"n":15}},{"type":"Feature","geometry":{"type":"Polygon","coordinates":[[[32.34375,68.90625],[33.75,68.90625],[33.75,70.3125],[32.34375,70.3125],[32.34375,68.90625]]]},"properties":{"n":14}},{"type":"Feature","geometry":{"type":"Polygon","coordinates":[[[28.125,68.90625],[29.53125,68.90625],[29.53125,70.3125],[28.125,70.3125],[28.125,68.90625]]]},"properties":{"n":14}},{"type":"Feature","geometry":{"type":"Polygon","coordinates":[[[4.21875,61.875],[5.625,61.875],[5.625,63.28125],[4.21875,63.28125],[4.21875,61.875]]]},"properties":{"n":13}},{"type":"Feature","geometry":{"type":"Polygon","coordinates":[[[4.21875,60.46875],[5.625,60.46875],[5.625,61.875],[4.21875,61.875],[4.21875,60.46875]]]},"properties":{"n":13}},{"type":"Feature","geometry":{"type":"Polygon","coordinates":[[[35.15625,70.3125],[36.5625,70.3125],[36.5625,71.71875],[35.15625,71.71875],[35.15625,70.3125]]]},"properties":{"n":12}},{"type":"Feature","geometry":{"type":"Polygon","coordinates":[[[33.75,68.90625],[35.15625,68.90625],[35.15625,70.3125],[33.75,70.3125],[33.75,68.90625]]]},"properties":{"n":11}},{"type":"Feature","geometry":{"type":"Polygon","coordinates":[[[32.34375,70.3125],[33.75,70.3125],[33.75,71.71875],[32.34375,71.71875],[32.34375,70.3125]]]},"properties":{"n":11}},{"type":"Feature","geometry":{"type":"Polygon","coordinates":[[[5.625,57.65625],[7.03125,57.65625],[7.03125,59.0625],[5.625,59.0625],[5.625,57.65625]]]},"properties":{"n":11}},{"type":"Feature","geometry":{"type":"Polygon","coordinates":[[[-11.25,45],[-9.84375,45],[-9.84375,46.40625],[-11.25,46.40625],[-11.25,45]]]},"properties":{"n":11}},{"type":"Feature","geometry":{"type":"Polygon","coordinates":[[[39.375,70.3125],[40.78125,70.3125],[40.78125,71.71875],[39.375,71.71875],[39.375,70.3125]]]},"properties":{"n":10}},{"type":"Feature","geometry":{"type":"Polygon","coordinates":[[[36.5625,68.90625],[37.96875,68.90625],[37.96875,70.3125],[36.5625,70.3125],[36.5625,68.90625]]]},"properties":{"n":10}},{"type":"Feature","geometry":{"type":"Polygon","coordinates":[[[-4.21875,46.40625],[-2.8125,46.40625],[-2.8125,47.8125],[-4.21875,47.8125],[-4.21875,46.40625]]]},"properties":{"n":10}},{"type":"Feature","geometry":{"type":"Polygon","coordinates":[[[43.59375,70.3125],[45,70.3125],[45,71.71875],[43.59375,71.71875],[43.59375,70.3125]]]},"properties":{"n":9}},{"type":"Feature","geometry":{"type":"Polygon","coordinates":[[[9.84375,64.6875],[11.25,64.6875],[11.25,66.09375],[9.84375,66.09375],[9.84375,64.6875]]]},"properties":{"n":9}},{"type":"Feature","geometry":{"type":"Polygon","coordinates":[[[40.78125,70.3125],[42.1875,70.3125],[42.1875,71.71875],[40.78125,71.71875],[40.78125,70.3125]]]},"properties":{"n":8}},{"type":"Feature","geometry":{"type":"Polygon","coordinates":[[[33.75,70.3125],[35.15625,70.3125],[35.15625,71.71875],[33.75,71.71875],[33.75,70.3125]]]},"properties":{"n":8}},{"type":"Feature","geometry":{"type":"Polygon","coordinates":[[[23.90625,68.90625],[25.3125,68.90625],[25.3125,70.3125],[23.90625,70.3125],[23.90625,68.90625]]]},"properties":{"n":8}},{"type":"Feature","geometry":{"type":"Polygon","coordinates":[[[7.03125,63.28125],[8.4375,63.28125],[8.4375,64.6875],[7.03125,64.6875],[7.03125,63.28125]]]},"properties":{"n":8}},{"type":"Feature","geometry":{"type":"Polygon","coordinates":[[[7.03125,61.875],[8.4375,61.875],[8.4375,63.28125],[7.03125,63.28125],[7.03125,61.875]]]},"properties":{"n":8}},{"type":"Feature","geometry":{"type":"Polygon","coordinates":[[[42.1875,70.3125],[43.59375,70.3125],[43.59375,71.71875],[42.1875,71.71875],[42.1875,70.3125]]]},"properties":{"n":7}},{"type":"Feature","geometry":{"type":"Polygon","coordinates":[[[42.1875,68.90625],[43.59375,68.90625],[43.59375,70.3125],[42.1875,70.3125],[42.1875,68.90625]]]},"properties":{"n":7}},{"type":"Feature","geometry":{"type":"Polygon","coordinates":[[[15.46875,67.5],[16.875,67.5],[16.875,68.90625],[15.46875,68.90625],[15.46875,67.5]]]},"properties":{"n":7}},{"type":"Feature","geometry":{"type":"Polygon","coordinates":[[[14.0625,66.09375],[15.46875,66.09375],[15.46875,67.5],[14.0625,67.5],[14.0625,66.09375]]]},"properties":{"n":7}},{"type":"Feature","geometry":{"type":"Polygon","coordinates":[[[-4.21875,56.25],[-2.8125,56.25],[-2.8125,57.65625],[-4.21875,57.65625],[-4.21875,56.25]]]},"properties":{"n":7}},{"type":"Feature","geometry":{"type":"Polygon","coordinates":[[[2.8125,60.46875],[4.21875,60.46875],[4.21875,61.875],[2.8125,61.875],[2.8125,60.46875]]]},"properties":{"n":6}},{"type":"Feature","geometry":{"type":"Polygon","coordinates":[[[-56.25,49.21875],[-54.84375,49.21875],[-54.84375,50.625],[-56.25,50.625],[-56.25,49.21875]]]},"properties":{"n":6}},{"type":"Feature","geometry":{"type":"Polygon","coordinates":[[[45,68.90625],[46.40625,68.90625],[46.40625,70.3125],[45,70.3125],[45,68.90625]]]},"properties":{"n":5}},{"type":"Feature","geometry":{"type":"Polygon","coordinates":[[[19.6875,70.3125],[21.09375,70.3125],[21.09375,71.71875],[19.6875,71.71875],[19.6875,70.3125]]]},"properties":{"n":5}},{"type":"Feature","geometry":{"type":"Polygon","coordinates":[[[16.875,70.3125],[18.28125,70.3125],[18.28125,71.71875],[16.875,71.71875],[16.875,70.3125]]]},"properties":{"n":5}},{"type":"Feature","geometry":{"type":"Polygon","coordinates":[[[5.625,59.0625],[7.03125,59.0625],[7.03125,60.46875],[5.625,60.46875],[5.625,59.0625]]]},"properties":{"n":5}},{"type":"Feature","geometry":{"type":"Polygon","coordinates":[[[45,70.3125],[46.40625,70.3125],[46.40625,71.71875],[45,71.71875],[45,70.3125]]]},"properties":{"n":4}},{"type":"Feature","geometry":{"type":"Polygon","coordinates":[[[43.59375,68.90625],[45,68.90625],[45,70.3125],[43.59375,70.3125],[43.59375,68.90625]]]},"properties":{"n":4}},{"type":"Feature","geometry":{"type":"Polygon","coordinates":[[[18.28125,59.0625],[19.6875,59.0625],[19.6875,60.46875],[18.28125,60.46875],[18.28125,59.0625]]]},"properties":{"n":4}},{"type":"Feature","geometry":{"type":"Polygon","coordinates":[[[2.8125,49.21875],[4.21875,49.21875],[4.21875,50.625],[2.8125,50.625],[2.8125,49.21875]]]},"properties":{"n":4}},{"type":"Feature","geometry":{"type":"Polygon","coordinates":[[[-1.40625,45],[0,45],[0,46.40625],[-1.40625,46.40625],[-1.40625,45]]]},"properties":{"n":4}},{"type":"Feature","geometry":{"type":"Polygon","coordinates":[[[-2.8125,45],[-1.40625,45],[-1.40625,46.40625],[-2.8125,46.40625],[-2.8125,45]]]},"properties":{"n":4}},{"type":"Feature","geometry":{"type":"Polygon","coordinates":[[[-5.625,46.40625],[-4.21875,46.40625],[-4.21875,47.8125],[-5.625,47.8125],[-5.625,46.40625]]]},"properties":{"n":4}},{"type":"Feature","geometry":{"type":"Polygon","coordinates":[[[-11.25,47.8125],[-9.84375,47.8125],[-9.84375,49.21875],[-11.25,49.21875],[-11.25,47.8125]]]},"properties":{"n":4}},{"type":"Feature","geometry":{"type":"Polygon","coordinates":[[[-12.65625,50.625],[-11.25,50.625],[-11.25,52.03125],[-12.65625,52.03125],[-12.65625,50.625]]]},"properties":{"n":4}},{"type":"Feature","geometry":{"type":"Polygon","coordinates":[[[21.09375,57.65625],[22.5,57.65625],[22.5,59.0625],[21.09375,59.0625],[21.09375,57.65625]]]},"properties":{"n":3}},{"type":"Feature","geometry":{"type":"Polygon","coordinates":[[[19.6875,57.65625],[21.09375,57.65625],[21.09375,59.0625],[19.6875,59.0625],[19.6875,57.65625]]]},"properties":{"n":3}},{"type":"Feature","geometry":{"type":"Polygon","coordinates":[[[21.09375,56.25],[22.5,56.25],[22.5,57.65625],[21.09375,57.65625],[21.09375,56.25]]]},"properties":{"n":3}},{"type":"Feature","geometry":{"type":"Polygon","coordinates":[[[5.625,60.46875],[7.03125,60.46875],[7.03125,61.875],[5.625,61.875],[5.625,60.46875]]]},"properties":{"n":3}},{"type":"Feature","geometry":{"type":"Polygon","coordinates":[[[-7.03125,46.40625],[-5.625,46.40625],[-5.625,47.8125],[-7.03125,47.8125],[-7.03125,46.40625]]]},"properties":{"n":3}},{"type":"Feature","geometry":{"type":"Polygon","coordinates":[[[46.40625,71.71875],[47.8125,71.71875],[47.8125,73.125],[46.40625,73.125],[46.40625,71.71875]]]},"properties":{"n":2}},{"type":"Feature","geometry":{"type":"Polygon","coordinates":[[[40.78125,67.5],[42.1875,67.5],[42.1875,68.90625],[40.78125,68.90625],[40.78125,67.5]]]},"properties":{"n":2}},{"type":"Feature","geometry":{"type":"Polygon","coordinates":[[[39.375,67.5],[40.78125,67.5],[40.78125,68.90625],[39.375,68.90625],[39.375,67.5]]]},"properties":{"n":2}},{"type":"Feature","geometry":{"type":"Polygon","coordinates":[[[37.96875,70.3125],[39.375,70.3125],[39.375,71.71875],[37.96875,71.71875],[37.96875,70.3125]]]},"properties":{"n":2}},{"type":"Feature","geometry":{"type":"Polygon","coordinates":[[[36.5625,70.3125],[37.96875,70.3125],[37.96875,71.71875],[36.5625,71.71875],[36.5625,70.3125]]]},"properties":{"n":2}},{"type":"Feature","geometry":{"type":"Polygon","coordinates":[[[37.96875,67.5],[39.375,67.5],[39.375,68.90625],[37.96875,68.90625],[37.96875,67.5]]]},"properties":{"n":2}},{"type":"Feature","geometry":{"type":"Polygon","coordinates":[[[25.3125,68.90625],[26.71875,68.90625],[26.71875,70.3125],[25.3125,70.3125],[25.3125,68.90625]]]},"properties":{"n":2}},{"type":"Feature","geometry":{"type":"Polygon","coordinates":[[[9.84375,67.5],[11.25,67.5],[11.25,68.90625],[9.84375,68.90625],[9.84375,67.5]]]},"properties":{"n":2}},{"type":"Feature","geometry":{"type":"Polygon","coordinates":[[[8.4375,67.5],[9.84375,67.5],[9.84375,68.90625],[8.4375,68.90625],[8.4375,67.5]]]},"properties":{"n":2}},{"type":"Feature","geometry":{"type":"Polygon","coordinates":[[[23.90625,59.0625],[25.3125,59.0625],[25.3125,60.46875],[23.90625,60.46875],[23.90625,59.0625]]]},"properties":{"n":2}},{"type":"Feature","geometry":{"type":"Polygon","coordinates":[[[12.65625,64.6875],[14.0625,64.6875],[14.0625,66.09375],[12.65625,66.09375],[12.65625,64.6875]]]},"properties":{"n":2}},{"type":"Feature","geometry":{"type":"Polygon","coordinates":[[[16.875,57.65625],[18.28125,57.65625],[18.28125,59.0625],[16.875,59.0625],[16.875,57.65625]]]},"properties":{"n":2}},{"type":"Feature","geometry":{"type":"Polygon","coordinates":[[[9.84375,66.09375],[11.25,66.09375],[11.25,67.5],[9.84375,67.5],[9.84375,66.09375]]]},"properties":{"n":2}},{"type":"Feature","geometry":{"type":"Polygon","coordinates":[[[1.40625,61.875],[2.8125,61.875],[2.8125,63.28125],[1.40625,63.28125],[1.40625,61.875]]]},"properties":{"n":2}},{"type":"Feature","geometry":{"type":"Polygon","coordinates":[[[8.4375,59.0625],[9.84375,59.0625],[9.84375,60.46875],[8.4375,60.46875],[8.4375,59.0625]]]},"properties":{"n":2}},{"type":"Feature","geometry":{"type":"Polygon","coordinates":[[[19.6875,53.4375],[21.09375,53.4375],[21.09375,54.84375],[19.6875,54.84375],[19.6875,53.4375]]]},"properties":{"n":2}},{"type":"Feature","geometry":{"type":"Polygon","coordinates":[[[12.65625,45],[14.0625,45],[14.0625,46.40625],[12.65625,46.40625],[12.65625,45]]]},"properties":{"n":2}},{"type":"Feature","geometry":{"type":"Polygon","coordinates":[[[-14.0625,64.6875],[-12.65625,64.6875],[-12.65625,66.09375],[-14.0625,66.09375],[-14.0625,64.6875]]]},"properties":{"n":2}},{"type":"Feature","geometry":{"type":"Polygon","coordinates":[[[-21.09375,61.875],[-19.6875,61.875],[-19.6875,63.28125],[-21.09375,63.28125],[-21.09375,61.875]]]},"properties":{"n":2}},{"type":"Feature","geometry":{"type":"Polygon","coordinates":[[[-8.4375,46.40625],[-7.03125,46.40625],[-7.03125,47.8125],[-8.4375,47.8125],[-8.4375,46.40625]]]},"properties":{"n":2}},{"type":"Feature","geometry":{"type":"Polygon","coordinates":[[[-23.90625,63.28125],[-22.5,63.28125],[-22.5,64.6875],[-23.90625,64.6875],[-23.90625,63.28125]]]},"properties":{"n":2}},{"type":"Feature","geometry":{"type":"Polygon","coordinates":[[[-68.90625,63.28125],[-67.5,63.28125],[-67.5,64.6875],[-68.90625,64.6875],[-68.90625,63.28125]]]},"properties":{"n":2}},{"type":"Feature","geometry":{"type":"Polygon","coordinates":[[[-1.40625,43.59375],[0,43.59375],[0,45],[-1.40625,45],[-1.40625,43.59375]]]},"properties":{"n":2}},{"type":"Feature","geometry":{"type":"Polygon","coordinates":[[[47.8125,71.71875],[49.21875,71.71875],[49.21875,73.125],[47.8125,73.125],[47.8125,71.71875]]]},"properties":{"n":1}},{"type":"Feature","geometry":{"type":"Polygon","coordinates":[[[45,71.71875],[46.40625,71.71875],[46.40625,73.125],[45,73.125],[45,71.71875]]]},"properties":{"n":1}},{"type":"Feature","geometry":{"type":"Polygon","coordinates":[[[32.34375,71.71875],[33.75,71.71875],[33.75,73.125],[32.34375,73.125],[32.34375,71.71875]]]},"properties":{"n":1}},{"type":"Feature","geometry":{"type":"Polygon","coordinates":[[[30.9375,71.71875],[32.34375,71.71875],[32.34375,73.125],[30.9375,73.125],[30.9375,71.71875]]]},"properties":{"n":1}},{"type":"Feature","geometry":{"type":"Polygon","coordinates":[[[12.65625,68.90625],[14.0625,68.90625],[14.0625,70.3125],[12.65625,70.3125],[12.65625,68.90625]]]},"properties":{"n":1}},{"type":"Feature","geometry":{"type":"Polygon","coordinates":[[[32.34375,66.09375],[33.75,66.09375],[33.75,67.5],[32.34375,67.5],[32.34375,66.09375]]]},"properties":{"n":1}},{"type":"Feature","geometry":{"type":"Polygon","coordinates":[[[19.6875,59.0625],[21.09375,59.0625],[21.09375,60.46875],[19.6875,60.46875],[19.6875,59.0625]]]},"properties":{"n":1}},{"type":"Feature","geometry":{"type":"Polygon","coordinates":[[[8.4375,66.09375],[9.84375,66.09375],[9.84375,67.5],[8.4375,67.5],[8.4375,66.09375]]]},"properties":{"n":1}},{"type":"Feature","geometry":{"type":"Polygon","coordinates":[[[5.625,63.28125],[7.03125,63.28125],[7.03125,64.6875],[5.625,64.6875],[5.625,63.28125]]]},"properties":{"n":1}},{"type":"Feature","geometry":{"type":"Polygon","coordinates":[[[73.125,12.65625],[74.53125,12.65625],[74.53125,14.0625],[73.125,14.0625],[73.125,12.65625]]]},"properties":{"n":1}},{"type":"Feature","geometry":{"type":"Polygon","coordinates":[[[74.53125,8.4375],[75.9375,8.4375],[75.9375,9.84375],[74.53125,9.84375],[74.53125,8.4375]]]},"properties":{"n":1}},{"type":"Feature","geometry":{"type":"Polygon","coordinates":[[[8.4375,42.1875],[9.84375,42.1875],[9.84375,43.59375],[8.4375,43.59375],[8.4375,42.1875]]]},"properties":{"n":1}},{"type":"Feature","geometry":{"type":"Polygon","coordinates":[[[-7.03125,61.875],[-5.625,61.875],[-5.625,63.28125],[-7.03125,63.28125],[-7.03125,61.875]]]},"properties":{"n":1}},{"type":"Feature","geometry":{"type":"Polygon","coordinates":[[[-8.4375,59.0625],[-7.03125,59.0625],[-7.03125,60.46875],[-8.4375,60.46875],[-8.4375,59.0625]]]},"properties":{"n":1}},{"type":"Feature","geometry":{"type":"Polygon","coordinates":[[[-18.28125,64.6875],[-16.875,64.6875],[-16.875,66.09375],[-18.28125,66.09375],[-18.28125,64.6875]]]},"properties":{"n":1}},{"type":"Feature","geometry":{"type":"Polygon","coordinates":[[[-2.8125,53.4375],[-1.40625,53.4375],[-1.40625,54.84375],[-2.8125,54.84375],[-2.8125,53.4375]]]},"properties":{"n":1}},{"type":"Feature","geometry":{"type":"Polygon","coordinates":[[[-14.0625,50.625],[-12.65625,50.625],[-12.65625,52.03125],[-14.0625,52.03125],[-14.0625,50.625]]]},"properties":{"n":1}},{"type":"Feature","geometry":{"type":"Polygon","coordinates":[[[-12.65625,49.21875],[-11.25,49.21875],[-11.25,50.625],[-12.65625,50.625],[-12.65625,49.21875]]]},"properties":{"n":1}},{"type":"Feature","geometry":{"type":"Polygon","coordinates":[[[-5.625,43.59375],[-4.21875,43.59375],[-4.21875,45],[-5.625,45],[-5.625,43.59375]]]},"properties":{"n":1}},{"type":"Feature","geometry":{"type":"Polygon","coordinates":[[[-8.4375,43.59375],[-7.03125,43.59375],[-7.03125,45],[-8.4375,45],[-8.4375,43.59375]]]},"properties":{"n":1}}]}