{"type":"FeatureCollection","features":[{"type":"Feature","geometry":{"type":"Polygon","coordinates":[[[-60.46875,45],[-59.0625,45],[-59.0625,46.40625],[-60.46875,46.40625],[-60.46875,45]]]},"properties":{"n":15956}},{"type":"Feature","geometry":{"type":"Polygon","coordinates":[[[-66.09375,42.1875],[-64.6875,42.1875],[-64.6875,43.59375],[-66.09375,43.59375],[-66.09375,42.1875]]]},"properties":{"n":3561}},{"type":"Feature","geometry":{"type":"Polygon","coordinates":[[[-60.46875,43.59375],[-59.0625,43.59375],[-59.0625,45],[-60.46875,45],[-60.46875,43.59375]]]},"properties":{"n":2516}},{"type":"Feature","geometry":{"type":"Polygon","coordinates":[[[-59.0625,43.59375],[-57.65625,43.59375],[-57.65625,45],[-59.0625,45],[-59.0625,43.59375]]]},"properties":{"n":1874}},{"type":"Feature","geometry":{"type":"Polygon","coordinates":[[[-63.28125,42.1875],[-61.875,42.1875],[-61.875,43.59375],[-63.28125,43.59375],[-63.28125,42.1875]]]},"properties":{"n":1331}},{"type":"Feature","geometry":{"type":"Polygon","coordinates":[[[-67.5,43.59375],[-66.09375,43.59375],[-66.09375,45],[-67.5,45],[-67.5,43.59375]]]},"properties":{"n":1153}},{"type":"Feature","geometry":{"type":"Polygon","coordinates":[[[-61.875,43.59375],[-60.46875,43.59375],[-60.46875,45],[-61.875,45],[-61.875,43.59375]]]},"properties":{"n":1100}},{"type":"Feature","geometry":{"type":"Polygon","coordinates":[[[-64.6875,42.1875],[-63.28125,42.1875],[-63.28125,43.59375],[-64.6875,43.59375],[-64.6875,42.1875]]]},"properties":{"n":1002}},{"type":"Feature","geometry":{"type":"Polygon","coordinates":[[[-67.5,42.1875],[-66.09375,42.1875],[-66.09375,43.59375],[-67.5,43.59375],[-67.5,42.1875]]]},"properties":{"n":947}},{"type":"Feature","geometry":{"type":"Polygon","coordinates":[[[-59.0625,45],[-57.65625,45],[-57.65625,46.40625],[-59.0625,46.40625],[-59.0625,45]]]},"properties":{"n":925}},{"type":"Feature","geometry":{"type":"Polygon","coordinates":[[[-61.875,42.1875],[-60.46875,42.1875],[-60.46875,43.59375],[-61.875,43.59375],[-61.875,42.1875]]]},"properties":{"n":849}},{"type":"Feature","geometry":{"type":"Polygon","coordinates":[[[-68.90625,43.59375],[-67.5,43.59375],[-67.5,45],[-68.90625,45],[-68.90625,43.59375]]]},"properties":{"n":840}},{"type":"Feature","geometry":{"type":"Polygon","coordinates":[[[-60.46875,46.40625],[-59.0625,46.40625],[-59.0625,47.8125],[-60.46875,47.8125],[-60.46875,46.40625]]]},"properties":{"n":574}},{"type":"Feature","geometry":{"type":"Polygon","coordinates":[[[-63.28125,43.59375],[-61.875,43.59375],[-61.875,45],[-63.28125,45],[-63.28125,43.59375]]]},"properties":{"n":554}},{"type":"Feature","geometry":{"type":"Polygon","coordinates":[[[-53.4375,43.59375],[-52.03125,43.59375],[-52.03125,45],[-53.4375,45],[-53.4375,43.59375]]]},"properties":{"n":443}},{"type":"Feature","geometry":{"type":"Polygon","coordinates":[[[-57.65625,43.59375],[-56.25,43.59375],[-56.25,45],[-57.65625,45],[-57.65625,43.59375]]]},"properties":{"n":347}},{"type":"Feature","geometry":{"type":"Polygon","coordinates":[[[-67.5,40.78125],[-66.09375,40.78125],[-66.09375,42.1875],[-67.5,42.1875],[-67.5,40.78125]]]},"properties":{"n":288}},{"type":"Feature","geometry":{"type":"Polygon","coordinates":[[[-54.84375,43.59375],[-53.4375,43.59375],[-53.4375,45],[-54.84375,45],[-54.84375,43.59375]]]},"properties":{"n":269}},{"type":"Feature","geometry":{"type":"Polygon","coordinates":[[[-60.46875,42.1875],[-59.0625,42.1875],[-59.0625,43.59375],[-60.46875,43.59375],[-60.46875,42.1875]]]},"properties":{"n":265}},{"type":"Feature","geometry":{"type":"Polygon","coordinates":[[[-57.65625,45],[-56.25,45],[-56.25,46.40625],[-57.65625,46.40625],[-57.65625,45]]]},"properties":{"n":231}},{"type":"Feature","geometry":{"type":"Polygon","coordinates":[[[-61.875,46.40625],[-60.46875,46.40625],[-60.46875,47.8125],[-61.875,47.8125],[-61.875,46.40625]]]},"properties":{"n":226}},{"type":"Feature","geometry":{"type":"Polygon","coordinates":[[[-52.03125,42.1875],[-50.625,42.1875],[-50.625,43.59375],[-52.03125,43.59375],[-52.03125,42.1875]]]},"properties":{"n":217}},{"type":"Feature","geometry":{"type":"Polygon","coordinates":[[[-64.6875,47.8125],[-63.28125,47.8125],[-63.28125,49.21875],[-64.6875,49.21875],[-64.6875,47.8125]]]},"properties":{"n":202}},{"type":"Feature","geometry":{"type":"Polygon","coordinates":[[[-59.0625,49.21875],[-57.65625,49.21875],[-57.65625,50.625],[-59.0625,50.625],[-59.0625,49.21875]]]},"properties":{"n":192}},{"type":"Feature","geometry":{"type":"Polygon","coordinates":[[[-66.09375,43.59375],[-64.6875,43.59375],[-64.6875,45],[-66.09375,45],[-66.09375,43.59375]]]},"properties":{"n":176}},{"type":"Feature","geometry":{"type":"Polygon","coordinates":[[[-64.6875,43.59375],[-63.28125,43.59375],[-63.28125,45],[-64.6875,45],[-64.6875,43.59375]]]},"properties":{"n":160}},{"type":"Feature","geometry":{"type":"Polygon","coordinates":[[[-63.28125,47.8125],[-61.875,47.8125],[-61.875,49.21875],[-63.28125,49.21875],[-63.28125,47.8125]]]},"properties":{"n":157}},{"type":"Feature","geometry":{"type":"Polygon","coordinates":[[[-56.25,45],[-54.84375,45],[-54.84375,46.40625],[-56.25,46.40625],[-56.25,45]]]},"properties":{"n":154}},{"type":"Feature","geometry":{"type":"Polygon","coordinates":[[[-60.46875,47.8125],[-59.0625,47.8125],[-59.0625,49.21875],[-60.46875,49.21875],[-60.46875,47.8125]]]},"properties":{"n":143}},{"type":"Feature","geometry":{"type":"Polygon","coordinates":[[[-61.875,47.8125],[-60.46875,47.8125],[-60.46875,49.21875],[-61.875,49.21875],[-61.875,47.8125]]]},"properties":{"n":141}},{"type":"Feature","geometry":{"type":"Polygon","coordinates":[[[-66.09375,45],[-64.6875,45],[-64.6875,46.40625],[-66.09375,46.40625],[-66.09375,45]]]},"properties":{"n":141}},{"type":"Feature","geometry":{"type":"Polygon","coordinates":[[[-59.0625,46.40625],[-57.65625,46.40625],[-57.65625,47.8125],[-59.0625,47.8125],[-59.0625,46.40625]]]},"properties":{"n":140}},{"type":"Feature","geometry":{"type":"Polygon","coordinates":[[[-49.21875,45],[-47.8125,45],[-47.8125,46.40625],[-49.21875,46.40625],[-49.21875,45]]]},"properties":{"n":137}},{"type":"Feature","geometry":{"type":"Polygon","coordinates":[[[-54.84375,45],[-53.4375,45],[-53.4375,46.40625],[-54.84375,46.40625],[-54.84375,45]]]},"properties":{"n":133}},{"type":"Feature","geometry":{"type":"Polygon","coordinates":[[[-60.46875,49.21875],[-59.0625,49.21875],[-59.0625,50.625],[-60.46875,50.625],[-60.46875,49.21875]]]},"properties":{"n":129}},{"type":"Feature","geometry":{"type":"Polygon","coordinates":[[[-68.90625,40.78125],[-67.5,40.78125],[-67.5,42.1875],[-68.90625,42.1875],[-68.90625,40.78125]]]},"properties":{"n":122}},{"type":"Feature","geometry":{"type":"Polygon","coordinates":[[[-66.09375,49.21875],[-64.6875,49.21875],[-64.6875,50.625],[-66.09375,50.625],[-66.09375,49.21875]]]},"properties":{"n":121}},{"type":"Feature","geometry":{"type":"Polygon","coordinates":[[[-70.3125,43.59375],[-68.90625,43.59375],[-68.90625,45],[-70.3125,45],[-70.3125,43.59375]]]},"properties":{"n":113}},{"type":"Feature","geometry":{"type":"Polygon","coordinates":[[[-57.65625,46.40625],[-56.25,46.40625],[-56.25,47.8125],[-57.65625,47.8125],[-57.65625,46.40625]]]},"properties":{"n":107}},{"type":"Feature","geometry":{"type":"Polygon","coordinates":[[[-50.625,42.1875],[-49.21875,42.1875],[-49.21875,43.59375],[-50.625,43.59375],[-50.625,42.1875]]]},"properties":{"n":102}},{"type":"Feature","geometry":{"type":"Polygon","coordinates":[[[-61.875,49.21875],[-60.46875,49.21875],[-60.46875,50.625],[-61.875,50.625],[-61.875,49.21875]]]},"properties":{"n":100}},{"type":"Feature","geometry":{"type":"Polygon","coordinates":[[[-52.03125,43.59375],[-50.625,43.59375],[-50.625,45],[-52.03125,45],[-52.03125,43.59375]]]},"properties":{"n":98}},{"type":"Feature","geometry":{"type":"Polygon","coordinates":[[[-70.3125,42.1875],[-68.90625,42.1875],[-68.90625,43.59375],[-70.3125,43.59375],[-70.3125,42.1875]]]},"properties":{"n":98}},{"type":"Feature","geometry":{"type":"Polygon","coordinates":[[[4.21875,57.65625],[5.625,57.65625],[5.625,59.0625],[4.21875,59.0625],[4.21875,57.65625]]]},"properties":{"n":97}},{"type":"Feature","geometry":{"type":"Polygon","coordinates":[[[-64.6875,46.40625],[-63.28125,46.40625],[-63.28125,47.8125],[-64.6875,47.8125],[-64.6875,46.40625]]]},"properties":{"n":91}},{"type":"Feature","geometry":{"type":"Polygon","coordinates":[[[-67.5,49.21875],[-66.09375,49.21875],[-66.09375,50.625],[-67.5,50.625],[-67.5,49.21875]]]},"properties":{"n":90}},{"type":"Feature","geometry":{"type":"Polygon","coordinates":[[[-68.90625,47.8125],[-67.5,47.8125],[-67.5,49.21875],[-68.90625,49.21875],[-68.90625,47.8125]]]},"properties":{"n":88}},{"type":"Feature","geometry":{"type":"Polygon","coordinates":[[[-49.21875,43.59375],[-47.8125,43.59375],[-47.8125,45],[-49.21875,45],[-49.21875,43.59375]]]},"properties":{"n":85}},{"type":"Feature","geometry":{"type":"Polygon","coordinates":[[[-56.25,43.59375],[-54.84375,43.59375],[-54.84375,45],[-56.25,45],[-56.25,43.59375]]]},"properties":{"n":83}},{"type":"Feature","geometry":{"type":"Polygon","coordinates":[[[2.8125,57.65625],[4.21875,57.65625],[4.21875,59.0625],[2.8125,59.0625],[2.8125,57.65625]]]},"properties":{"n":82}},{"type":"Feature","geometry":{"type":"Polygon","coordinates":[[[-70.3125,40.78125],[-68.90625,40.78125],[-68.90625,42.1875],[-70.3125,42.1875],[-70.3125,40.78125]]]},"properties":{"n":79}},{"type":"Feature","geometry":{"type":"Polygon","coordinates":[[[21.09375,70.3125],[22.5,70.3125],[22.5,71.71875],[21.09375,71.71875],[21.09375,70.3125]]]},"properties":{"n":77}},{"type":"Feature","geometry":{"type":"Polygon","coordinates":[[[-50.625,43.59375],[-49.21875,43.59375],[-49.21875,45],[-50.625,45],[-50.625,43.59375]]]},"properties":{"n":77}},{"type":"Feature","geometry":{"type":"Polygon","coordinates":[[[16.875,68.90625],[18.28125,68.90625],[18.28125,70.3125],[16.875,70.3125],[16.875,68.90625]]]},"properties":{"n":76}},{"type":"Feature","geometry":{"type":"Polygon","coordinates":[[[-64.6875,49.21875],[-63.28125,49.21875],[-63.28125,50.625],[-64.6875,50.625],[-64.6875,49.21875]]]},"properties":{"n":76}},{"type":"Feature","geometry":{"type":"Polygon","coordinates":[[[-66.09375,40.78125],[-64.6875,40.78125],[-64.6875,42.1875],[-66.09375,42.1875],[-66.09375,40.78125]]]},"properties":{"n":75}},{"type":"Feature","geometry":{"type":"Polygon","coordinates":[[[-53.4375,63.28125],[-52.03125,63.28125],[-52.03125,64.6875],[-53.4375,64.6875],[-53.4375,63.28125]]]},"properties":{"n":67}},{"type":"Feature","geometry":{"type":"Polygon","coordinates":[[[25.3125,70.3125],[26.71875,70.3125],[26.71875,71.71875],[25.3125,71.71875],[25.3125,70.3125]]]},"properties":{"n":63}},{"type":"Feature","geometry":{"type":"Polygon","coordinates":[[[22.5,70.3125],[23.90625,70.3125],[23.90625,71.71875],[22.5,71.71875],[22.5,70.3125]]]},"properties":{"n":63}},{"type":"Feature","geometry":{"type":"Polygon","coordinates":[[[-63.28125,49.21875],[-61.875,49.21875],[-61.875,50.625],[-63.28125,50.625],[-63.28125,49.21875]]]},"properties":{"n":60}},{"type":"Feature","geometry":{"type":"Polygon","coordinates":[[[15.46875,68.90625],[16.875,68.90625],[16.875,70.3125],[15.46875,70.3125],[15.46875,68.90625]]]},"properties":{"n":59}},{"type":"Feature","geometry":{"type":"Polygon","coordinates":[[[23.90625,70.3125],[25.3125,70.3125],[25.3125,71.71875],[23.90625,71.71875],[23.90625,70.3125]]]},"properties":{"n":57}},{"type":"Feature","geometry":{"type":"Polygon","coordinates":[[[-52.03125,49.21875],[-50.625,49.21875],[-50.625,50.625],[-52.03125,50.625],[-52.03125,49.21875]]]},"properties":{"n":56}},{"type":"Feature","geometry":{"type":"Polygon","coordinates":[[[9.84375,57.65625],[11.25,57.65625],[11.25,59.0625],[9.84375,59.0625],[9.84375,57.65625]]]},"properties":{"n":52}},{"type":"Feature","geometry":{"type":"Polygon","coordinates":[[[1.40625,59.0625],[2.8125,59.0625],[2.8125,60.46875],[1.40625,60.46875],[1.40625,59.0625]]]},"properties":{"n":50}},{"type":"Feature","geometry":{"type":"Polygon","coordinates":[[[-47.8125,46.40625],[-46.40625,46.40625],[-46.40625,47.8125],[-47.8125,47.8125],[-47.8125,46.40625]]]},"properties":{"n":50}},{"type":"Feature","geometry":{"type":"Polygon","coordinates":[[[-53.4375,53.4375],[-52.03125,53.4375],[-52.03125,54.84375],[-53.4375,54.84375],[-53.4375,53.4375]]]},"properties":{"n":49}},{"type":"Feature","geometry":{"type":"Polygon","coordinates":[[[-71.71875,42.1875],[-70.3125,42.1875],[-70.3125,43.59375],[-71.71875,43.59375],[-71.71875,42.1875]]]},"properties":{"n":49}},{"type":"Feature","geometry":{"type":"Polygon","coordinates":[[[28.125,70.3125],[29.53125,70.3125],[29.53125,71.71875],[28.125,71.71875],[28.125,70.3125]]]},"properties":{"n":48}},{"type":"Feature","geometry":{"type":"Polygon","coordinates":[[[11.25,64.6875],[12.65625,64.6875],[12.65625,66.09375],[11.25,66.09375],[11.25,64.6875]]]},"properties":{"n":47}},{"type":"Feature","geometry":{"type":"Polygon","coordinates":[[[19.6875,68.90625],[21.09375,68.90625],[21.09375,70.3125],[19.6875,70.3125],[19.6875,68.90625]]]},"properties":{"n":45}},{"type":"Feature","geometry":{"type":"Polygon","coordinates":[[[12.65625,67.5],[14.0625,67.5],[14.0625,68.90625],[12.65625,68.90625],[12.65625,67.5]]]},"properties":{"n":45}},{"type":"Feature","geometry":{"type":"Polygon","coordinates":[[[14.0625,67.5],[15.46875,67.5],[15.46875,68.90625],[14.0625,68.90625],[14.0625,67.5]]]},"properties":{"n":43}},{"type":"Feature","geometry":{"type":"Polygon","coordinates":[[[-67.5,45],[-66.09375,45],[-66.09375,46.40625],[-67.5,46.40625],[-67.5,45]]]},"properties":{"n":43}},{"type":"Feature","geometry":{"type":"Polygon","coordinates":[[[12.65625,66.09375],[14.0625,66.09375],[14.0625,67.5],[12.65625,67.5],[12.65625,66.09375]]]},"properties":{"n":41}},{"type":"Feature","geometry":{"type":"Polygon","coordinates":[[[5.625,56.25],[7.03125,56.25],[7.03125,57.65625],[5.625,57.65625],[5.625,56.25]]]},"properties":{"n":40}},{"type":"Feature","geometry":{"type":"Polygon","coordinates":[[[-54.84375,53.4375],[-53.4375,53.4375],[-53.4375,54.84375],[-54.84375,54.84375],[-54.84375,53.4375]]]},"properties":{"n":39}},{"type":"Feature","geometry":{"type":"Polygon","coordinates":[[[-50.625,47.8125],[-49.21875,47.8125],[-49.21875,49.21875],[-50.625,49.21875],[-50.625,47.8125]]]},"properties":{"n":39}},{"type":"Feature","geometry":{"type":"Polygon","coordinates":[[[5.625,61.875],[7.03125,61.875],[7.03125,63.28125],[5.625,63.28125],[5.625,61.875]]]},"properties":{"n":38}},{"type":"Feature","geometry":{"type":"Polygon","coordinates":[[[11.25,67.5],[12.65625,67.5],[12.65625,68.90625],[11.25,68.90625],[11.25,67.5]]]},"properties":{"n":37}},{"type":"Feature","geometry":{"type":"Polygon","coordinates":[[[1.40625,60.46875],[2.8125,60.46875],[2.8125,61.875],[1.40625,61.875],[1.40625,60.46875]]]},"properties":{"n":37}},{"type":"Feature","geometry":{"type":"Polygon","coordinates":[[[4.21875,56.25],[5.625,56.25],[5.625,57.65625],[4.21875,57.65625],[4.21875,56.25]]]},"properties":{"n":36}},{"type":"Feature","geometry":{"type":"Polygon","coordinates":[[[-63.28125,45],[-61.875,45],[-61.875,46.40625],[-63.28125,46.40625],[-63.28125,45]]]},"properties":{"n":36}},{"type":"Feature","geometry":{"type":"Polygon","coordinates":[[[19.6875,70.3125],[21.09375,70.3125],[21.09375,71.71875],[19.6875,71.71875],[19.6875,70.3125]]]},"properties":{"n":35}},{"type":"Feature","geometry":{"type":"Polygon","coordinates":[[[-52.03125,50.625],[-50.625,50.625],[-50.625,52.03125],[-52.03125,52.03125],[-52.03125,50.625]]]},"properties":{"n":35}},{"type":"Feature","geometry":{"type":"Polygon","coordinates":[[[-50.625,49.21875],[-49.21875,49.21875],[-49.21875,50.625],[-50.625,50.625],[-50.625,49.21875]]]},"properties":{"n":34}},{"type":"Feature","geometry":{"type":"Polygon","coordinates":[[[-57.65625,50.625],[-56.25,50.625],[-56.25,52.03125],[-57.65625,52.03125],[-57.65625,50.625]]]},"properties":{"n":34}},{"type":"Feature","geometry":{"type":"Polygon","coordinates":[[[1.40625,56.25],[2.8125,56.25],[2.8125,57.65625],[1.40625,57.65625],[1.40625,56.25]]]},"properties":{"n":33}},{"type":"Feature","geometry":{"type":"Polygon","coordinates":[[[0,57.65625],[1.40625,57.65625],[1.40625,59.0625],[0,59.0625],[0,57.65625]]]},"properties":{"n":32}},{"type":"Feature","geometry":{"type":"Polygon","coordinates":[[[11.25,66.09375],[12.65625,66.09375],[12.65625,67.5],[11.25,67.5],[11.25,66.09375]]]},"properties":{"n":31}},{"type":"Feature","geometry":{"type":"Polygon","coordinates":[[[1.40625,57.65625],[2.8125,57.65625],[2.8125,59.0625],[1.40625,59.0625],[1.40625,57.65625]]]},"properties":{"n":31}},{"type":"Feature","geometry":{"type":"Polygon","coordinates":[[[-57.65625,54.84375],[-56.25,54.84375],[-56.25,56.25],[-57.65625,56.25],[-57.65625,54.84375]]]},"properties":{"n":31}},{"type":"Feature","geometry":{"type":"Polygon","coordinates":[[[-53.4375,52.03125],[-52.03125,52.03125],[-52.03125,53.4375],[-53.4375,53.4375],[-53.4375,52.03125]]]},"properties":{"n":30}},{"type":"Feature","geometry":{"type":"Polygon","coordinates":[[[21.09375,68.90625],[22.5,68.90625],[22.5,70.3125],[21.09375,70.3125],[21.09375,68.90625]]]},"properties":{"n":29}},{"type":"Feature","geometry":{"type":"Polygon","coordinates":[[[-54.84375,54.84375],[-53.4375,54.84375],[-53.4375,56.25],[-54.84375,56.25],[-54.84375,54.84375]]]},"properties":{"n":28}},{"type":"Feature","geometry":{"type":"Polygon","coordinates":[[[-57.65625,49.21875],[-56.25,49.21875],[-56.25,50.625],[-57.65625,50.625],[-57.65625,49.21875]]]},"properties":{"n":28}},{"type":"Feature","geometry":{"type":"Polygon","coordinates":[[[14.0625,68.90625],[15.46875,68.90625],[15.46875,70.3125],[14.0625,70.3125],[14.0625,68.90625]]]},"properties":{"n":27}},{"type":"Feature","geometry":{"type":"Polygon","coordinates":[[[22.5,68.90625],[23.90625,68.90625],[23.90625,70.3125],[22.5,70.3125],[22.5,68.90625]]]},"properties":{"n":26}},{"type":"Feature","geometry":{"type":"Polygon","coordinates":[[[-50.625,50.625],[-49.21875,50.625],[-49.21875,52.03125],[-50.625,52.03125],[-50.625,50.625]]]},"properties":{"n":26}},{"type":"Feature","geometry":{"type":"Polygon","coordinates":[[[18.28125,68.90625],[19.6875,68.90625],[19.6875,70.3125],[18.28125,70.3125],[18.28125,68.90625]]]},"properties":{"n":25}},{"type":"Feature","geometry":{"type":"Polygon","coordinates":[[[-47.8125,45],[-46.40625,45],[-46.40625,46.40625],[-47.8125,46.40625],[-47.8125,45]]]},"properties":{"n":25}},{"type":"Feature","geometry":{"type":"Polygon","coordinates":[[[0,59.0625],[1.40625,59.0625],[1.40625,60.46875],[0,60.46875],[0,59.0625]]]},"properties":{"n":24}},{"type":"Feature","geometry":{"type":"Polygon","coordinates":[[[-46.40625,46.40625],[-45,46.40625],[-45,47.8125],[-46.40625,47.8125],[-46.40625,46.40625]]]},"properties":{"n":24}},{"type":"Feature","geometry":{"type":"Polygon","coordinates":[[[2.8125,59.0625],[4.21875,59.0625],[4.21875,60.46875],[2.8125,60.46875],[2.8125,59.0625]]]},"properties":{"n":23}},{"type":"Feature","geometry":{"type":"Polygon","coordinates":[[[-52.03125,52.03125],[-50.625,52.03125],[-50.625,53.4375],[-52.03125,53.4375],[-52.03125,52.03125]]]},"properties":{"n":23}},{"type":"Feature","geometry":{"type":"Polygon","coordinates":[[[-61.875,45],[-60.46875,45],[-60.46875,46.40625],[-61.875,46.40625],[-61.875,45]]]},"properties":{"n":23}},{"type":"Feature","geometry":{"type":"Polygon","coordinates":[[[26.71875,70.3125],[28.125,70.3125],[28.125,71.71875],[26.71875,71.71875],[26.71875,70.3125]]]},"properties":{"n":22}},{"type":"Feature","geometry":{"type":"Polygon","coordinates":[[[12.65625,64.6875],[14.0625,64.6875],[14.0625,66.09375],[12.65625,66.09375],[12.65625,64.6875]]]},"properties":{"n":21}},{"type":"Feature","geometry":{"type":"Polygon","coordinates":[[[11.25,56.25],[12.65625,56.25],[12.65625,57.65625],[11.25,57.65625],[11.25,56.25]]]},"properties":{"n":21}},{"type":"Feature","geometry":{"type":"Polygon","coordinates":[[[-63.28125,46.40625],[-61.875,46.40625],[-61.875,47.8125],[-63.28125,47.8125],[-63.28125,46.40625]]]},"properties":{"n":21}},{"type":"Feature","geometry":{"type":"Polygon","coordinates":[[[-70.3125,47.8125],[-68.90625,47.8125],[-68.90625,49.21875],[-70.3125,49.21875],[-70.3125,47.8125]]]},"properties":{"n":21}},{"type":"Feature","geometry":{"type":"Polygon","coordinates":[[[-68.90625,42.1875],[-67.5,42.1875],[-67.5,43.59375],[-68.90625,43.59375],[-68.90625,42.1875]]]},"properties":{"n":21}},{"type":"Feature","geometry":{"type":"Polygon","coordinates":[[[18.28125,70.3125],[19.6875,70.3125],[19.6875,71.71875],[18.28125,71.71875],[18.28125,70.3125]]]},"properties":{"n":19}},{"type":"Feature","geometry":{"type":"Polygon","coordinates":[[[8.4375,63.28125],[9.84375,63.28125],[9.84375,64.6875],[8.4375,64.6875],[8.4375,63.28125]]]},"properties":{"n":19}},{"type":"Feature","geometry":{"type":"Polygon","coordinates":[[[-56.25,54.84375],[-54.84375,54.84375],[-54.84375,56.25],[-56.25,56.25],[-56.25,54.84375]]]},"properties":{"n":19}},{"type":"Feature","geometry":{"type":"Polygon","coordinates":[[[-54.84375,52.03125],[-53.4375,52.03125],[-53.4375,53.4375],[-54.84375,53.4375],[-54.84375,52.03125]]]},"properties":{"n":19}},{"type":"Feature","geometry":{"type":"Polygon","coordinates":[[[9.84375,67.5],[11.25,67.5],[11.25,68.90625],[9.84375,68.90625],[9.84375,67.5]]]},"properties":{"n":18}},{"type":"Feature","geometry":{"type":"Polygon","coordinates":[[[2.8125,56.25],[4.21875,56.25],[4.21875,57.65625],[2.8125,57.65625],[2.8125,56.25]]]},"properties":{"n":18}},{"type":"Feature","geometry":{"type":"Polygon","coordinates":[[[12.65625,54.84375],[14.0625,54.84375],[14.0625,56.25],[12.65625,56.25],[12.65625,54.84375]]]},"properties":{"n":17}},{"type":"Feature","geometry":{"type":"Polygon","coordinates":[[[-53.4375,50.625],[-52.03125,50.625],[-52.03125,52.03125],[-53.4375,52.03125],[-53.4375,50.625]]]},"properties":{"n":17}},{"type":"Feature","geometry":{"type":"Polygon","coordinates":[[[29.53125,68.90625],[30.9375,68.90625],[30.9375,70.3125],[29.53125,70.3125],[29.53125,68.90625]]]},"properties":{"n":16}},{"type":"Feature","geometry":{"type":"Polygon","coordinates":[[[-47.8125,47.8125],[-46.40625,47.8125],[-46.40625,49.21875],[-47.8125,49.21875],[-47.8125,47.8125]]]},"properties":{"n":16}},{"type":"Feature","geometry":{"type":"Polygon","coordinates":[[[-49.21875,47.8125],[-47.8125,47.8125],[-47.8125,49.21875],[-49.21875,49.21875],[-49.21875,47.8125]]]},"properties":{"n":16}},{"type":"Feature","geometry":{"type":"Polygon","coordinates":[[[29.53125,70.3125],[30.9375,70.3125],[30.9375,71.71875],[29.53125,71.71875],[29.53125,70.3125]]]},"properties":{"n":15}},{"type":"Feature","geometry":{"type":"Polygon","coordinates":[[[15.46875,67.5],[16.875,67.5],[16.875,68.90625],[15.46875,68.90625],[15.46875,67.5]]]},"properties":{"n":15}},{"type":"Feature","geometry":{"type":"Polygon","coordinates":[[[7.03125,56.25],[8.4375,56.25],[8.4375,57.65625],[7.03125,57.65625],[7.03125,56.25]]]},"properties":{"n":15}},{"type":"Feature","geometry":{"type":"Polygon","coordinates":[[[0,54.84375],[1.40625,54.84375],[1.40625,56.25],[0,56.25],[0,54.84375]]]},"properties":{"n":15}},{"type":"Feature","geometry":{"type":"Polygon","coordinates":[[[-2.8125,56.25],[-1.40625,56.25],[-1.40625,57.65625],[-2.8125,57.65625],[-2.8125,56.25]]]},"properties":{"n":15}},{"type":"Feature","geometry":{"type":"Polygon","coordinates":[[[-67.5,47.8125],[-66.09375,47.8125],[-66.09375,49.21875],[-67.5,49.21875],[-67.5,47.8125]]]},"properties":{"n":15}},{"type":"Feature","geometry":{"type":"Polygon","coordinates":[[[-70.3125,39.375],[-68.90625,39.375],[-68.90625,40.78125],[-70.3125,40.78125],[-70.3125,39.375]]]},"properties":{"n":15}},{"type":"Feature","geometry":{"type":"Polygon","coordinates":[[[8.4375,57.65625],[9.84375,57.65625],[9.84375,59.0625],[8.4375,59.0625],[8.4375,57.65625]]]},"properties":{"n":14}},{"type":"Feature","geometry":{"type":"Polygon","coordinates":[[[-61.875,59.0625],[-60.46875,59.0625],[-60.46875,60.46875],[-61.875,60.46875],[-61.875,59.0625]]]},"properties":{"n":14}},{"type":"Feature","geometry":{"type":"Polygon","coordinates":[[[-56.25,53.4375],[-54.84375,53.4375],[-54.84375,54.84375],[-56.25,54.84375],[-56.25,53.4375]]]},"properties":{"n":14}},{"type":"Feature","geometry":{"type":"Polygon","coordinates":[[[4.21875,61.875],[5.625,61.875],[5.625,63.28125],[4.21875,63.28125],[4.21875,61.875]]]},"properties":{"n":13}},{"type":"Feature","geometry":{"type":"Polygon","coordinates":[[[-60.46875,57.65625],[-59.0625,57.65625],[-59.0625,59.0625],[-60.46875,59.0625],[-60.46875,57.65625]]]},"properties":{"n":13}},{"type":"Feature","geometry":{"type":"Polygon","coordinates":[[[16.875,70.3125],[18.28125,70.3125],[18.28125,71.71875],[16.875,71.71875],[16.875,70.3125]]]},"properties":{"n":12}},{"type":"Feature","geometry":{"type":"Polygon","coordinates":[[[14.0625,66.09375],[15.46875,66.09375],[15.46875,67.5],[14.0625,67.5],[14.0625,66.09375]]]},"properties":{"n":12}},{"type":"Feature","geometry":{"type":"Polygon","coordinates":[[[2.8125,60.46875],[4.21875,60.46875],[4.21875,61.875],[2.8125,61.875],[2.8125,60.46875]]]},"properties":{"n":11}},{"type":"Feature","geometry":{"type":"Polygon","coordinates":[[[0,60.46875],[1.40625,60.46875],[1.40625,61.875],[0,61.875],[0,60.46875]]]},"properties":{"n":11}},{"type":"Feature","geometry":{"type":"Polygon","coordinates":[[[0,56.25],[1.40625,56.25],[1.40625,57.65625],[0,57.65625],[0,56.25]]]},"properties":{"n":11}},{"type":"Feature","geometry":{"type":"Polygon","coordinates":[[[-1.40625,59.0625],[0,59.0625],[0,60.46875],[-1.40625,60.46875],[-1.40625,59.0625]]]},"properties":{"n":11}},{"type":"Feature","geometry":{"type":"Polygon","coordinates":[[[-1.40625,57.65625],[0,57.65625],[0,59.0625],[-1.40625,59.0625],[-1.40625,57.65625]]]},"properties":{"n":11}},{"type":"Feature","geometry":{"type":"Polygon","coordinates":[[[-49.21875,46.40625],[-47.8125,46.40625],[-47.8125,47.8125],[-49.21875,47.8125],[-49.21875,46.40625]]]},"properties":{"n":11}},{"type":"Feature","geometry":{"type":"Polygon","coordinates":[[[12.65625,68.90625],[14.0625,68.90625],[14.0625,70.3125],[12.65625,70.3125],[12.65625,68.90625]]]},"properties":{"n":10}},{"type":"Feature","geometry":{"type":"Polygon","coordinates":[[[8.4375,56.25],[9.84375,56.25],[9.84375,57.65625],[8.4375,57.65625],[8.4375,56.25]]]},"properties":{"n":10}},{"type":"Feature","geometry":{"type":"Polygon","coordinates":[[[-59.0625,56.25],[-57.65625,56.25],[-57.65625,57.65625],[-59.0625,57.65625],[-59.0625,56.25]]]},"properties":{"n":10}},{"type":"Feature","geometry":{"type":"Polygon","coordinates":[[[-60.46875,56.25],[-59.0625,56.25],[-59.0625,57.65625],[-60.46875,57.65625],[-60.46875,56.25]]]},"properties":{"n":10}},{"type":"Feature","geometry":{"type":"Polygon","coordinates":[[[-52.03125,47.8125],[-50.625,47.8125],[-50.625,49.21875],[-52.03125,49.21875],[-52.03125,47.8125]]]},"properties":{"n":10}},{"type":"Feature","geometry":{"type":"Polygon","coordinates":[[[-59.0625,47.8125],[-57.65625,47.8125],[-57.65625,49.21875],[-59.0625,49.21875],[-59.0625,47.8125]]]},"properties":{"n":10}},{"type":"Feature","geometry":{"type":"Polygon","coordinates":[[[30.9375,70.3125],[32.34375,70.3125],[32.34375,71.71875],[30.9375,71.71875],[30.9375,70.3125]]]},"properties":{"n":9}},{"type":"Feature","geometry":{"type":"Polygon","coordinates":[[[4.21875,54.84375],[5.625,54.84375],[5.625,56.25],[4.21875,56.25],[4.21875,54.84375]]]},"properties":{"n":9}},{"type":"Feature","geometry":{"type":"Polygon","coordinates":[[[-63.28125,60.46875],[-61.875,60.46875],[-61.875,61.875],[-63.28125,61.875],[-63.28125,60.46875]]]},"properties":{"n":9}},{"type":"Feature","geometry":{"type":"Polygon","coordinates":[[[-53.4375,49.21875],[-52.03125,49.21875],[-52.03125,50.625],[-53.4375,50.625],[-53.4375,49.21875]]]},"properties":{"n":9}},{"type":"Feature","geometry":{"type":"Polygon","coordinates":[[[8.4375,64.6875],[9.84375,64.6875],[9.84375,66.09375],[8.4375,66.09375],[8.4375,64.6875]]]},"properties":{"n":8}},{"type":"Feature","geometry":{"type":"Polygon","coordinates":[[[1.40625,54.84375],[2.8125,54.84375],[2.8125,56.25],[1.40625,56.25],[1.40625,54.84375]]]},"properties":{"n":8}},{"type":"Feature","geometry":{"type":"Polygon","coordinates":[[[-45,46.40625],[-43.59375,46.40625],[-43.59375,47.8125],[-45,47.8125],[-45,46.40625]]]},"properties":{"n":8}},{"type":"Feature","geometry":{"type":"Polygon","coordinates":[[[-64.6875,60.46875],[-63.28125,60.46875],[-63.28125,61.875],[-64.6875,61.875],[-64.6875,60.46875]]]},"properties":{"n":8}},{"type":"Feature","geometry":{"type":"Polygon","coordinates":[[[-52.03125,45],[-50.625,45],[-50.625,46.40625],[-52.03125,46.40625],[-52.03125,45]]]},"properties":{"n":8}},{"type":"Feature","geometry":{"type":"Polygon","coordinates":[[[-59.0625,54.84375],[-57.65625,54.84375],[-57.65625,56.25],[-59.0625,56.25],[-59.0625,54.84375]]]},"properties":{"n":8}},{"type":"Feature","geometry":{"type":"Polygon","coordinates":[[[-68.90625,49.21875],[-67.5,49.21875],[-67.5,50.625],[-68.90625,50.625],[-68.90625,49.21875]]]},"properties":{"n":8}},{"type":"Feature","geometry":{"type":"Polygon","coordinates":[[[30.9375,68.90625],[32.34375,68.90625],[32.34375,70.3125],[30.9375,70.3125],[30.9375,68.90625]]]},"properties":{"n":7}},{"type":"Feature","geometry":{"type":"Polygon","coordinates":[[[9.84375,63.28125],[11.25,63.28125],[11.25,64.6875],[9.84375,64.6875],[9.84375,63.28125]]]},"properties":{"n":7}},{"type":"Feature","geometry":{"type":"Polygon","coordinates":[[[0,53.4375],[1.40625,53.4375],[1.40625,54.84375],[0,54.84375],[0,53.4375]]]},"properties":{"n":7}},{"type":"Feature","geometry":{"type":"Polygon","coordinates":[[[-1.40625,60.46875],[0,60.46875],[0,61.875],[-1.40625,61.875],[-1.40625,60.46875]]]},"properties":{"n":7}},{"type":"Feature","geometry":{"type":"Polygon","coordinates":[[[-57.65625,66.09375],[-56.25,66.09375],[-56.25,67.5],[-57.65625,67.5],[-57.65625,66.09375]]]},"properties":{"n":7}},{"type":"Feature","geometry":{"type":"Polygon","coordinates":[[[-53.4375,45],[-52.03125,45],[-52.03125,46.40625],[-53.4375,46.40625],[-53.4375,45]]]},"properties":{"n":7}},{"type":"Feature","geometry":{"type":"Polygon","coordinates":[[[-56.25,46.40625],[-54.84375,46.40625],[-54.84375,47.8125],[-56.25,47.8125],[-56.25,46.40625]]]},"properties":{"n":7}},{"type":"Feature","geometry":{"type":"Polygon","coordinates":[[[-53.4375,42.1875],[-52.03125,42.1875],[-52.03125,43.59375],[-53.4375,43.59375],[-53.4375,42.1875]]]},"properties":{"n":7}},{"type":"Feature","geometry":{"type":"Polygon","coordinates":[[[15.46875,71.71875],[16.875,71.71875],[16.875,73.125],[15.46875,73.125],[15.46875,71.71875]]]},"properties":{"n":6}},{"type":"Feature","geometry":{"type":"Polygon","coordinates":[[[2.8125,54.84375],[4.21875,54.84375],[4.21875,56.25],[2.8125,56.25],[2.8125,54.84375]]]},"properties":{"n":6}},{"type":"Feature","geometry":{"type":"Polygon","coordinates":[[[-60.46875,54.84375],[-59.0625,54.84375],[-59.0625,56.25],[-60.46875,56.25],[-60.46875,54.84375]]]},"properties":{"n":6}},{"type":"Feature","geometry":{"type":"Polygon","coordinates":[[[-59.0625,50.625],[-57.65625,50.625],[-57.65625,52.03125],[-59.0625,52.03125],[-59.0625,50.625]]]},"properties":{"n":6}},{"type":"Feature","geometry":{"type":"Polygon","coordinates":[[[-1.40625,54.84375],[0,54.84375],[0,56.25],[-1.40625,56.25],[-1.40625,54.84375]]]},"properties":{"n":5}},{"type":"Feature","geometry":{"type":"Polygon","coordinates":[[[-61.875,60.46875],[-60.46875,60.46875],[-60.46875,61.875],[-61.875,61.875],[-61.875,60.46875]]]},"properties":{"n":5}},{"type":"Feature","geometry":{"type":"Polygon","coordinates":[[[-53.4375,47.8125],[-52.03125,47.8125],[-52.03125,49.21875],[-53.4375,49.21875],[-53.4375,47.8125]]]},"properties":{"n":5}},{"type":"Feature","geometry":{"type":"Polygon","coordinates":[[[-52.03125,46.40625],[-50.625,46.40625],[-50.625,47.8125],[-52.03125,47.8125],[-52.03125,46.40625]]]},"properties":{"n":5}},{"type":"Feature","geometry":{"type":"Polygon","coordinates":[[[-66.09375,46.40625],[-64.6875,46.40625],[-64.6875,47.8125],[-66.09375,47.8125],[-66.09375,46.40625]]]},"properties":{"n":5}},{"type":"Feature","geometry":{"type":"Polygon","coordinates":[[[-61.875,40.78125],[-60.46875,40.78125],[-60.46875,42.1875],[-61.875,42.1875],[-61.875,40.78125]]]},"properties":{"n":5}},{"type":"Feature","geometry":{"type":"Polygon","coordinates":[[[28.125,68.90625],[29.53125,68.90625],[29.53125,70.3125],[28.125,70.3125],[28.125,68.90625]]]},"properties":{"n":4}},{"type":"Feature","geometry":{"type":"Polygon","coordinates":[[[15.46875,73.125],[16.875,73.125],[16.875,74.53125],[15.46875,74.53125],[15.46875,73.125]]]},"properties":{"n":4}},{"type":"Feature","geometry":{"type":"Polygon","coordinates":[[[9.84375,64.6875],[11.25,64.6875],[11.25,66.09375],[9.84375,66.09375],[9.84375,64.6875]]]},"properties":{"n":4}},{"type":"Feature","geometry":{"type":"Polygon","coordinates":[[[9.84375,56.25],[11.25,56.25],[11.25,57.65625],[9.84375,57.65625],[9.84375,56.25]]]},"properties":{"n":4}},{"type":"Feature","geometry":{"type":"Polygon","coordinates":[[[5.625,57.65625],[7.03125,57.65625],[7.03125,59.0625],[5.625,59.0625],[5.625,57.65625]]]},"properties":{"n":4}},{"type":"Feature","geometry":{"type":"Polygon","coordinates":[[[9.84375,54.84375],[11.25,54.84375],[11.25,56.25],[9.84375,56.25],[9.84375,54.84375]]]},"properties":{"n":4}},{"type":"Feature","geometry":{"type":"Polygon","coordinates":[[[-2.8125,57.65625],[-1.40625,57.65625],[-1.40625,59.0625],[-2.8125,59.0625],[-2.8125,57.65625]]]},"properties":{"n":4}},{"type":"Feature","geometry":{"type":"Polygon","coordinates":[[[-5.625,57.65625],[-4.21875,57.65625],[-4.21875,59.0625],[-5.625,59.0625],[-5.625,57.65625]]]},"properties":{"n":4}},{"type":"Feature","geometry":{"type":"Polygon","coordinates":[[[-56.25,64.6875],[-54.84375,64.6875],[-54.84375,66.09375],[-56.25,66.09375],[-56.25,64.6875]]]},"properties":{"n":4}},{"type":"Feature","geometry":{"type":"Polygon","coordinates":[[[-50.625,46.40625],[-49.21875,46.40625],[-49.21875,47.8125],[-50.625,47.8125],[-50.625,46.40625]]]},"properties":{"n":4}},{"type":"Feature","geometry":{"type":"Polygon","coordinates":[[[-50.625,45],[-49.21875,45],[-49.21875,46.40625],[-50.625,46.40625],[-50.625,45]]]},"properties":{"n":4}},{"type":"Feature","geometry":{"type":"Polygon","coordinates":[[[-67.5,39.375],[-66.09375,39.375],[-66.09375,40.78125],[-67.5,40.78125],[-67.5,39.375]]]},"properties":{"n":4}},{"type":"Feature","geometry":{"type":"Polygon","coordinates":[[[-68.90625,39.375],[-67.5,39.375],[-67.5,40.78125],[-68.90625,40.78125],[-68.90625,39.375]]]},"properties":{"n":4}},{"type":"Feature","geometry":{"type":"Polygon","coordinates":[[[-71.71875,40.78125],[-70.3125,40.78125],[-70.3125,42.1875],[-71.71875,42.1875],[-71.71875,40.78125]]]},"properties":{"n":4}},{"type":"Feature","geometry":{"type":"Polygon","coordinates":[[[-167.34375,53.4375],[-165.9375,53.4375],[-165.9375,54.84375],[-167.34375,54.84375],[-167.34375,53.4375]]]},"properties":{"n":4}},{"type":"Feature","geometry":{"type":"Polygon","coordinates":[[[16.875,73.125],[18.28125,73.125],[18.28125,74.53125],[16.875,74.53125],[16.875,73.125]]]},"properties":{"n":3}},{"type":"Feature","geometry":{"type":"Polygon","coordinates":[[[15.46875,70.3125],[16.875,70.3125],[16.875,71.71875],[15.46875,71.71875],[15.46875,70.3125]]]},"properties":{"n":3}},{"type":"Feature","geometry":{"type":"Polygon","coordinates":[[[7.03125,66.09375],[8.4375,66.09375],[8.4375,67.5],[7.03125,67.5],[7.03125,66.09375]]]},"properties":{"n":3}},{"type":"Feature","geometry":{"type":"Polygon","coordinates":[[[7.03125,63.28125],[8.4375,63.28125],[8.4375,64.6875],[7.03125,64.6875],[7.03125,63.28125]]]},"properties":{"n":3}},{"type":"Feature","geometry":{"type":"Polygon","coordinates":[[[4.21875,60.46875],[5.625,60.46875],[5.625,61.875],[4.21875,61.875],[4.21875,60.46875]]]},"properties":{"n":3}},{"type":"Feature","geometry":{"type":"Polygon","coordinates":[[[4.21875,59.0625],[5.625,59.0625],[5.625,60.46875],[4.21875,60.46875],[4.21875,59.0625]]]},"properties":{"n":3}},{"type":"Feature","geometry":{"type":"Polygon","coordinates":[[[-4.21875,59.0625],[-2.8125,59.0625],[-2.8125,60.46875],[-4.21875,60.46875],[-4.21875,59.0625]]]},"properties":{"n":3}},{"type":"Feature","geometry":{"type":"Polygon","coordinates":[[[-5.625,59.0625],[-4.21875,59.0625],[-4.21875,60.46875],[-5.625,60.46875],[-5.625,59.0625]]]},"properties":{"n":3}},{"type":"Feature","geometry":{"type":"Polygon","coordinates":[[[-9.84375,56.25],[-8.4375,56.25],[-8.4375,57.65625],[-9.84375,57.65625],[-9.84375,56.25]]]},"properties":{"n":3}},{"type":"Feature","geometry":{"type":"Polygon","coordinates":[[[-54.84375,63.28125],[-53.4375,63.28125],[-53.4375,64.6875],[-54.84375,64.6875],[-54.84375,63.28125]]]},"properties":{"n":3}},{"type":"Feature","geometry":{"type":"Polygon","coordinates":[[[-63.28125,61.875],[-61.875,61.875],[-61.875,63.28125],[-63.28125,63.28125],[-63.28125,61.875]]]},"properties":{"n":3}},{"type":"Feature","geometry":{"type":"Polygon","coordinates":[[[-54.84375,50.625],[-53.4375,50.625],[-53.4375,52.03125],[-54.84375,52.03125],[-54.84375,50.625]]]},"properties":{"n":3}},{"type":"Feature","geometry":{"type":"Polygon","coordinates":[[[-49.21875,42.1875],[-47.8125,42.1875],[-47.8125,43.59375],[-49.21875,43.59375],[-49.21875,42.1875]]]},"properties":{"n":3}},{"type":"Feature","geometry":{"type":"Polygon","coordinates":[[[33.75,70.3125],[35.15625,70.3125],[35.15625,71.71875],[33.75,71.71875],[33.75,70.3125]]]},"properties":{"n":2}},{"type":"Feature","geometry":{"type":"Polygon","coordinates":[[[30.9375,71.71875],[32.34375,71.71875],[32.34375,73.125],[30.9375,73.125],[30.9375,71.71875]]]},"properties":{"n":2}},{"type":"Feature","geometry":{"type":"Polygon","coordinates":[[[28.125,71.71875],[29.53125,71.71875],[29.53125,73.125],[28.125,73.125],[28.125,71.71875]]]},"properties":{"n":2}},{"type":"Feature","geometry":{"type":"Polygon","coordinates":[[[26.71875,71.71875],[28.125,71.71875],[28.125,73.125],[26.71875,73.125],[26.71875,71.71875]]]},"properties":{"n":2}},{"type":"Feature","geometry":{"type":"Polygon","coordinates":[[[25.3125,71.71875],[26.71875,71.71875],[26.71875,73.125],[25.3125,73.125],[25.3125,71.71875]]]},"properties":{"n":2}},{"type":"Feature","geometry":{"type":"Polygon","coordinates":[[[23.90625,71.71875],[25.3125,71.71875],[25.3125,73.125],[23.90625,73.125],[23.90625,71.71875]]]},"properties":{"n":2}},{"type":"Feature","geometry":{"type":"Polygon","coordinates":[[[22.5,71.71875],[23.90625,71.71875],[23.90625,73.125],[22.5,73.125],[22.5,71.71875]]]},"properties":{"n":2}},{"type":"Feature","geometry":{"type":"Polygon","coordinates":[[[19.6875,73.125],[21.09375,73.125],[21.09375,74.53125],[19.6875,74.53125],[19.6875,73.125]]]},"properties":{"n":2}},{"type":"Feature","geometry":{"type":"Polygon","coordinates":[[[18.28125,73.125],[19.6875,73.125],[19.6875,74.53125],[18.28125,74.53125],[18.28125,73.125]]]},"properties":{"n":2}},{"type":"Feature","geometry":{"type":"Polygon","coordinates":[[[16.875,71.71875],[18.28125,71.71875],[18.28125,73.125],[16.875,73.125],[16.875,71.71875]]]},"properties":{"n":2}},{"type":"Feature","geometry":{"type":"Polygon","coordinates":[[[16.875,67.5],[18.28125,67.5],[18.28125,68.90625],[16.875,68.90625],[16.875,67.5]]]},"properties":{"n":2}},{"type":"Feature","geometry":{"type":"Polygon","coordinates":[[[8.4375,67.5],[9.84375,67.5],[9.84375,68.90625],[8.4375,68.90625],[8.4375,67.5]]]},"properties":{"n":2}},{"type":"Feature","geometry":{"type":"Polygon","coordinates":[[[9.84375,66.09375],[11.25,66.09375],[11.25,67.5],[9.84375,67.5],[9.84375,66.09375]]]},"properties":{"n":2}},{"type":"Feature","geometry":{"type":"Polygon","coordinates":[[[8.4375,66.09375],[9.84375,66.09375],[9.84375,67.5],[8.4375,67.5],[8.4375,66.09375]]]},"properties":{"n":2}},{"type":"Feature","geometry":{"type":"Polygon","coordinates":[[[7.03125,57.65625],[8.4375,57.65625],[8.4375,59.0625],[7.03125,59.0625],[7.03125,57.65625]]]},"properties":{"n":2}},{"type":"Feature","geometry":{"type":"Polygon","coordinates":[[[1.40625,53.4375],[2.8125,53.4375],[2.8125,54.84375],[1.40625,54.84375],[1.40625,53.4375]]]},"properties":{"n":2}},{"type":"Feature","geometry":{"type":"Polygon","coordinates":[[[1.40625,50.625],[2.8125,50.625],[2.8125,52.03125],[1.40625,52.03125],[1.40625,50.625]]]},"properties":{"n":2}},{"type":"Feature","geometry":{"type":"Polygon","coordinates":[[[-4.21875,57.65625],[-2.8125,57.65625],[-2.8125,59.0625],[-4.21875,59.0625],[-4.21875,57.65625]]]},"properties":{"n":2}},{"type":"Feature","geometry":{"type":"Polygon","coordinates":[[[-8.4375,56.25],[-7.03125,56.25],[-7.03125,57.65625],[-8.4375,57.65625],[-8.4375,56.25]]]},"properties":{"n":2}},{"type":"Feature","geometry":{"type":"Polygon","coordinates":[[[-4.21875,49.21875],[-2.8125,49.21875],[-2.8125,50.625],[-4.21875,50.625],[-4.21875,49.21875]]]},"properties":{"n":2}},{"type":"Feature","geometry":{"type":"Polygon","coordinates":[[[-5.625,49.21875],[-4.21875,49.21875],[-4.21875,50.625],[-5.625,50.625],[-5.625,49.21875]]]},"properties":{"n":2}},{"type":"Feature","geometry":{"type":"Polygon","coordinates":[[[-4.21875,47.8125],[-2.8125,47.8125],[-2.8125,49.21875],[-4.21875,49.21875],[-4.21875,47.8125]]]},"properties":{"n":2}},{"type":"Feature","geometry":{"type":"Polygon","coordinates":[[[-57.65625,67.5],[-56.25,67.5],[-56.25,68.90625],[-57.65625,68.90625],[-57.65625,67.5]]]},"properties":{"n":2}},{"type":"Feature","geometry":{"type":"Polygon","coordinates":[[[-59.0625,67.5],[-57.65625,67.5],[-57.65625,68.90625],[-59.0625,68.90625],[-59.0625,67.5]]]},"properties":{"n":2}},{"type":"Feature","geometry":{"type":"Polygon","coordinates":[[[-52.03125,63.28125],[-50.625,63.28125],[-50.625,64.6875],[-52.03125,64.6875],[-52.03125,63.28125]]]},"properties":{"n":2}},{"type":"Feature","geometry":{"type":"Polygon","coordinates":[[[-59.0625,63.28125],[-57.65625,63.28125],[-57.65625,64.6875],[-59.0625,64.6875],[-59.0625,63.28125]]]},"properties":{"n":2}},{"type":"Feature","geometry":{"type":"Polygon","coordinates":[[[-60.46875,61.875],[-59.0625,61.875],[-59.0625,63.28125],[-60.46875,63.28125],[-60.46875,61.875]]]},"properties":{"n":2}},{"type":"Feature","geometry":{"type":"Polygon","coordinates":[[[-60.46875,59.0625],[-59.0625,59.0625],[-59.0625,60.46875],[-60.46875,60.46875],[-60.46875,59.0625]]]},"properties":{"n":2}},{"type":"Feature","geometry":{"type":"Polygon","coordinates":[[[-57.65625,56.25],[-56.25,56.25],[-56.25,57.65625],[-57.65625,57.65625],[-57.65625,56.25]]]},"properties":{"n":2}},{"type":"Feature","geometry":{"type":"Polygon","coordinates":[[[-56.25,50.625],[-54.84375,50.625],[-54.84375,52.03125],[-56.25,52.03125],[-56.25,50.625]]]},"properties":{"n":2}},{"type":"Feature","geometry":{"type":"Polygon","coordinates":[[[-66.09375,47.8125],[-64.6875,47.8125],[-64.6875,49.21875],[-66.09375,49.21875],[-66.09375,47.8125]]]},"properties":{"n":2}},{"type":"Feature","geometry":{"type":"Polygon","coordinates":[[[-71.71875,46.40625],[-70.3125,46.40625],[-70.3125,47.8125],[-71.71875,47.8125],[-71.71875,46.40625]]]},"properties":{"n":2}},{"type":"Feature","geometry":{"type":"Polygon","coordinates":[[[-63.28125,40.78125],[-61.875,40.78125],[-61.875,42.1875],[-63.28125,42.1875],[-63.28125,40.78125]]]},"properties":{"n":2}},{"type":"Feature","geometry":{"type":"Polygon","coordinates":[[[-158.90625,57.65625],[-157.5,57.65625],[-157.5,59.0625],[-158.90625,59.0625],[-158.90625,57.65625]]]},"properties":{"n":2}},{"type":"Feature","geometry":{"type":"Polygon","coordinates":[[[-165.9375,54.84375],[-164.53125,54.84375],[-164.53125,56.25],[-165.9375,56.25],[-165.9375,54.84375]]]},"properties":{"n":2}},{"type":"Feature","geometry":{"type":"Polygon","coordinates":[[[-164.53125,53.4375],[-163.125,53.4375],[-163.125,54.84375],[-164.53125,54.84375],[-164.53125,53.4375]]]},"properties":{"n":2}},{"type":"Feature","geometry":{"type":"Polygon","coordinates":[[[35.15625,73.125],[36.5625,73.125],[36.5625,74.53125],[35.15625,74.53125],[35.15625,73.125]]]},"properties":{"n":1}},{"type":"Feature","geometry":{"type":"Polygon","coordinates":[[[28.125,73.125],[29.53125,73.125],[29.53125,74.53125],[28.125,74.53125],[28.125,73.125]]]},"properties":{"n":1}},{"type":"Feature","geometry":{"type":"Polygon","coordinates":[[[22.5,75.9375],[23.90625,75.9375],[23.90625,77.34375],[22.5,77.34375],[22.5,75.9375]]]},"properties":{"n":1}},{"type":"Feature","geometry":{"type":"Polygon","coordinates":[[[22.5,73.125],[23.90625,73.125],[23.90625,74.53125],[22.5,74.53125],[22.5,73.125]]]},"properties":{"n":1}},{"type":"Feature","geometry":{"type":"Polygon","coordinates":[[[32.34375,71.71875],[33.75,71.71875],[33.75,73.125],[32.34375,73.125],[32.34375,71.71875]]]},"properties":{"n":1}},{"type":"Feature","geometry":{"type":"Polygon","coordinates":[[[32.34375,70.3125],[33.75,70.3125],[33.75,71.71875],[32.34375,71.71875],[32.34375,70.3125]]]},"properties":{"n":1}},{"type":"Feature","geometry":{"type":"Polygon","coordinates":[[[32.34375,68.90625],[33.75,68.90625],[33.75,70.3125],[32.34375,70.3125],[32.34375,68.90625]]]},"properties":{"n":1}},{"type":"Feature","geometry":{"type":"Polygon","coordinates":[[[8.4375,80.15625],[9.84375,80.15625],[9.84375,81.5625],[8.4375,81.5625],[8.4375,80.15625]]]},"properties":{"n":1}},{"type":"Feature","geometry":{"type":"Polygon","coordinates":[[[8.4375,78.75],[9.84375,78.75],[9.84375,80.15625],[8.4375,80.15625],[8.4375,78.75]]]},"properties":{"n":1}},{"type":"Feature","geometry":{"type":"Polygon","coordinates":[[[16.875,74.53125],[18.28125,74.53125],[18.28125,75.9375],[16.875,75.9375],[16.875,74.53125]]]},"properties":{"n":1}},{"type":"Feature","geometry":{"type":"Polygon","coordinates":[[[15.46875,75.9375],[16.875,75.9375],[16.875,77.34375],[15.46875,77.34375],[15.46875,75.9375]]]},"properties":{"n":1}},{"type":"Feature","geometry":{"type":"Polygon","coordinates":[[[11.25,77.34375],[12.65625,77.34375],[12.65625,78.75],[11.25,78.75],[11.25,77.34375]]]},"properties":{"n":1}},{"type":"Feature","geometry":{"type":"Polygon","coordinates":[[[14.0625,73.125],[15.46875,73.125],[15.46875,74.53125],[14.0625,74.53125],[14.0625,73.125]]]},"properties":{"n":1}},{"type":"Feature","geometry":{"type":"Polygon","coordinates":[[[18.28125,71.71875],[19.6875,71.71875],[19.6875,73.125],[18.28125,73.125],[18.28125,71.71875]]]},"properties":{"n":1}},{"type":"Feature","geometry":{"type":"Polygon","coordinates":[[[11.25,63.28125],[12.65625,63.28125],[12.65625,64.6875],[11.25,64.6875],[11.25,63.28125]]]},"properties":{"n":1}},{"type":"Feature","geometry":{"type":"Polygon","coordinates":[[[5.625,64.6875],[7.03125,64.6875],[7.03125,66.09375],[5.625,66.09375],[5.625,64.6875]]]},"properties":{"n":1}},{"type":"Feature","geometry":{"type":"Polygon","coordinates":[[[0,61.875],[1.40625,61.875],[1.40625,63.28125],[0,63.28125],[0,61.875]]]},"properties":{"n":1}},{"type":"Feature","geometry":{"type":"Polygon","coordinates":[[[7.03125,60.46875],[8.4375,60.46875],[8.4375,61.875],[7.03125,61.875],[7.03125,60.46875]]]},"properties":{"n":1}},{"type":"Feature","geometry":{"type":"Polygon","coordinates":[[[5.625,54.84375],[7.03125,54.84375],[7.03125,56.25],[5.625,56.25],[5.625,54.84375]]]},"properties":{"n":1}},{"type":"Feature","geometry":{"type":"Polygon","coordinates":[[[7.03125,53.4375],[8.4375,53.4375],[8.4375,54.84375],[7.03125,54.84375],[7.03125,53.4375]]]},"properties":{"n":1}},{"type":"Feature","geometry":{"type":"Polygon","coordinates":[[[5.625,53.4375],[7.03125,53.4375],[7.03125,54.84375],[5.625,54.84375],[5.625,53.4375]]]},"properties":{"n":1}},{"type":"Feature","geometry":{"type":"Polygon","coordinates":[[[2.8125,52.03125],[4.21875,52.03125],[4.21875,53.4375],[2.8125,53.4375],[2.8125,52.03125]]]},"properties":{"n":1}},{"type":"Feature","geometry":{"type":"Polygon","coordinates":[[[73.125,12.65625],[74.53125,12.65625],[74.53125,14.0625],[73.125,14.0625],[73.125,12.65625]]]},"properties":{"n":1}},{"type":"Feature","geometry":{"type":"Polygon","coordinates":[[[74.53125,8.4375],[75.9375,8.4375],[75.9375,9.84375],[74.53125,9.84375],[74.53125,8.4375]]]},"properties":{"n":1}},{"type":"Feature","geometry":{"type":"Polygon","coordinates":[[[-9.84375,70.3125],[-8.4375,70.3125],[-8.4375,71.71875],[-9.84375,71.71875],[-9.84375,70.3125]]]},"properties":{"n":1}},{"type":"Feature","geometry":{"type":"Polygon","coordinates":[[[-2.8125,60.46875],[-1.40625,60.46875],[-1.40625,61.875],[-2.8125,61.875],[-2.8125,60.46875]]]},"properties":{"n":1}},{"type":"Feature","geometry":{"type":"Polygon","coordinates":[[[-2.8125,59.0625],[-1.40625,59.0625],[-1.40625,60.46875],[-2.8125,60.46875],[-2.8125,59.0625]]]},"properties":{"n":1}},{"type":"Feature","geometry":{"type":"Polygon","coordinates":[[[-1.40625,56.25],[0,56.25],[0,57.65625],[-1.40625,57.65625],[-1.40625,56.25]]]},"properties":{"n":1}},{"type":"Feature","geometry":{"type":"Polygon","coordinates":[[[-8.4375,60.46875],[-7.03125,60.46875],[-7.03125,61.875],[-8.4375,61.875],[-8.4375,60.46875]]]},"properties":{"n":1}},{"type":"Feature","geometry":{"type":"Polygon","coordinates":[[[-7.03125,57.65625],[-5.625,57.65625],[-5.625,59.0625],[-7.03125,59.0625],[-7.03125,57.65625]]]},"properties":{"n":1}},{"type":"Feature","geometry":{"type":"Polygon","coordinates":[[[-9.84375,57.65625],[-8.4375,57.65625],[-8.4375,59.0625],[-9.84375,59.0625],[-9.84375,57.65625]]]},"properties":{"n":1}},{"type":"Feature","geometry":{"type":"Polygon","coordinates":[[[-14.0625,57.65625],[-12.65625,57.65625],[-12.65625,59.0625],[-14.0625,59.0625],[-14.0625,57.65625]]]},"properties":{"n":1}},{"type":"Feature","geometry":{"type":"Polygon","coordinates":[[[-14.0625,56.25],[-12.65625,56.25],[-12.65625,57.65625],[-14.0625,57.65625],[-14.0625,56.25]]]},"properties":{"n":1}},{"type":"Feature","geometry":{"type":"Polygon","coordinates":[[[-15.46875,56.25],[-14.0625,56.25],[-14.0625,57.65625],[-15.46875,57.65625],[-15.46875,56.25]]]},"properties":{"n":1}},{"type":"Feature","geometry":{"type":"Polygon","coordinates":[[[-5.625,54.84375],[-4.21875,54.84375],[-4.21875,56.25],[-5.625,56.25],[-5.625,54.84375]]]},"properties":{"n":1}},{"type":"Feature","geometry":{"type":"Polygon","coordinates":[[[-1.40625,50.625],[0,50.625],[0,52.03125],[-1.40625,52.03125],[-1.40625,50.625]]]},"properties":{"n":1}},{"type":"Feature","geometry":{"type":"Polygon","coordinates":[[[-5.625,50.625],[-4.21875,50.625],[-4.21875,52.03125],[-5.625,52.03125],[-5.625,50.625]]]},"properties":{"n":1}},{"type":"Feature","geometry":{"type":"Polygon","coordinates":[[[-2.8125,49.21875],[-1.40625,49.21875],[-1.40625,50.625],[-2.8125,50.625],[-2.8125,49.21875]]]},"properties":{"n":1}},{"type":"Feature","geometry":{"type":"Polygon","coordinates":[[[-7.03125,49.21875],[-5.625,49.21875],[-5.625,50.625],[-7.03125,50.625],[-7.03125,49.21875]]]},"properties":{"n":1}},{"type":"Feature","geometry":{"type":"Polygon","coordinates":[[[-37.96875,63.28125],[-36.5625,63.28125],[-36.5625,64.6875],[-37.96875,64.6875],[-37.96875,63.28125]]]},"properties":{"n":1}},{"type":"Feature","geometry":{"type":"Polygon","coordinates":[[[-56.25,67.5],[-54.84375,67.5],[-54.84375,68.90625],[-56.25,68.90625],[-56.25,67.5]]]},"properties":{"n":1}},{"type":"Feature","geometry":{"type":"Polygon","coordinates":[[[-59.0625,68.90625],[-57.65625,68.90625],[-57.65625,70.3125],[-59.0625,70.3125],[-59.0625,68.90625]]]},"properties":{"n":1}},{"type":"Feature","geometry":{"type":"Polygon","coordinates":[[[-60.46875,67.5],[-59.0625,67.5],[-59.0625,68.90625],[-60.46875,68.90625],[-60.46875,67.5]]]},"properties":{"n":1}},{"type":"Feature","geometry":{"type":"Polygon","coordinates":[[[-70.3125,70.3125],[-68.90625,70.3125],[-68.90625,71.71875],[-70.3125,71.71875],[-70.3125,70.3125]]]},"properties":{"n":1}},{"type":"Feature","geometry":{"type":"Polygon","coordinates":[[[-54.84375,64.6875],[-53.4375,64.6875],[-53.4375,66.09375],[-54.84375,66.09375],[-54.84375,64.6875]]]},"properties":{"n":1}},{"type":"Feature","geometry":{"type":"Polygon","coordinates":[[[-52.03125,61.875],[-50.625,61.875],[-50.625,63.28125],[-52.03125,63.28125],[-52.03125,61.875]]]},"properties":{"n":1}},{"type":"Feature","geometry":{"type":"Polygon","coordinates":[[[-50.625,60.46875],[-49.21875,60.46875],[-49.21875,61.875],[-50.625,61.875],[-50.625,60.46875]]]},"properties":{"n":1}},{"type":"Feature","geometry":{"type":"Polygon","coordinates":[[[-59.0625,66.09375],[-57.65625,66.09375],[-57.65625,67.5],[-59.0625,67.5],[-59.0625,66.09375]]]},"properties":{"n":1}},{"type":"Feature","geometry":{"type":"Polygon","coordinates":[[[-61.875,64.6875],[-60.46875,64.6875],[-60.46875,66.09375],[-61.875,66.09375],[-61.875,64.6875]]]},"properties":{"n":1}},{"type":"Feature","geometry":{"type":"Polygon","coordinates":[[[-57.65625,63.28125],[-56.25,63.28125],[-56.25,64.6875],[-57.65625,64.6875],[-57.65625,63.28125]]]},"properties":{"n":1}},{"type":"Feature","geometry":{"type":"Polygon","coordinates":[[[-60.46875,63.28125],[-59.0625,63.28125],[-59.0625,64.6875],[-60.46875,64.6875],[-60.46875,63.28125]]]},"properties":{"n":1}},{"type":"Feature","geometry":{"type":"Polygon","coordinates":[[[-61.875,63.28125],[-60.46875,63.28125],[-60.46875,64.6875],[-61.875,64.6875],[-61.875,63.28125]]]},"properties":{"n":1}},{"type":"Feature","geometry":{"type":"Polygon","coordinates":[[[-61.875,61.875],[-60.46875,61.875],[-60.46875,63.28125],[-61.875,63.28125],[-61.875,61.875]]]},"properties":{"n":1}},{"type":"Feature","geometry":{"type":"Polygon","coordinates":[[[-61.875,57.65625],[-60.46875,57.65625],[-60.46875,59.0625],[-61.875,59.0625],[-61.875,57.65625]]]},"properties":{"n":1}},{"type":"Feature","geometry":{"type":"Polygon","coordinates":[[[-61.875,56.25],[-60.46875,56.25],[-60.46875,57.65625],[-61.875,57.65625],[-61.875,56.25]]]},"properties":{"n":1}},{"type":"Feature","geometry":{"type":"Polygon","coordinates":[[[-63.28125,57.65625],[-61.875,57.65625],[-61.875,59.0625],[-63.28125,59.0625],[-63.28125,57.65625]]]},"properties":{"n":1}},{"type":"Feature","geometry":{"type":"Polygon","coordinates":[[[-53.4375,46.40625],[-52.03125,46.40625],[-52.03125,47.8125],[-53.4375,47.8125],[-53.4375,46.40625]]]},"properties":{"n":1}},{"type":"Feature","geometry":{"type":"Polygon","coordinates":[[[-64.6875,45],[-63.28125,45],[-63.28125,46.40625],[-64.6875,46.40625],[-64.6875,45]]]},"properties":{"n":1}},{"type":"Feature","geometry":{"type":"Polygon","coordinates":[[[-52.03125,40.78125],[-50.625,40.78125],[-50.625,42.1875],[-52.03125,42.1875],[-52.03125,40.78125]]]},"properties":{"n":1}},{"type":"Feature","geometry":{"type":"Polygon","coordinates":[[[-88.59375,28.125],[-87.1875,28.125],[-87.1875,29.53125],[-88.59375,29.53125],[-88.59375,28.125]]]},"properties":{"n":1}},{"type":"Feature","geometry":{"type":"Polygon","coordinates":[[[-160.3125,54.84375],[-158.90625,54.84375],[-158.90625,56.25],[-160.3125,56.25],[-160.3125,54.84375]]]},"properties":{"n":1}},{"type":"Feature","geometry":{"type":"Polygon","coordinates":[[[-19.6875,-64.6875],[-18.28125,-64.6875],[-18.28125,-63.28125],[-19.6875,-63.28125],[-19.6875,-64.6875]]]},"properties":{"n":1}}]}