{"type":"FeatureCollection","features":[{"type":"Feature","geometry":{"type":"Polygon","coordinates":[[[-12.65625,52.03125],[-11.25,52.03125],[-11.25,53.4375],[-12.65625,53.4375],[-12.65625,52.03125]]]},"properties":{"n":11931}},{"type":"Feature","geometry":{"type":"Polygon","coordinates":[[[-14.0625,52.03125],[-12.65625,52.03125],[-12.65625,53.4375],[-14.0625,53.4375],[-14.0625,52.03125]]]},"properties":{"n":10737}},{"type":"Feature","geometry":{"type":"Polygon","coordinates":[[[-8.4375,50.625],[-7.03125,50.625],[-7.03125,52.03125],[-8.4375,52.03125],[-8.4375,50.625]]]},"properties":{"n":10363}},{"type":"Feature","geometry":{"type":"Polygon","coordinates":[[[-11.25,50.625],[-9.84375,50.625],[-9.84375,52.03125],[-11.25,52.03125],[-11.25,50.625]]]},"properties":{"n":8792}},{"type":"Feature","geometry":{"type":"Polygon","coordinates":[[[-4.21875,46.40625],[-2.8125,46.40625],[-2.8125,47.8125],[-4.21875,47.8125],[-4.21875,46.40625]]]},"properties":{"n":8772}},{"type":"Feature","geometry":{"type":"Polygon","coordinates":[[[-9.84375,50.625],[-8.4375,50.625],[-8.4375,52.03125],[-9.84375,52.03125],[-9.84375,50.625]]]},"properties":{"n":7978}},{"type":"Feature","geometry":{"type":"Polygon","coordinates":[[[-12.65625,53.4375],[-11.25,53.4375],[-11.25,54.84375],[-12.65625,54.84375],[-12.65625,53.4375]]]},"properties":{"n":7239}},{"type":"Feature","geometry":{"type":"Polygon","coordinates":[[[-11.25,49.21875],[-9.84375,49.21875],[-9.84375,50.625],[-11.25,50.625],[-11.25,49.21875]]]},"properties":{"n":7160}},{"type":"Feature","geometry":{"type":"Polygon","coordinates":[[[-2.8125,45],[-1.40625,45],[-1.40625,46.40625],[-2.8125,46.40625],[-2.8125,45]]]},"properties":{"n":7076}},{"type":"Feature","geometry":{"type":"Polygon","coordinates":[[[-9.84375,49.21875],[-8.4375,49.21875],[-8.4375,50.625],[-9.84375,50.625],[-9.84375,49.21875]]]},"properties":{"n":6514}},{"type":"Feature","geometry":{"type":"Polygon","coordinates":[[[-2.8125,43.59375],[-1.40625,43.59375],[-1.40625,45],[-2.8125,45],[-2.8125,43.59375]]]},"properties":{"n":6470}},{"type":"Feature","geometry":{"type":"Polygon","coordinates":[[[-8.4375,54.84375],[-7.03125,54.84375],[-7.03125,56.25],[-8.4375,56.25],[-8.4375,54.84375]]]},"properties":{"n":5713}},{"type":"Feature","geometry":{"type":"Polygon","coordinates":[[[-7.03125,50.625],[-5.625,50.625],[-5.625,52.03125],[-7.03125,52.03125],[-7.03125,50.625]]]},"properties":{"n":5581}},{"type":"Feature","geometry":{"type":"Polygon","coordinates":[[[-5.625,46.40625],[-4.21875,46.40625],[-4.21875,47.8125],[-5.625,47.8125],[-5.625,46.40625]]]},"properties":{"n":5410}},{"type":"Feature","geometry":{"type":"Polygon","coordinates":[[[-15.46875,52.03125],[-14.0625,52.03125],[-14.0625,53.4375],[-15.46875,53.4375],[-15.46875,52.03125]]]},"properties":{"n":5394}},{"type":"Feature","geometry":{"type":"Polygon","coordinates":[[[11.25,56.25],[12.65625,56.25],[12.65625,57.65625],[11.25,57.65625],[11.25,56.25]]]},"properties":{"n":5066}},{"type":"Feature","geometry":{"type":"Polygon","coordinates":[[[-8.4375,56.25],[-7.03125,56.25],[-7.03125,57.65625],[-8.4375,57.65625],[-8.4375,56.25]]]},"properties":{"n":4971}},{"type":"Feature","geometry":{"type":"Polygon","coordinates":[[[-4.21875,45],[-2.8125,45],[-2.8125,46.40625],[-4.21875,46.40625],[-4.21875,45]]]},"properties":{"n":4648}},{"type":"Feature","geometry":{"type":"Polygon","coordinates":[[[-8.4375,49.21875],[-7.03125,49.21875],[-7.03125,50.625],[-8.4375,50.625],[-8.4375,49.21875]]]},"properties":{"n":4260}},{"type":"Feature","geometry":{"type":"Polygon","coordinates":[[[-7.03125,57.65625],[-5.625,57.65625],[-5.625,59.0625],[-7.03125,59.0625],[-7.03125,57.65625]]]},"properties":{"n":4190}},{"type":"Feature","geometry":{"type":"Polygon","coordinates":[[[0,60.46875],[1.40625,60.46875],[1.40625,61.875],[0,61.875],[0,60.46875]]]},"properties":{"n":4002}},{"type":"Feature","geometry":{"type":"Polygon","coordinates":[[[-9.84375,54.84375],[-8.4375,54.84375],[-8.4375,56.25],[-9.84375,56.25],[-9.84375,54.84375]]]},"properties":{"n":3750}},{"type":"Feature","geometry":{"type":"Polygon","coordinates":[[[-11.25,52.03125],[-9.84375,52.03125],[-9.84375,53.4375],[-11.25,53.4375],[-11.25,52.03125]]]},"properties":{"n":3432}},{"type":"Feature","geometry":{"type":"Polygon","coordinates":[[[-11.25,53.4375],[-9.84375,53.4375],[-9.84375,54.84375],[-11.25,54.84375],[-11.25,53.4375]]]},"properties":{"n":3248}},{"type":"Feature","geometry":{"type":"Polygon","coordinates":[[[-9.84375,56.25],[-8.4375,56.25],[-8.4375,57.65625],[-9.84375,57.65625],[-9.84375,56.25]]]},"properties":{"n":3167}},{"type":"Feature","geometry":{"type":"Polygon","coordinates":[[[-7.03125,56.25],[-5.625,56.25],[-5.625,57.65625],[-7.03125,57.65625],[-7.03125,56.25]]]},"properties":{"n":2944}},{"type":"Feature","geometry":{"type":"Polygon","coordinates":[[[9.84375,57.65625],[11.25,57.65625],[11.25,59.0625],[9.84375,59.0625],[9.84375,57.65625]]]},"properties":{"n":2855}},{"type":"Feature","geometry":{"type":"Polygon","coordinates":[[[-15.46875,50.625],[-14.0625,50.625],[-14.0625,52.03125],[-15.46875,52.03125],[-15.46875,50.625]]]},"properties":{"n":2734}},{"type":"Feature","geometry":{"type":"Polygon","coordinates":[[[-9.84375,57.65625],[-8.4375,57.65625],[-8.4375,59.0625],[-9.84375,59.0625],[-9.84375,57.65625]]]},"properties":{"n":2577}},{"type":"Feature","geometry":{"type":"Polygon","coordinates":[[[-9.84375,47.8125],[-8.4375,47.8125],[-8.4375,49.21875],[-9.84375,49.21875],[-9.84375,47.8125]]]},"properties":{"n":2365}},{"type":"Feature","geometry":{"type":"Polygon","coordinates":[[[2.8125,42.1875],[4.21875,42.1875],[4.21875,43.59375],[2.8125,43.59375],[2.8125,42.1875]]]},"properties":{"n":2155}},{"type":"Feature","geometry":{"type":"Polygon","coordinates":[[[2.8125,59.0625],[4.21875,59.0625],[4.21875,60.46875],[2.8125,60.46875],[2.8125,59.0625]]]},"properties":{"n":2144}},{"type":"Feature","geometry":{"type":"Polygon","coordinates":[[[-14.0625,50.625],[-12.65625,50.625],[-12.65625,52.03125],[-14.0625,52.03125],[-14.0625,50.625]]]},"properties":{"n":2110}},{"type":"Feature","geometry":{"type":"Polygon","coordinates":[[[-12.65625,50.625],[-11.25,50.625],[-11.25,52.03125],[-12.65625,52.03125],[-12.65625,50.625]]]},"properties":{"n":1955}},{"type":"Feature","geometry":{"type":"Polygon","coordinates":[[[-8.4375,47.8125],[-7.03125,47.8125],[-7.03125,49.21875],[-8.4375,49.21875],[-8.4375,47.8125]]]},"properties":{"n":1899}},{"type":"Feature","geometry":{"type":"Polygon","coordinates":[[[-14.0625,53.4375],[-12.65625,53.4375],[-12.65625,54.84375],[-14.0625,54.84375],[-14.0625,53.4375]]]},"properties":{"n":1711}},{"type":"Feature","geometry":{"type":"Polygon","coordinates":[[[-5.625,50.625],[-4.21875,50.625],[-4.21875,52.03125],[-5.625,52.03125],[-5.625,50.625]]]},"properties":{"n":1396}},{"type":"Feature","geometry":{"type":"Polygon","coordinates":[[[0,59.0625],[1.40625,59.0625],[1.40625,60.46875],[0,60.46875],[0,59.0625]]]},"properties":{"n":1339}},{"type":"Feature","geometry":{"type":"Polygon","coordinates":[[[-5.625,54.84375],[-4.21875,54.84375],[-4.21875,56.25],[-5.625,56.25],[-5.625,54.84375]]]},"properties":{"n":1288}},{"type":"Feature","geometry":{"type":"Polygon","coordinates":[[[-1.40625,59.0625],[0,59.0625],[0,60.46875],[-1.40625,60.46875],[-1.40625,59.0625]]]},"properties":{"n":1188}},{"type":"Feature","geometry":{"type":"Polygon","coordinates":[[[-1.40625,60.46875],[0,60.46875],[0,61.875],[-1.40625,61.875],[-1.40625,60.46875]]]},"properties":{"n":1076}},{"type":"Feature","geometry":{"type":"Polygon","coordinates":[[[-7.03125,47.8125],[-5.625,47.8125],[-5.625,49.21875],[-7.03125,49.21875],[-7.03125,47.8125]]]},"properties":{"n":1060}},{"type":"Feature","geometry":{"type":"Polygon","coordinates":[[[8.4375,57.65625],[9.84375,57.65625],[9.84375,59.0625],[8.4375,59.0625],[8.4375,57.65625]]]},"properties":{"n":1057}},{"type":"Feature","geometry":{"type":"Polygon","coordinates":[[[0,57.65625],[1.40625,57.65625],[1.40625,59.0625],[0,59.0625],[0,57.65625]]]},"properties":{"n":1046}},{"type":"Feature","geometry":{"type":"Polygon","coordinates":[[[-11.25,47.8125],[-9.84375,47.8125],[-9.84375,49.21875],[-11.25,49.21875],[-11.25,47.8125]]]},"properties":{"n":1009}},{"type":"Feature","geometry":{"type":"Polygon","coordinates":[[[-2.8125,46.40625],[-1.40625,46.40625],[-1.40625,47.8125],[-2.8125,47.8125],[-2.8125,46.40625]]]},"properties":{"n":998}},{"type":"Feature","geometry":{"type":"Polygon","coordinates":[[[-11.25,54.84375],[-9.84375,54.84375],[-9.84375,56.25],[-11.25,56.25],[-11.25,54.84375]]]},"properties":{"n":941}},{"type":"Feature","geometry":{"type":"Polygon","coordinates":[[[-1.40625,57.65625],[0,57.65625],[0,59.0625],[-1.40625,59.0625],[-1.40625,57.65625]]]},"properties":{"n":926}},{"type":"Feature","geometry":{"type":"Polygon","coordinates":[[[1.40625,59.0625],[2.8125,59.0625],[2.8125,60.46875],[1.40625,60.46875],[1.40625,59.0625]]]},"properties":{"n":916}},{"type":"Feature","geometry":{"type":"Polygon","coordinates":[[[4.21875,42.1875],[5.625,42.1875],[5.625,43.59375],[4.21875,43.59375],[4.21875,42.1875]]]},"properties":{"n":906}},{"type":"Feature","geometry":{"type":"Polygon","coordinates":[[[-9.84375,53.4375],[-8.4375,53.4375],[-8.4375,54.84375],[-9.84375,54.84375],[-9.84375,53.4375]]]},"properties":{"n":898}},{"type":"Feature","geometry":{"type":"Polygon","coordinates":[[[-8.4375,57.65625],[-7.03125,57.65625],[-7.03125,59.0625],[-8.4375,59.0625],[-8.4375,57.65625]]]},"properties":{"n":892}},{"type":"Feature","geometry":{"type":"Polygon","coordinates":[[[1.40625,40.78125],[2.8125,40.78125],[2.8125,42.1875],[1.40625,42.1875],[1.40625,40.78125]]]},"properties":{"n":884}},{"type":"Feature","geometry":{"type":"Polygon","coordinates":[[[15.46875,42.1875],[16.875,42.1875],[16.875,43.59375],[15.46875,43.59375],[15.46875,42.1875]]]},"properties":{"n":832}},{"type":"Feature","geometry":{"type":"Polygon","coordinates":[[[4.21875,57.65625],[5.625,57.65625],[5.625,59.0625],[4.21875,59.0625],[4.21875,57.65625]]]},"properties":{"n":826}},{"type":"Feature","geometry":{"type":"Polygon","coordinates":[[[-7.03125,59.0625],[-5.625,59.0625],[-5.625,60.46875],[-7.03125,60.46875],[-7.03125,59.0625]]]},"properties":{"n":817}},{"type":"Feature","geometry":{"type":"Polygon","coordinates":[[[1.40625,60.46875],[2.8125,60.46875],[2.8125,61.875],[1.40625,61.875],[1.40625,60.46875]]]},"properties":{"n":804}},{"type":"Feature","geometry":{"type":"Polygon","coordinates":[[[9.84375,56.25],[11.25,56.25],[11.25,57.65625],[9.84375,57.65625],[9.84375,56.25]]]},"properties":{"n":683}},{"type":"Feature","geometry":{"type":"Polygon","coordinates":[[[-7.03125,49.21875],[-5.625,49.21875],[-5.625,50.625],[-7.03125,50.625],[-7.03125,49.21875]]]},"properties":{"n":613}},{"type":"Feature","geometry":{"type":"Polygon","coordinates":[[[-5.625,59.0625],[-4.21875,59.0625],[-4.21875,60.46875],[-5.625,60.46875],[-5.625,59.0625]]]},"properties":{"n":597}},{"type":"Feature","geometry":{"type":"Polygon","coordinates":[[[-12.65625,49.21875],[-11.25,49.21875],[-11.25,50.625],[-12.65625,50.625],[-12.65625,49.21875]]]},"properties":{"n":549}},{"type":"Feature","geometry":{"type":"Polygon","coordinates":[[[0,56.25],[1.40625,56.25],[1.40625,57.65625],[0,57.65625],[0,56.25]]]},"properties":{"n":538}},{"type":"Feature","geometry":{"type":"Polygon","coordinates":[[[2.8125,57.65625],[4.21875,57.65625],[4.21875,59.0625],[2.8125,59.0625],[2.8125,57.65625]]]},"properties":{"n":514}},{"type":"Feature","geometry":{"type":"Polygon","coordinates":[[[1.40625,57.65625],[2.8125,57.65625],[2.8125,59.0625],[1.40625,59.0625],[1.40625,57.65625]]]},"properties":{"n":509}},{"type":"Feature","geometry":{"type":"Polygon","coordinates":[[[0,42.1875],[1.40625,42.1875],[1.40625,43.59375],[0,43.59375],[0,42.1875]]]},"properties":{"n":507}},{"type":"Feature","geometry":{"type":"Polygon","coordinates":[[[-7.03125,46.40625],[-5.625,46.40625],[-5.625,47.8125],[-7.03125,47.8125],[-7.03125,46.40625]]]},"properties":{"n":464}},{"type":"Feature","geometry":{"type":"Polygon","coordinates":[[[-2.8125,59.0625],[-1.40625,59.0625],[-1.40625,60.46875],[-2.8125,60.46875],[-2.8125,59.0625]]]},"properties":{"n":424}},{"type":"Feature","geometry":{"type":"Polygon","coordinates":[[[-2.8125,57.65625],[-1.40625,57.65625],[-1.40625,59.0625],[-2.8125,59.0625],[-2.8125,57.65625]]]},"properties":{"n":420}},{"type":"Feature","geometry":{"type":"Polygon","coordinates":[[[-5.625,53.4375],[-4.21875,53.4375],[-4.21875,54.84375],[-5.625,54.84375],[-5.625,53.4375]]]},"properties":{"n":389}},{"type":"Feature","geometry":{"type":"Polygon","coordinates":[[[0,39.375],[1.40625,39.375],[1.40625,40.78125],[0,40.78125],[0,39.375]]]},"properties":{"n":376}},{"type":"Feature","geometry":{"type":"Polygon","coordinates":[[[-9.84375,52.03125],[-8.4375,52.03125],[-8.4375,53.4375],[-9.84375,53.4375],[-9.84375,52.03125]]]},"properties":{"n":376}},{"type":"Feature","geometry":{"type":"Polygon","coordinates":[[[-1.40625,43.59375],[0,43.59375],[0,45],[-1.40625,45],[-1.40625,43.59375]]]},"properties":{"n":368}},{"type":"Feature","geometry":{"type":"Polygon","coordinates":[[[-4.21875,59.0625],[-2.8125,59.0625],[-2.8125,60.46875],[-4.21875,60.46875],[-4.21875,59.0625]]]},"properties":{"n":334}},{"type":"Feature","geometry":{"type":"Polygon","coordinates":[[[5.625,57.65625],[7.03125,57.65625],[7.03125,59.0625],[5.625,59.0625],[5.625,57.65625]]]},"properties":{"n":314}},{"type":"Feature","geometry":{"type":"Polygon","coordinates":[[[2.8125,40.78125],[4.21875,40.78125],[4.21875,42.1875],[2.8125,42.1875],[2.8125,40.78125]]]},"properties":{"n":314}},{"type":"Feature","geometry":{"type":"Polygon","coordinates":[[[-5.625,49.21875],[-4.21875,49.21875],[-4.21875,50.625],[-5.625,50.625],[-5.625,49.21875]]]},"properties":{"n":301}},{"type":"Feature","geometry":{"type":"Polygon","coordinates":[[[5.625,56.25],[7.03125,56.25],[7.03125,57.65625],[5.625,57.65625],[5.625,56.25]]]},"properties":{"n":300}},{"type":"Feature","geometry":{"type":"Polygon","coordinates":[[[2.8125,39.375],[4.21875,39.375],[4.21875,40.78125],[2.8125,40.78125],[2.8125,39.375]]]},"properties":{"n":300}},{"type":"Feature","geometry":{"type":"Polygon","coordinates":[[[8.4375,56.25],[9.84375,56.25],[9.84375,57.65625],[8.4375,57.65625],[8.4375,56.25]]]},"properties":{"n":298}},{"type":"Feature","geometry":{"type":"Polygon","coordinates":[[[-5.625,47.8125],[-4.21875,47.8125],[-4.21875,49.21875],[-5.625,49.21875],[-5.625,47.8125]]]},"properties":{"n":298}},{"type":"Feature","geometry":{"type":"Polygon","coordinates":[[[2.8125,60.46875],[4.21875,60.46875],[4.21875,61.875],[2.8125,61.875],[2.8125,60.46875]]]},"properties":{"n":292}},{"type":"Feature","geometry":{"type":"Polygon","coordinates":[[[7.03125,56.25],[8.4375,56.25],[8.4375,57.65625],[7.03125,57.65625],[7.03125,56.25]]]},"properties":{"n":284}},{"type":"Feature","geometry":{"type":"Polygon","coordinates":[[[-7.03125,54.84375],[-5.625,54.84375],[-5.625,56.25],[-7.03125,56.25],[-7.03125,54.84375]]]},"properties":{"n":262}},{"type":"Feature","geometry":{"type":"Polygon","coordinates":[[[-5.625,57.65625],[-4.21875,57.65625],[-4.21875,59.0625],[-5.625,59.0625],[-5.625,57.65625]]]},"properties":{"n":258}},{"type":"Feature","geometry":{"type":"Polygon","coordinates":[[[1.40625,39.375],[2.8125,39.375],[2.8125,40.78125],[1.40625,40.78125],[1.40625,39.375]]]},"properties":{"n":253}},{"type":"Feature","geometry":{"type":"Polygon","coordinates":[[[-2.8125,60.46875],[-1.40625,60.46875],[-1.40625,61.875],[-2.8125,61.875],[-2.8125,60.46875]]]},"properties":{"n":250}},{"type":"Feature","geometry":{"type":"Polygon","coordinates":[[[-15.46875,53.4375],[-14.0625,53.4375],[-14.0625,54.84375],[-15.46875,54.84375],[-15.46875,53.4375]]]},"properties":{"n":225}},{"type":"Feature","geometry":{"type":"Polygon","coordinates":[[[1.40625,56.25],[2.8125,56.25],[2.8125,57.65625],[1.40625,57.65625],[1.40625,56.25]]]},"properties":{"n":222}},{"type":"Feature","geometry":{"type":"Polygon","coordinates":[[[-8.4375,52.03125],[-7.03125,52.03125],[-7.03125,53.4375],[-8.4375,53.4375],[-8.4375,52.03125]]]},"properties":{"n":210}},{"type":"Feature","geometry":{"type":"Polygon","coordinates":[[[1.40625,37.96875],[2.8125,37.96875],[2.8125,39.375],[1.40625,39.375],[1.40625,37.96875]]]},"properties":{"n":209}},{"type":"Feature","geometry":{"type":"Polygon","coordinates":[[[4.21875,54.84375],[5.625,54.84375],[5.625,56.25],[4.21875,56.25],[4.21875,54.84375]]]},"properties":{"n":208}},{"type":"Feature","geometry":{"type":"Polygon","coordinates":[[[-4.21875,49.21875],[-2.8125,49.21875],[-2.8125,50.625],[-4.21875,50.625],[-4.21875,49.21875]]]},"properties":{"n":208}},{"type":"Feature","geometry":{"type":"Polygon","coordinates":[[[-8.4375,46.40625],[-7.03125,46.40625],[-7.03125,47.8125],[-8.4375,47.8125],[-8.4375,46.40625]]]},"properties":{"n":196}},{"type":"Feature","geometry":{"type":"Polygon","coordinates":[[[5.625,54.84375],[7.03125,54.84375],[7.03125,56.25],[5.625,56.25],[5.625,54.84375]]]},"properties":{"n":190}},{"type":"Feature","geometry":{"type":"Polygon","coordinates":[[[0,37.96875],[1.40625,37.96875],[1.40625,39.375],[0,39.375],[0,37.96875]]]},"properties":{"n":178}},{"type":"Feature","geometry":{"type":"Polygon","coordinates":[[[-4.21875,57.65625],[-2.8125,57.65625],[-2.8125,59.0625],[-4.21875,59.0625],[-4.21875,57.65625]]]},"properties":{"n":171}},{"type":"Feature","geometry":{"type":"Polygon","coordinates":[[[-7.03125,52.03125],[-5.625,52.03125],[-5.625,53.4375],[-7.03125,53.4375],[-7.03125,52.03125]]]},"properties":{"n":169}},{"type":"Feature","geometry":{"type":"Polygon","coordinates":[[[11.25,57.65625],[12.65625,57.65625],[12.65625,59.0625],[11.25,59.0625],[11.25,57.65625]]]},"properties":{"n":167}},{"type":"Feature","geometry":{"type":"Polygon","coordinates":[[[14.0625,42.1875],[15.46875,42.1875],[15.46875,43.59375],[14.0625,43.59375],[14.0625,42.1875]]]},"properties":{"n":167}},{"type":"Feature","geometry":{"type":"Polygon","coordinates":[[[1.40625,54.84375],[2.8125,54.84375],[2.8125,56.25],[1.40625,56.25],[1.40625,54.84375]]]},"properties":{"n":154}},{"type":"Feature","geometry":{"type":"Polygon","coordinates":[[[0,54.84375],[1.40625,54.84375],[1.40625,56.25],[0,56.25],[0,54.84375]]]},"properties":{"n":153}},{"type":"Feature","geometry":{"type":"Polygon","coordinates":[[[2.8125,37.96875],[4.21875,37.96875],[4.21875,39.375],[2.8125,39.375],[2.8125,37.96875]]]},"properties":{"n":145}},{"type":"Feature","geometry":{"type":"Polygon","coordinates":[[[-5.625,45],[-4.21875,45],[-4.21875,46.40625],[-5.625,46.40625],[-5.625,45]]]},"properties":{"n":142}},{"type":"Feature","geometry":{"type":"Polygon","coordinates":[[[0,40.78125],[1.40625,40.78125],[1.40625,42.1875],[0,42.1875],[0,40.78125]]]},"properties":{"n":141}},{"type":"Feature","geometry":{"type":"Polygon","coordinates":[[[9.84375,36.5625],[11.25,36.5625],[11.25,37.96875],[9.84375,37.96875],[9.84375,36.5625]]]},"properties":{"n":138}},{"type":"Feature","geometry":{"type":"Polygon","coordinates":[[[-1.40625,37.96875],[0,37.96875],[0,39.375],[-1.40625,39.375],[-1.40625,37.96875]]]},"properties":{"n":133}},{"type":"Feature","geometry":{"type":"Polygon","coordinates":[[[-2.8125,36.5625],[-1.40625,36.5625],[-1.40625,37.96875],[-2.8125,37.96875],[-2.8125,36.5625]]]},"properties":{"n":132}},{"type":"Feature","geometry":{"type":"Polygon","coordinates":[[[11.25,54.84375],[12.65625,54.84375],[12.65625,56.25],[11.25,56.25],[11.25,54.84375]]]},"properties":{"n":127}},{"type":"Feature","geometry":{"type":"Polygon","coordinates":[[[9.84375,54.84375],[11.25,54.84375],[11.25,56.25],[9.84375,56.25],[9.84375,54.84375]]]},"properties":{"n":125}},{"type":"Feature","geometry":{"type":"Polygon","coordinates":[[[5.625,61.875],[7.03125,61.875],[7.03125,63.28125],[5.625,63.28125],[5.625,61.875]]]},"properties":{"n":115}},{"type":"Feature","geometry":{"type":"Polygon","coordinates":[[[-2.8125,49.21875],[-1.40625,49.21875],[-1.40625,50.625],[-2.8125,50.625],[-2.8125,49.21875]]]},"properties":{"n":115}},{"type":"Feature","geometry":{"type":"Polygon","coordinates":[[[-5.625,43.59375],[-4.21875,43.59375],[-4.21875,45],[-5.625,45],[-5.625,43.59375]]]},"properties":{"n":115}},{"type":"Feature","geometry":{"type":"Polygon","coordinates":[[[12.65625,54.84375],[14.0625,54.84375],[14.0625,56.25],[12.65625,56.25],[12.65625,54.84375]]]},"properties":{"n":113}},{"type":"Feature","geometry":{"type":"Polygon","coordinates":[[[33.75,32.34375],[35.15625,32.34375],[35.15625,33.75],[33.75,33.75],[33.75,32.34375]]]},"properties":{"n":111}},{"type":"Feature","geometry":{"type":"Polygon","coordinates":[[[-7.03125,53.4375],[-5.625,53.4375],[-5.625,54.84375],[-7.03125,54.84375],[-7.03125,53.4375]]]},"properties":{"n":104}},{"type":"Feature","geometry":{"type":"Polygon","coordinates":[[[7.03125,57.65625],[8.4375,57.65625],[8.4375,59.0625],[7.03125,59.0625],[7.03125,57.65625]]]},"properties":{"n":101}},{"type":"Feature","geometry":{"type":"Polygon","coordinates":[[[-1.40625,56.25],[0,56.25],[0,57.65625],[-1.40625,57.65625],[-1.40625,56.25]]]},"properties":{"n":96}},{"type":"Feature","geometry":{"type":"Polygon","coordinates":[[[-2.8125,42.1875],[-1.40625,42.1875],[-1.40625,43.59375],[-2.8125,43.59375],[-2.8125,42.1875]]]},"properties":{"n":96}},{"type":"Feature","geometry":{"type":"Polygon","coordinates":[[[-12.65625,47.8125],[-11.25,47.8125],[-11.25,49.21875],[-12.65625,49.21875],[-12.65625,47.8125]]]},"properties":{"n":92}},{"type":"Feature","geometry":{"type":"Polygon","coordinates":[[[-1.40625,36.5625],[0,36.5625],[0,37.96875],[-1.40625,37.96875],[-1.40625,36.5625]]]},"properties":{"n":87}},{"type":"Feature","geometry":{"type":"Polygon","coordinates":[[[12.65625,45],[14.0625,45],[14.0625,46.40625],[12.65625,46.40625],[12.65625,45]]]},"properties":{"n":79}},{"type":"Feature","geometry":{"type":"Polygon","coordinates":[[[-4.21875,47.8125],[-2.8125,47.8125],[-2.8125,49.21875],[-4.21875,49.21875],[-4.21875,47.8125]]]},"properties":{"n":78}},{"type":"Feature","geometry":{"type":"Polygon","coordinates":[[[11.25,33.75],[12.65625,33.75],[12.65625,35.15625],[11.25,35.15625],[11.25,33.75]]]},"properties":{"n":74}},{"type":"Feature","geometry":{"type":"Polygon","coordinates":[[[-67.5,45],[-66.09375,45],[-66.09375,46.40625],[-67.5,46.40625],[-67.5,45]]]},"properties":{"n":74}},{"type":"Feature","geometry":{"type":"Polygon","coordinates":[[[4.21875,56.25],[5.625,56.25],[5.625,57.65625],[4.21875,57.65625],[4.21875,56.25]]]},"properties":{"n":71}},{"type":"Feature","geometry":{"type":"Polygon","coordinates":[[[16.875,42.1875],[18.28125,42.1875],[18.28125,43.59375],[16.875,43.59375],[16.875,42.1875]]]},"properties":{"n":69}},{"type":"Feature","geometry":{"type":"Polygon","coordinates":[[[4.21875,53.4375],[5.625,53.4375],[5.625,54.84375],[4.21875,54.84375],[4.21875,53.4375]]]},"properties":{"n":68}},{"type":"Feature","geometry":{"type":"Polygon","coordinates":[[[-4.21875,53.4375],[-2.8125,53.4375],[-2.8125,54.84375],[-4.21875,54.84375],[-4.21875,53.4375]]]},"properties":{"n":68}},{"type":"Feature","geometry":{"type":"Polygon","coordinates":[[[-5.625,35.15625],[-4.21875,35.15625],[-4.21875,36.5625],[-5.625,36.5625],[-5.625,35.15625]]]},"properties":{"n":66}},{"type":"Feature","geometry":{"type":"Polygon","coordinates":[[[8.4375,36.5625],[9.84375,36.5625],[9.84375,37.96875],[8.4375,37.96875],[8.4375,36.5625]]]},"properties":{"n":65}},{"type":"Feature","geometry":{"type":"Polygon","coordinates":[[[33.75,30.9375],[35.15625,30.9375],[35.15625,32.34375],[33.75,32.34375],[33.75,30.9375]]]},"properties":{"n":62}},{"type":"Feature","geometry":{"type":"Polygon","coordinates":[[[-67.5,43.59375],[-66.09375,43.59375],[-66.09375,45],[-67.5,45],[-67.5,43.59375]]]},"properties":{"n":61}},{"type":"Feature","geometry":{"type":"Polygon","coordinates":[[[9.84375,35.15625],[11.25,35.15625],[11.25,36.5625],[9.84375,36.5625],[9.84375,35.15625]]]},"properties":{"n":55}},{"type":"Feature","geometry":{"type":"Polygon","coordinates":[[[-8.4375,59.0625],[-7.03125,59.0625],[-7.03125,60.46875],[-8.4375,60.46875],[-8.4375,59.0625]]]},"properties":{"n":55}},{"type":"Feature","geometry":{"type":"Polygon","coordinates":[[[9.84375,33.75],[11.25,33.75],[11.25,35.15625],[9.84375,35.15625],[9.84375,33.75]]]},"properties":{"n":54}},{"type":"Feature","geometry":{"type":"Polygon","coordinates":[[[7.03125,54.84375],[8.4375,54.84375],[8.4375,56.25],[7.03125,56.25],[7.03125,54.84375]]]},"properties":{"n":52}},{"type":"Feature","geometry":{"type":"Polygon","coordinates":[[[9.84375,63.28125],[11.25,63.28125],[11.25,64.6875],[9.84375,64.6875],[9.84375,63.28125]]]},"properties":{"n":51}},{"type":"Feature","geometry":{"type":"Polygon","coordinates":[[[11.25,35.15625],[12.65625,35.15625],[12.65625,36.5625],[11.25,36.5625],[11.25,35.15625]]]},"properties":{"n":51}},{"type":"Feature","geometry":{"type":"Polygon","coordinates":[[[-8.4375,53.4375],[-7.03125,53.4375],[-7.03125,54.84375],[-8.4375,54.84375],[-8.4375,53.4375]]]},"properties":{"n":51}},{"type":"Feature","geometry":{"type":"Polygon","coordinates":[[[7.03125,61.875],[8.4375,61.875],[8.4375,63.28125],[7.03125,63.28125],[7.03125,61.875]]]},"properties":{"n":50}},{"type":"Feature","geometry":{"type":"Polygon","coordinates":[[[8.4375,63.28125],[9.84375,63.28125],[9.84375,64.6875],[8.4375,64.6875],[8.4375,63.28125]]]},"properties":{"n":48}},{"type":"Feature","geometry":{"type":"Polygon","coordinates":[[[18.28125,40.78125],[19.6875,40.78125],[19.6875,42.1875],[18.28125,42.1875],[18.28125,40.78125]]]},"properties":{"n":48}},{"type":"Feature","geometry":{"type":"Polygon","coordinates":[[[-4.21875,36.5625],[-2.8125,36.5625],[-2.8125,37.96875],[-4.21875,37.96875],[-4.21875,36.5625]]]},"properties":{"n":46}},{"type":"Feature","geometry":{"type":"Polygon","coordinates":[[[0,53.4375],[1.40625,53.4375],[1.40625,54.84375],[0,54.84375],[0,53.4375]]]},"properties":{"n":43}},{"type":"Feature","geometry":{"type":"Polygon","coordinates":[[[-4.21875,50.625],[-2.8125,50.625],[-2.8125,52.03125],[-4.21875,52.03125],[-4.21875,50.625]]]},"properties":{"n":43}},{"type":"Feature","geometry":{"type":"Polygon","coordinates":[[[14.0625,43.59375],[15.46875,43.59375],[15.46875,45],[14.0625,45],[14.0625,43.59375]]]},"properties":{"n":40}},{"type":"Feature","geometry":{"type":"Polygon","coordinates":[[[-5.625,52.03125],[-4.21875,52.03125],[-4.21875,53.4375],[-5.625,53.4375],[-5.625,52.03125]]]},"properties":{"n":40}},{"type":"Feature","geometry":{"type":"Polygon","coordinates":[[[4.21875,61.875],[5.625,61.875],[5.625,63.28125],[4.21875,63.28125],[4.21875,61.875]]]},"properties":{"n":39}},{"type":"Feature","geometry":{"type":"Polygon","coordinates":[[[-1.40625,54.84375],[0,54.84375],[0,56.25],[-1.40625,56.25],[-1.40625,54.84375]]]},"properties":{"n":39}},{"type":"Feature","geometry":{"type":"Polygon","coordinates":[[[7.03125,63.28125],[8.4375,63.28125],[8.4375,64.6875],[7.03125,64.6875],[7.03125,63.28125]]]},"properties":{"n":37}},{"type":"Feature","geometry":{"type":"Polygon","coordinates":[[[-5.625,36.5625],[-4.21875,36.5625],[-4.21875,37.96875],[-5.625,37.96875],[-5.625,36.5625]]]},"properties":{"n":37}},{"type":"Feature","geometry":{"type":"Polygon","coordinates":[[[4.21875,60.46875],[5.625,60.46875],[5.625,61.875],[4.21875,61.875],[4.21875,60.46875]]]},"properties":{"n":34}},{"type":"Feature","geometry":{"type":"Polygon","coordinates":[[[35.15625,33.75],[36.5625,33.75],[36.5625,35.15625],[35.15625,35.15625],[35.15625,33.75]]]},"properties":{"n":32}},{"type":"Feature","geometry":{"type":"Polygon","coordinates":[[[4.21875,59.0625],[5.625,59.0625],[5.625,60.46875],[4.21875,60.46875],[4.21875,59.0625]]]},"properties":{"n":29}},{"type":"Feature","geometry":{"type":"Polygon","coordinates":[[[-2.8125,56.25],[-1.40625,56.25],[-1.40625,57.65625],[-2.8125,57.65625],[-2.8125,56.25]]]},"properties":{"n":29}},{"type":"Feature","geometry":{"type":"Polygon","coordinates":[[[5.625,53.4375],[7.03125,53.4375],[7.03125,54.84375],[5.625,54.84375],[5.625,53.4375]]]},"properties":{"n":28}},{"type":"Feature","geometry":{"type":"Polygon","coordinates":[[[2.8125,54.84375],[4.21875,54.84375],[4.21875,56.25],[2.8125,56.25],[2.8125,54.84375]]]},"properties":{"n":27}},{"type":"Feature","geometry":{"type":"Polygon","coordinates":[[[12.65625,33.75],[14.0625,33.75],[14.0625,35.15625],[12.65625,35.15625],[12.65625,33.75]]]},"properties":{"n":26}},{"type":"Feature","geometry":{"type":"Polygon","coordinates":[[[-1.40625,39.375],[0,39.375],[0,40.78125],[-1.40625,40.78125],[-1.40625,39.375]]]},"properties":{"n":25}},{"type":"Feature","geometry":{"type":"Polygon","coordinates":[[[-1.40625,45],[0,45],[0,46.40625],[-1.40625,46.40625],[-1.40625,45]]]},"properties":{"n":23}},{"type":"Feature","geometry":{"type":"Polygon","coordinates":[[[14.0625,45],[15.46875,45],[15.46875,46.40625],[14.0625,46.40625],[14.0625,45]]]},"properties":{"n":22}},{"type":"Feature","geometry":{"type":"Polygon","coordinates":[[[12.65625,43.59375],[14.0625,43.59375],[14.0625,45],[12.65625,45],[12.65625,43.59375]]]},"properties":{"n":22}},{"type":"Feature","geometry":{"type":"Polygon","coordinates":[[[4.21875,39.375],[5.625,39.375],[5.625,40.78125],[4.21875,40.78125],[4.21875,39.375]]]},"properties":{"n":22}},{"type":"Feature","geometry":{"type":"Polygon","coordinates":[[[2.8125,56.25],[4.21875,56.25],[4.21875,57.65625],[2.8125,57.65625],[2.8125,56.25]]]},"properties":{"n":21}},{"type":"Feature","geometry":{"type":"Polygon","coordinates":[[[-8.4375,43.59375],[-7.03125,43.59375],[-7.03125,45],[-8.4375,45],[-8.4375,43.59375]]]},"properties":{"n":21}},{"type":"Feature","geometry":{"type":"Polygon","coordinates":[[[12.65625,66.09375],[14.0625,66.09375],[14.0625,67.5],[12.65625,67.5],[12.65625,66.09375]]]},"properties":{"n":19}},{"type":"Feature","geometry":{"type":"Polygon","coordinates":[[[7.03125,53.4375],[8.4375,53.4375],[8.4375,54.84375],[7.03125,54.84375],[7.03125,53.4375]]]},"properties":{"n":19}},{"type":"Feature","geometry":{"type":"Polygon","coordinates":[[[2.8125,53.4375],[4.21875,53.4375],[4.21875,54.84375],[2.8125,54.84375],[2.8125,53.4375]]]},"properties":{"n":19}},{"type":"Feature","geometry":{"type":"Polygon","coordinates":[[[12.65625,67.5],[14.0625,67.5],[14.0625,68.90625],[12.65625,68.90625],[12.65625,67.5]]]},"properties":{"n":18}},{"type":"Feature","geometry":{"type":"Polygon","coordinates":[[[5.625,63.28125],[7.03125,63.28125],[7.03125,64.6875],[5.625,64.6875],[5.625,63.28125]]]},"properties":{"n":18}},{"type":"Feature","geometry":{"type":"Polygon","coordinates":[[[9.84375,59.0625],[11.25,59.0625],[11.25,60.46875],[9.84375,60.46875],[9.84375,59.0625]]]},"properties":{"n":17}},{"type":"Feature","geometry":{"type":"Polygon","coordinates":[[[5.625,60.46875],[7.03125,60.46875],[7.03125,61.875],[5.625,61.875],[5.625,60.46875]]]},"properties":{"n":16}},{"type":"Feature","geometry":{"type":"Polygon","coordinates":[[[1.40625,53.4375],[2.8125,53.4375],[2.8125,54.84375],[1.40625,54.84375],[1.40625,53.4375]]]},"properties":{"n":14}},{"type":"Feature","geometry":{"type":"Polygon","coordinates":[[[11.25,36.5625],[12.65625,36.5625],[12.65625,37.96875],[11.25,37.96875],[11.25,36.5625]]]},"properties":{"n":13}},{"type":"Feature","geometry":{"type":"Polygon","coordinates":[[[2.8125,36.5625],[4.21875,36.5625],[4.21875,37.96875],[2.8125,37.96875],[2.8125,36.5625]]]},"properties":{"n":12}},{"type":"Feature","geometry":{"type":"Polygon","coordinates":[[[-4.21875,43.59375],[-2.8125,43.59375],[-2.8125,45],[-4.21875,45],[-4.21875,43.59375]]]},"properties":{"n":12}},{"type":"Feature","geometry":{"type":"Polygon","coordinates":[[[-7.03125,36.5625],[-5.625,36.5625],[-5.625,37.96875],[-7.03125,37.96875],[-7.03125,36.5625]]]},"properties":{"n":12}},{"type":"Feature","geometry":{"type":"Polygon","coordinates":[[[14.0625,67.5],[15.46875,67.5],[15.46875,68.90625],[14.0625,68.90625],[14.0625,67.5]]]},"properties":{"n":11}},{"type":"Feature","geometry":{"type":"Polygon","coordinates":[[[0,61.875],[1.40625,61.875],[1.40625,63.28125],[0,63.28125],[0,61.875]]]},"properties":{"n":10}},{"type":"Feature","geometry":{"type":"Polygon","coordinates":[[[5.625,59.0625],[7.03125,59.0625],[7.03125,60.46875],[5.625,60.46875],[5.625,59.0625]]]},"properties":{"n":10}},{"type":"Feature","geometry":{"type":"Polygon","coordinates":[[[14.0625,54.84375],[15.46875,54.84375],[15.46875,56.25],[14.0625,56.25],[14.0625,54.84375]]]},"properties":{"n":10}},{"type":"Feature","geometry":{"type":"Polygon","coordinates":[[[-9.84375,42.1875],[-8.4375,42.1875],[-8.4375,43.59375],[-9.84375,43.59375],[-9.84375,42.1875]]]},"properties":{"n":10}},{"type":"Feature","geometry":{"type":"Polygon","coordinates":[[[-4.21875,35.15625],[-2.8125,35.15625],[-2.8125,36.5625],[-4.21875,36.5625],[-4.21875,35.15625]]]},"properties":{"n":9}},{"type":"Feature","geometry":{"type":"Polygon","coordinates":[[[11.25,67.5],[12.65625,67.5],[12.65625,68.90625],[11.25,68.90625],[11.25,67.5]]]},"properties":{"n":8}},{"type":"Feature","geometry":{"type":"Polygon","coordinates":[[[18.28125,39.375],[19.6875,39.375],[19.6875,40.78125],[18.28125,40.78125],[18.28125,39.375]]]},"properties":{"n":8}},{"type":"Feature","geometry":{"type":"Polygon","coordinates":[[[11.25,32.34375],[12.65625,32.34375],[12.65625,33.75],[11.25,33.75],[11.25,32.34375]]]},"properties":{"n":8}},{"type":"Feature","geometry":{"type":"Polygon","coordinates":[[[-7.03125,43.59375],[-5.625,43.59375],[-5.625,45],[-7.03125,45],[-7.03125,43.59375]]]},"properties":{"n":8}},{"type":"Feature","geometry":{"type":"Polygon","coordinates":[[[9.84375,64.6875],[11.25,64.6875],[11.25,66.09375],[9.84375,66.09375],[9.84375,64.6875]]]},"properties":{"n":7}},{"type":"Feature","geometry":{"type":"Polygon","coordinates":[[[8.4375,64.6875],[9.84375,64.6875],[9.84375,66.09375],[8.4375,66.09375],[8.4375,64.6875]]]},"properties":{"n":7}},{"type":"Feature","geometry":{"type":"Polygon","coordinates":[[[-2.8125,54.84375],[-1.40625,54.84375],[-1.40625,56.25],[-2.8125,56.25],[-2.8125,54.84375]]]},"properties":{"n":7}},{"type":"Feature","geometry":{"type":"Polygon","coordinates":[[[11.25,63.28125],[12.65625,63.28125],[12.65625,64.6875],[11.25,64.6875],[11.25,63.28125]]]},"properties":{"n":6}},{"type":"Feature","geometry":{"type":"Polygon","coordinates":[[[23.90625,39.375],[25.3125,39.375],[25.3125,40.78125],[23.90625,40.78125],[23.90625,39.375]]]},"properties":{"n":6}},{"type":"Feature","geometry":{"type":"Polygon","coordinates":[[[11.25,43.59375],[12.65625,43.59375],[12.65625,45],[11.25,45],[11.25,43.59375]]]},"properties":{"n":6}},{"type":"Feature","geometry":{"type":"Polygon","coordinates":[[[12.65625,35.15625],[14.0625,35.15625],[14.0625,36.5625],[12.65625,36.5625],[12.65625,35.15625]]]},"properties":{"n":6}},{"type":"Feature","geometry":{"type":"Polygon","coordinates":[[[5.625,36.5625],[7.03125,36.5625],[7.03125,37.96875],[5.625,37.96875],[5.625,36.5625]]]},"properties":{"n":6}},{"type":"Feature","geometry":{"type":"Polygon","coordinates":[[[-14.0625,57.65625],[-12.65625,57.65625],[-12.65625,59.0625],[-14.0625,59.0625],[-14.0625,57.65625]]]},"properties":{"n":6}},{"type":"Feature","geometry":{"type":"Polygon","coordinates":[[[11.25,66.09375],[12.65625,66.09375],[12.65625,67.5],[11.25,67.5],[11.25,66.09375]]]},"properties":{"n":5}},{"type":"Feature","geometry":{"type":"Polygon","coordinates":[[[14.0625,37.96875],[15.46875,37.96875],[15.46875,39.375],[14.0625,39.375],[14.0625,37.96875]]]},"properties":{"n":5}},{"type":"Feature","geometry":{"type":"Polygon","coordinates":[[[-4.21875,60.46875],[-2.8125,60.46875],[-2.8125,61.875],[-4.21875,61.875],[-4.21875,60.46875]]]},"properties":{"n":5}},{"type":"Feature","geometry":{"type":"Polygon","coordinates":[[[-4.21875,52.03125],[-2.8125,52.03125],[-2.8125,53.4375],[-4.21875,53.4375],[-4.21875,52.03125]]]},"properties":{"n":5}},{"type":"Feature","geometry":{"type":"Polygon","coordinates":[[[-11.25,45],[-9.84375,45],[-9.84375,46.40625],[-11.25,46.40625],[-11.25,45]]]},"properties":{"n":5}},{"type":"Feature","geometry":{"type":"Polygon","coordinates":[[[-64.6875,46.40625],[-63.28125,46.40625],[-63.28125,47.8125],[-64.6875,47.8125],[-64.6875,46.40625]]]},"properties":{"n":5}},{"type":"Feature","geometry":{"type":"Polygon","coordinates":[[[-63.28125,45],[-61.875,45],[-61.875,46.40625],[-63.28125,46.40625],[-63.28125,45]]]},"properties":{"n":5}},{"type":"Feature","geometry":{"type":"Polygon","coordinates":[[[-5.625,42.1875],[-4.21875,42.1875],[-4.21875,43.59375],[-5.625,43.59375],[-5.625,42.1875]]]},"properties":{"n":5}},{"type":"Feature","geometry":{"type":"Polygon","coordinates":[[[-7.03125,35.15625],[-5.625,35.15625],[-5.625,36.5625],[-7.03125,36.5625],[-7.03125,35.15625]]]},"properties":{"n":5}},{"type":"Feature","geometry":{"type":"Polygon","coordinates":[[[-126.5625,47.8125],[-125.15625,47.8125],[-125.15625,49.21875],[-126.5625,49.21875],[-126.5625,47.8125]]]},"properties":{"n":5}},{"type":"Feature","geometry":{"type":"Polygon","coordinates":[[[25.3125,70.3125],[26.71875,70.3125],[26.71875,71.71875],[25.3125,71.71875],[25.3125,70.3125]]]},"properties":{"n":4}},{"type":"Feature","geometry":{"type":"Polygon","coordinates":[[[2.8125,61.875],[4.21875,61.875],[4.21875,63.28125],[2.8125,63.28125],[2.8125,61.875]]]},"properties":{"n":4}},{"type":"Feature","geometry":{"type":"Polygon","coordinates":[[[15.46875,40.78125],[16.875,40.78125],[16.875,42.1875],[15.46875,42.1875],[15.46875,40.78125]]]},"properties":{"n":4}},{"type":"Feature","geometry":{"type":"Polygon","coordinates":[[[12.65625,37.96875],[14.0625,37.96875],[14.0625,39.375],[12.65625,39.375],[12.65625,37.96875]]]},"properties":{"n":4}},{"type":"Feature","geometry":{"type":"Polygon","coordinates":[[[8.4375,42.1875],[9.84375,42.1875],[9.84375,43.59375],[8.4375,43.59375],[8.4375,42.1875]]]},"properties":{"n":4}},{"type":"Feature","geometry":{"type":"Polygon","coordinates":[[[7.03125,43.59375],[8.4375,43.59375],[8.4375,45],[7.03125,45],[7.03125,43.59375]]]},"properties":{"n":4}},{"type":"Feature","geometry":{"type":"Polygon","coordinates":[[[9.84375,32.34375],[11.25,32.34375],[11.25,33.75],[9.84375,33.75],[9.84375,32.34375]]]},"properties":{"n":4}},{"type":"Feature","geometry":{"type":"Polygon","coordinates":[[[-9.84375,46.40625],[-8.4375,46.40625],[-8.4375,47.8125],[-9.84375,47.8125],[-9.84375,46.40625]]]},"properties":{"n":4}},{"type":"Feature","geometry":{"type":"Polygon","coordinates":[[[-9.84375,37.96875],[-8.4375,37.96875],[-8.4375,39.375],[-9.84375,39.375],[-9.84375,37.96875]]]},"properties":{"n":4}},{"type":"Feature","geometry":{"type":"Polygon","coordinates":[[[-9.84375,36.5625],[-8.4375,36.5625],[-8.4375,37.96875],[-9.84375,37.96875],[-9.84375,36.5625]]]},"properties":{"n":4}},{"type":"Feature","geometry":{"type":"Polygon","coordinates":[[[-14.0625,32.34375],[-12.65625,32.34375],[-12.65625,33.75],[-14.0625,33.75],[-14.0625,32.34375]]]},"properties":{"n":4}},{"type":"Feature","geometry":{"type":"Polygon","coordinates":[[[-77.34375,37.96875],[-75.9375,37.96875],[-75.9375,39.375],[-77.34375,39.375],[-77.34375,37.96875]]]},"properties":{"n":4}},{"type":"Feature","geometry":{"type":"Polygon","coordinates":[[[15.46875,68.90625],[16.875,68.90625],[16.875,70.3125],[15.46875,70.3125],[15.46875,68.90625]]]},"properties":{"n":3}},{"type":"Feature","geometry":{"type":"Polygon","coordinates":[[[9.84375,66.09375],[11.25,66.09375],[11.25,67.5],[9.84375,67.5],[9.84375,66.09375]]]},"properties":{"n":3}},{"type":"Feature","geometry":{"type":"Polygon","coordinates":[[[4.21875,63.28125],[5.625,63.28125],[5.625,64.6875],[4.21875,64.6875],[4.21875,63.28125]]]},"properties":{"n":3}},{"type":"Feature","geometry":{"type":"Polygon","coordinates":[[[11.25,53.4375],[12.65625,53.4375],[12.65625,54.84375],[11.25,54.84375],[11.25,53.4375]]]},"properties":{"n":3}},{"type":"Feature","geometry":{"type":"Polygon","coordinates":[[[1.40625,50.625],[2.8125,50.625],[2.8125,52.03125],[1.40625,52.03125],[1.40625,50.625]]]},"properties":{"n":3}},{"type":"Feature","geometry":{"type":"Polygon","coordinates":[[[9.84375,37.96875],[11.25,37.96875],[11.25,39.375],[9.84375,39.375],[9.84375,37.96875]]]},"properties":{"n":3}},{"type":"Feature","geometry":{"type":"Polygon","coordinates":[[[-19.6875,56.25],[-18.28125,56.25],[-18.28125,57.65625],[-19.6875,57.65625],[-19.6875,56.25]]]},"properties":{"n":3}},{"type":"Feature","geometry":{"type":"Polygon","coordinates":[[[-1.40625,53.4375],[0,53.4375],[0,54.84375],[-1.40625,54.84375],[-1.40625,53.4375]]]},"properties":{"n":3}},{"type":"Feature","geometry":{"type":"Polygon","coordinates":[[[-16.875,52.03125],[-15.46875,52.03125],[-15.46875,53.4375],[-16.875,53.4375],[-16.875,52.03125]]]},"properties":{"n":3}},{"type":"Feature","geometry":{"type":"Polygon","coordinates":[[[-9.84375,39.375],[-8.4375,39.375],[-8.4375,40.78125],[-9.84375,40.78125],[-9.84375,39.375]]]},"properties":{"n":3}},{"type":"Feature","geometry":{"type":"Polygon","coordinates":[[[-8.4375,36.5625],[-7.03125,36.5625],[-7.03125,37.96875],[-8.4375,37.96875],[-8.4375,36.5625]]]},"properties":{"n":3}},{"type":"Feature","geometry":{"type":"Polygon","coordinates":[[[-11.25,29.53125],[-9.84375,29.53125],[-9.84375,30.9375],[-11.25,30.9375],[-11.25,29.53125]]]},"properties":{"n":3}},{"type":"Feature","geometry":{"type":"Polygon","coordinates":[[[-125.15625,45],[-123.75,45],[-123.75,46.40625],[-125.15625,46.40625],[-125.15625,45]]]},"properties":{"n":3}},{"type":"Feature","geometry":{"type":"Polygon","coordinates":[[[16.875,68.90625],[18.28125,68.90625],[18.28125,70.3125],[16.875,70.3125],[16.875,68.90625]]]},"properties":{"n":2}},{"type":"Feature","geometry":{"type":"Polygon","coordinates":[[[9.84375,67.5],[11.25,67.5],[11.25,68.90625],[9.84375,68.90625],[9.84375,67.5]]]},"properties":{"n":2}},{"type":"Feature","geometry":{"type":"Polygon","coordinates":[[[11.25,64.6875],[12.65625,64.6875],[12.65625,66.09375],[11.25,66.09375],[11.25,64.6875]]]},"properties":{"n":2}},{"type":"Feature","geometry":{"type":"Polygon","coordinates":[[[8.4375,61.875],[9.84375,61.875],[9.84375,63.28125],[8.4375,63.28125],[8.4375,61.875]]]},"properties":{"n":2}},{"type":"Feature","geometry":{"type":"Polygon","coordinates":[[[8.4375,59.0625],[9.84375,59.0625],[9.84375,60.46875],[8.4375,60.46875],[8.4375,59.0625]]]},"properties":{"n":2}},{"type":"Feature","geometry":{"type":"Polygon","coordinates":[[[15.46875,54.84375],[16.875,54.84375],[16.875,56.25],[15.46875,56.25],[15.46875,54.84375]]]},"properties":{"n":2}},{"type":"Feature","geometry":{"type":"Polygon","coordinates":[[[2.8125,50.625],[4.21875,50.625],[4.21875,52.03125],[2.8125,52.03125],[2.8125,50.625]]]},"properties":{"n":2}},{"type":"Feature","geometry":{"type":"Polygon","coordinates":[[[22.5,39.375],[23.90625,39.375],[23.90625,40.78125],[22.5,40.78125],[22.5,39.375]]]},"properties":{"n":2}},{"type":"Feature","geometry":{"type":"Polygon","coordinates":[[[16.875,40.78125],[18.28125,40.78125],[18.28125,42.1875],[16.875,42.1875],[16.875,40.78125]]]},"properties":{"n":2}},{"type":"Feature","geometry":{"type":"Polygon","coordinates":[[[14.0625,39.375],[15.46875,39.375],[15.46875,40.78125],[14.0625,40.78125],[14.0625,39.375]]]},"properties":{"n":2}},{"type":"Feature","geometry":{"type":"Polygon","coordinates":[[[15.46875,37.96875],[16.875,37.96875],[16.875,39.375],[15.46875,39.375],[15.46875,37.96875]]]},"properties":{"n":2}},{"type":"Feature","geometry":{"type":"Polygon","coordinates":[[[14.0625,36.5625],[15.46875,36.5625],[15.46875,37.96875],[14.0625,37.96875],[14.0625,36.5625]]]},"properties":{"n":2}},{"type":"Feature","geometry":{"type":"Polygon","coordinates":[[[14.0625,33.75],[15.46875,33.75],[15.46875,35.15625],[14.0625,35.15625],[14.0625,33.75]]]},"properties":{"n":2}},{"type":"Feature","geometry":{"type":"Polygon","coordinates":[[[7.03125,36.5625],[8.4375,36.5625],[8.4375,37.96875],[7.03125,37.96875],[7.03125,36.5625]]]},"properties":{"n":2}},{"type":"Feature","geometry":{"type":"Polygon","coordinates":[[[15.46875,26.71875],[16.875,26.71875],[16.875,28.125],[15.46875,28.125],[15.46875,26.71875]]]},"properties":{"n":2}},{"type":"Feature","geometry":{"type":"Polygon","coordinates":[[[37.96875,19.6875],[39.375,19.6875],[39.375,21.09375],[37.96875,21.09375],[37.96875,19.6875]]]},"properties":{"n":2}},{"type":"Feature","geometry":{"type":"Polygon","coordinates":[[[59.0625,-15.46875],[60.46875,-15.46875],[60.46875,-14.0625],[59.0625,-14.0625],[59.0625,-15.46875]]]},"properties":{"n":2}},{"type":"Feature","geometry":{"type":"Polygon","coordinates":[[[33.75,-7.03125],[35.15625,-7.03125],[35.15625,-5.625],[33.75,-5.625],[33.75,-7.03125]]]},"properties":{"n":2}},{"type":"Feature","geometry":{"type":"Polygon","coordinates":[[[-1.40625,61.875],[0,61.875],[0,63.28125],[-1.40625,63.28125],[-1.40625,61.875]]]},"properties":{"n":2}},{"type":"Feature","geometry":{"type":"Polygon","coordinates":[[[-11.25,60.46875],[-9.84375,60.46875],[-9.84375,61.875],[-11.25,61.875],[-11.25,60.46875]]]},"properties":{"n":2}},{"type":"Feature","geometry":{"type":"Polygon","coordinates":[[[-9.84375,59.0625],[-8.4375,59.0625],[-8.4375,60.46875],[-9.84375,60.46875],[-9.84375,59.0625]]]},"properties":{"n":2}},{"type":"Feature","geometry":{"type":"Polygon","coordinates":[[[-15.46875,57.65625],[-14.0625,57.65625],[-14.0625,59.0625],[-15.46875,59.0625],[-15.46875,57.65625]]]},"properties":{"n":2}},{"type":"Feature","geometry":{"type":"Polygon","coordinates":[[[-15.46875,56.25],[-14.0625,56.25],[-14.0625,57.65625],[-15.46875,57.65625],[-15.46875,56.25]]]},"properties":{"n":2}},{"type":"Feature","geometry":{"type":"Polygon","coordinates":[[[-14.0625,54.84375],[-12.65625,54.84375],[-12.65625,56.25],[-14.0625,56.25],[-14.0625,54.84375]]]},"properties":{"n":2}},{"type":"Feature","geometry":{"type":"Polygon","coordinates":[[[-9.84375,33.75],[-8.4375,33.75],[-8.4375,35.15625],[-9.84375,35.15625],[-9.84375,33.75]]]},"properties":{"n":2}},{"type":"Feature","geometry":{"type":"Polygon","coordinates":[[[-9.84375,29.53125],[-8.4375,29.53125],[-8.4375,30.9375],[-9.84375,30.9375],[-9.84375,29.53125]]]},"properties":{"n":2}},{"type":"Feature","geometry":{"type":"Polygon","coordinates":[[[-15.46875,25.3125],[-14.0625,25.3125],[-14.0625,26.71875],[-15.46875,26.71875],[-15.46875,25.3125]]]},"properties":{"n":2}},{"type":"Feature","geometry":{"type":"Polygon","coordinates":[[[-18.28125,23.90625],[-16.875,23.90625],[-16.875,25.3125],[-18.28125,25.3125],[-18.28125,23.90625]]]},"properties":{"n":2}},{"type":"Feature","geometry":{"type":"Polygon","coordinates":[[[-28.125,37.96875],[-26.71875,37.96875],[-26.71875,39.375],[-28.125,39.375],[-28.125,37.96875]]]},"properties":{"n":2}},{"type":"Feature","geometry":{"type":"Polygon","coordinates":[[[-125.15625,40.78125],[-123.75,40.78125],[-123.75,42.1875],[-125.15625,42.1875],[-125.15625,40.78125]]]},"properties":{"n":2}},{"type":"Feature","geometry":{"type":"Polygon","coordinates":[[[-125.15625,39.375],[-123.75,39.375],[-123.75,40.78125],[-125.15625,40.78125],[-125.15625,39.375]]]},"properties":{"n":2}},{"type":"Feature","geometry":{"type":"Polygon","coordinates":[[[28.125,70.3125],[29.53125,70.3125],[29.53125,71.71875],[28.125,71.71875],[28.125,70.3125]]]},"properties":{"n":1}},{"type":"Feature","geometry":{"type":"Polygon","coordinates":[[[16.875,71.71875],[18.28125,71.71875],[18.28125,73.125],[16.875,73.125],[16.875,71.71875]]]},"properties":{"n":1}},{"type":"Feature","geometry":{"type":"Polygon","coordinates":[[[18.28125,70.3125],[19.6875,70.3125],[19.6875,71.71875],[18.28125,71.71875],[18.28125,70.3125]]]},"properties":{"n":1}},{"type":"Feature","geometry":{"type":"Polygon","coordinates":[[[19.6875,68.90625],[21.09375,68.90625],[21.09375,70.3125],[19.6875,70.3125],[19.6875,68.90625]]]},"properties":{"n":1}},{"type":"Feature","geometry":{"type":"Polygon","coordinates":[[[18.28125,68.90625],[19.6875,68.90625],[19.6875,70.3125],[18.28125,70.3125],[18.28125,68.90625]]]},"properties":{"n":1}},{"type":"Feature","geometry":{"type":"Polygon","coordinates":[[[14.0625,70.3125],[15.46875,70.3125],[15.46875,71.71875],[14.0625,71.71875],[14.0625,70.3125]]]},"properties":{"n":1}},{"type":"Feature","geometry":{"type":"Polygon","coordinates":[[[12.65625,68.90625],[14.0625,68.90625],[14.0625,70.3125],[12.65625,70.3125],[12.65625,68.90625]]]},"properties":{"n":1}},{"type":"Feature","geometry":{"type":"Polygon","coordinates":[[[14.0625,66.09375],[15.46875,66.09375],[15.46875,67.5],[14.0625,67.5],[14.0625,66.09375]]]},"properties":{"n":1}},{"type":"Feature","geometry":{"type":"Polygon","coordinates":[[[12.65625,56.25],[14.0625,56.25],[14.0625,57.65625],[12.65625,57.65625],[12.65625,56.25]]]},"properties":{"n":1}},{"type":"Feature","geometry":{"type":"Polygon","coordinates":[[[7.03125,60.46875],[8.4375,60.46875],[8.4375,61.875],[7.03125,61.875],[7.03125,60.46875]]]},"properties":{"n":1}},{"type":"Feature","geometry":{"type":"Polygon","coordinates":[[[15.46875,53.4375],[16.875,53.4375],[16.875,54.84375],[15.46875,54.84375],[15.46875,53.4375]]]},"properties":{"n":1}},{"type":"Feature","geometry":{"type":"Polygon","coordinates":[[[14.0625,53.4375],[15.46875,53.4375],[15.46875,54.84375],[14.0625,54.84375],[14.0625,53.4375]]]},"properties":{"n":1}},{"type":"Feature","geometry":{"type":"Polygon","coordinates":[[[11.25,45],[12.65625,45],[12.65625,46.40625],[11.25,46.40625],[11.25,45]]]},"properties":{"n":1}},{"type":"Feature","geometry":{"type":"Polygon","coordinates":[[[9.84375,53.4375],[11.25,53.4375],[11.25,54.84375],[9.84375,54.84375],[9.84375,53.4375]]]},"properties":{"n":1}},{"type":"Feature","geometry":{"type":"Polygon","coordinates":[[[4.21875,52.03125],[5.625,52.03125],[5.625,53.4375],[4.21875,53.4375],[4.21875,52.03125]]]},"properties":{"n":1}},{"type":"Feature","geometry":{"type":"Polygon","coordinates":[[[2.8125,52.03125],[4.21875,52.03125],[4.21875,53.4375],[2.8125,53.4375],[2.8125,52.03125]]]},"properties":{"n":1}},{"type":"Feature","geometry":{"type":"Polygon","coordinates":[[[1.40625,52.03125],[2.8125,52.03125],[2.8125,53.4375],[1.40625,53.4375],[1.40625,52.03125]]]},"properties":{"n":1}},{"type":"Feature","geometry":{"type":"Polygon","coordinates":[[[32.34375,33.75],[33.75,33.75],[33.75,35.15625],[32.34375,35.15625],[32.34375,33.75]]]},"properties":{"n":1}},{"type":"Feature","geometry":{"type":"Polygon","coordinates":[[[23.90625,35.15625],[25.3125,35.15625],[25.3125,36.5625],[23.90625,36.5625],[23.90625,35.15625]]]},"properties":{"n":1}},{"type":"Feature","geometry":{"type":"Polygon","coordinates":[[[37.96875,23.90625],[39.375,23.90625],[39.375,25.3125],[37.96875,25.3125],[37.96875,23.90625]]]},"properties":{"n":1}},{"type":"Feature","geometry":{"type":"Polygon","coordinates":[[[18.28125,42.1875],[19.6875,42.1875],[19.6875,43.59375],[18.28125,43.59375],[18.28125,42.1875]]]},"properties":{"n":1}},{"type":"Feature","geometry":{"type":"Polygon","coordinates":[[[16.875,39.375],[18.28125,39.375],[18.28125,40.78125],[16.875,40.78125],[16.875,39.375]]]},"properties":{"n":1}},{"type":"Feature","geometry":{"type":"Polygon","coordinates":[[[12.65625,42.1875],[14.0625,42.1875],[14.0625,43.59375],[12.65625,43.59375],[12.65625,42.1875]]]},"properties":{"n":1}},{"type":"Feature","geometry":{"type":"Polygon","coordinates":[[[21.09375,36.5625],[22.5,36.5625],[22.5,37.96875],[21.09375,37.96875],[21.09375,36.5625]]]},"properties":{"n":1}},{"type":"Feature","geometry":{"type":"Polygon","coordinates":[[[11.25,37.96875],[12.65625,37.96875],[12.65625,39.375],[11.25,39.375],[11.25,37.96875]]]},"properties":{"n":1}},{"type":"Feature","geometry":{"type":"Polygon","coordinates":[[[7.03125,42.1875],[8.4375,42.1875],[8.4375,43.59375],[7.03125,43.59375],[7.03125,42.1875]]]},"properties":{"n":1}},{"type":"Feature","geometry":{"type":"Polygon","coordinates":[[[11.25,-5.625],[12.65625,-5.625],[12.65625,-4.21875],[11.25,-4.21875],[11.25,-5.625]]]},"properties":{"n":1}},{"type":"Feature","geometry":{"type":"Polygon","coordinates":[[[11.25,-7.03125],[12.65625,-7.03125],[12.65625,-5.625],[11.25,-5.625],[11.25,-7.03125]]]},"properties":{"n":1}},{"type":"Feature","geometry":{"type":"Polygon","coordinates":[[[11.25,-8.4375],[12.65625,-8.4375],[12.65625,-7.03125],[11.25,-7.03125],[11.25,-8.4375]]]},"properties":{"n":1}},{"type":"Feature","geometry":{"type":"Polygon","coordinates":[[[12.65625,-9.84375],[14.0625,-9.84375],[14.0625,-8.4375],[12.65625,-8.4375],[12.65625,-9.84375]]]},"properties":{"n":1}},{"type":"Feature","geometry":{"type":"Polygon","coordinates":[[[11.25,-16.875],[12.65625,-16.875],[12.65625,-15.46875],[11.25,-15.46875],[11.25,-16.875]]]},"properties":{"n":1}},{"type":"Feature","geometry":{"type":"Polygon","coordinates":[[[18.28125,-35.15625],[19.6875,-35.15625],[19.6875,-33.75],[18.28125,-33.75],[18.28125,-35.15625]]]},"properties":{"n":1}},{"type":"Feature","geometry":{"type":"Polygon","coordinates":[[[-5.625,56.25],[-4.21875,56.25],[-4.21875,57.65625],[-5.625,57.65625],[-5.625,56.25]]]},"properties":{"n":1}},{"type":"Feature","geometry":{"type":"Polygon","coordinates":[[[-1.40625,50.625],[0,50.625],[0,52.03125],[-1.40625,52.03125],[-1.40625,50.625]]]},"properties":{"n":1}},{"type":"Feature","geometry":{"type":"Polygon","coordinates":[[[-15.46875,54.84375],[-14.0625,54.84375],[-14.0625,56.25],[-15.46875,56.25],[-15.46875,54.84375]]]},"properties":{"n":1}},{"type":"Feature","geometry":{"type":"Polygon","coordinates":[[[-18.28125,54.84375],[-16.875,54.84375],[-16.875,56.25],[-18.28125,56.25],[-18.28125,54.84375]]]},"properties":{"n":1}},{"type":"Feature","geometry":{"type":"Polygon","coordinates":[[[-18.28125,53.4375],[-16.875,53.4375],[-16.875,54.84375],[-18.28125,54.84375],[-18.28125,53.4375]]]},"properties":{"n":1}},{"type":"Feature","geometry":{"type":"Polygon","coordinates":[[[-54.84375,52.03125],[-53.4375,52.03125],[-53.4375,53.4375],[-54.84375,53.4375],[-54.84375,52.03125]]]},"properties":{"n":1}},{"type":"Feature","geometry":{"type":"Polygon","coordinates":[[[-9.84375,40.78125],[-8.4375,40.78125],[-8.4375,42.1875],[-9.84375,42.1875],[-9.84375,40.78125]]]},"properties":{"n":1}},{"type":"Feature","geometry":{"type":"Polygon","coordinates":[[[-2.8125,35.15625],[-1.40625,35.15625],[-1.40625,36.5625],[-2.8125,36.5625],[-2.8125,35.15625]]]},"properties":{"n":1}},{"type":"Feature","geometry":{"type":"Polygon","coordinates":[[[-12.65625,28.125],[-11.25,28.125],[-11.25,29.53125],[-12.65625,29.53125],[-12.65625,28.125]]]},"properties":{"n":1}},{"type":"Feature","geometry":{"type":"Polygon","coordinates":[[[-16.875,25.3125],[-15.46875,25.3125],[-15.46875,26.71875],[-16.875,26.71875],[-16.875,25.3125]]]},"properties":{"n":1}},{"type":"Feature","geometry":{"type":"Polygon","coordinates":[[[-16.875,23.90625],[-15.46875,23.90625],[-15.46875,25.3125],[-16.875,25.3125],[-16.875,23.90625]]]},"properties":{"n":1}},{"type":"Feature","geometry":{"type":"Polygon","coordinates":[[[-26.71875,36.5625],[-25.3125,36.5625],[-25.3125,37.96875],[-26.71875,37.96875],[-26.71875,36.5625]]]},"properties":{"n":1}},{"type":"Feature","geometry":{"type":"Polygon","coordinates":[[[-29.53125,37.96875],[-28.125,37.96875],[-28.125,39.375],[-29.53125,39.375],[-29.53125,37.96875]]]},"properties":{"n":1}},{"type":"Feature","geometry":{"type":"Polygon","coordinates":[[[-18.28125,21.09375],[-16.875,21.09375],[-16.875,22.5],[-18.28125,22.5],[-18.28125,21.09375]]]},"properties":{"n":1}},{"type":"Feature","geometry":{"type":"Polygon","coordinates":[[[-53.4375,43.59375],[-52.03125,43.59375],[-52.03125,45],[-53.4375,45],[-53.4375,43.59375]]]},"properties":{"n":1}},{"type":"Feature","geometry":{"type":"Polygon","coordinates":[[[-126.5625,46.40625],[-125.15625,46.40625],[-125.15625,47.8125],[-126.5625,47.8125],[-126.5625,46.40625]]]},"properties":{"n":1}},{"type":"Feature","geometry":{"type":"Polygon","coordinates":[[[-126.5625,39.375],[-125.15625,39.375],[-125.15625,40.78125],[-126.5625,40.78125],[-126.5625,39.375]]]},"properties":{"n":1}},{"type":"Feature","geometry":{"type":"Polygon","coordinates":[[[-71.71875,-33.75],[-70.3125,-33.75],[-70.3125,-32.34375],[-71.71875,-32.34375],[-71.71875,-33.75]]]},"properties":{"n":1}},{"type":"Feature","geometry":{"type":"Polygon","coordinates":[[[-75.9375,-42.1875],[-74.53125,-42.1875],[-74.53125,-40.78125],[-75.9375,-40.78125],[-75.9375,-42.1875]]]},"properties":{"n":1}}]}