{"type":"FeatureCollection","features":[{"type":"Feature","geometry":{"type":"Polygon","coordinates":[[[-4.21875,53.4375],[-2.8125,53.4375],[-2.8125,54.84375],[-4.21875,54.84375],[-4.21875,53.4375]]]},"properties":{"n":6864}},{"type":"Feature","geometry":{"type":"Polygon","coordinates":[[[0,50.625],[1.40625,50.625],[1.40625,52.03125],[0,52.03125],[0,50.625]]]},"properties":{"n":5221}},{"type":"Feature","geometry":{"type":"Polygon","coordinates":[[[-5.625,50.625],[-4.21875,50.625],[-4.21875,52.03125],[-5.625,52.03125],[-5.625,50.625]]]},"properties":{"n":4740}},{"type":"Feature","geometry":{"type":"Polygon","coordinates":[[[1.40625,50.625],[2.8125,50.625],[2.8125,52.03125],[1.40625,52.03125],[1.40625,50.625]]]},"properties":{"n":4410}},{"type":"Feature","geometry":{"type":"Polygon","coordinates":[[[-5.625,52.03125],[-4.21875,52.03125],[-4.21875,53.4375],[-5.625,53.4375],[-5.625,52.03125]]]},"properties":{"n":3694}},{"type":"Feature","geometry":{"type":"Polygon","coordinates":[[[1.40625,52.03125],[2.8125,52.03125],[2.8125,53.4375],[1.40625,53.4375],[1.40625,52.03125]]]},"properties":{"n":2736}},{"type":"Feature","geometry":{"type":"Polygon","coordinates":[[[-4.21875,52.03125],[-2.8125,52.03125],[-2.8125,53.4375],[-4.21875,53.4375],[-4.21875,52.03125]]]},"properties":{"n":1736}},{"type":"Feature","geometry":{"type":"Polygon","coordinates":[[[-1.40625,50.625],[0,50.625],[0,52.03125],[-1.40625,52.03125],[-1.40625,50.625]]]},"properties":{"n":1703}},{"type":"Feature","geometry":{"type":"Polygon","coordinates":[[[-9.84375,54.84375],[-8.4375,54.84375],[-8.4375,56.25],[-9.84375,56.25],[-9.84375,54.84375]]]},"properties":{"n":1580}},{"type":"Feature","geometry":{"type":"Polygon","coordinates":[[[-4.21875,50.625],[-2.8125,50.625],[-2.8125,52.03125],[-4.21875,52.03125],[-4.21875,50.625]]]},"properties":{"n":1544}},{"type":"Feature","geometry":{"type":"Polygon","coordinates":[[[0,49.21875],[1.40625,49.21875],[1.40625,50.625],[0,50.625],[0,49.21875]]]},"properties":{"n":1342}},{"type":"Feature","geometry":{"type":"Polygon","coordinates":[[[-9.84375,56.25],[-8.4375,56.25],[-8.4375,57.65625],[-9.84375,57.65625],[-9.84375,56.25]]]},"properties":{"n":1292}},{"type":"Feature","geometry":{"type":"Polygon","coordinates":[[[0,52.03125],[1.40625,52.03125],[1.40625,53.4375],[0,53.4375],[0,52.03125]]]},"properties":{"n":1178}},{"type":"Feature","geometry":{"type":"Polygon","coordinates":[[[-4.21875,49.21875],[-2.8125,49.21875],[-2.8125,50.625],[-4.21875,50.625],[-4.21875,49.21875]]]},"properties":{"n":1069}},{"type":"Feature","geometry":{"type":"Polygon","coordinates":[[[-8.4375,54.84375],[-7.03125,54.84375],[-7.03125,56.25],[-8.4375,56.25],[-8.4375,54.84375]]]},"properties":{"n":1014}},{"type":"Feature","geometry":{"type":"Polygon","coordinates":[[[-2.8125,50.625],[-1.40625,50.625],[-1.40625,52.03125],[-2.8125,52.03125],[-2.8125,50.625]]]},"properties":{"n":984}},{"type":"Feature","geometry":{"type":"Polygon","coordinates":[[[-9.84375,53.4375],[-8.4375,53.4375],[-8.4375,54.84375],[-9.84375,54.84375],[-9.84375,53.4375]]]},"properties":{"n":852}},{"type":"Feature","geometry":{"type":"Polygon","coordinates":[[[-7.03125,50.625],[-5.625,50.625],[-5.625,52.03125],[-7.03125,52.03125],[-7.03125,50.625]]]},"properties":{"n":752}},{"type":"Feature","geometry":{"type":"Polygon","coordinates":[[[-2.8125,49.21875],[-1.40625,49.21875],[-1.40625,50.625],[-2.8125,50.625],[-2.8125,49.21875]]]},"properties":{"n":729}},{"type":"Feature","geometry":{"type":"Polygon","coordinates":[[[-11.25,53.4375],[-9.84375,53.4375],[-9.84375,54.84375],[-11.25,54.84375],[-11.25,53.4375]]]},"properties":{"n":710}},{"type":"Feature","geometry":{"type":"Polygon","coordinates":[[[-5.625,53.4375],[-4.21875,53.4375],[-4.21875,54.84375],[-5.625,54.84375],[-5.625,53.4375]]]},"properties":{"n":606}},{"type":"Feature","geometry":{"type":"Polygon","coordinates":[[[-8.4375,56.25],[-7.03125,56.25],[-7.03125,57.65625],[-8.4375,57.65625],[-8.4375,56.25]]]},"properties":{"n":564}},{"type":"Feature","geometry":{"type":"Polygon","coordinates":[[[-7.03125,52.03125],[-5.625,52.03125],[-5.625,53.4375],[-7.03125,53.4375],[-7.03125,52.03125]]]},"properties":{"n":560}},{"type":"Feature","geometry":{"type":"Polygon","coordinates":[[[2.8125,42.1875],[4.21875,42.1875],[4.21875,43.59375],[2.8125,43.59375],[2.8125,42.1875]]]},"properties":{"n":511}},{"type":"Feature","geometry":{"type":"Polygon","coordinates":[[[-5.625,49.21875],[-4.21875,49.21875],[-4.21875,50.625],[-5.625,50.625],[-5.625,49.21875]]]},"properties":{"n":504}},{"type":"Feature","geometry":{"type":"Polygon","coordinates":[[[4.21875,42.1875],[5.625,42.1875],[5.625,43.59375],[4.21875,43.59375],[4.21875,42.1875]]]},"properties":{"n":490}},{"type":"Feature","geometry":{"type":"Polygon","coordinates":[[[0,53.4375],[1.40625,53.4375],[1.40625,54.84375],[0,54.84375],[0,53.4375]]]},"properties":{"n":483}},{"type":"Feature","geometry":{"type":"Polygon","coordinates":[[[-9.84375,57.65625],[-8.4375,57.65625],[-8.4375,59.0625],[-9.84375,59.0625],[-9.84375,57.65625]]]},"properties":{"n":476}},{"type":"Feature","geometry":{"type":"Polygon","coordinates":[[[-1.40625,49.21875],[0,49.21875],[0,50.625],[-1.40625,50.625],[-1.40625,49.21875]]]},"properties":{"n":467}},{"type":"Feature","geometry":{"type":"Polygon","coordinates":[[[-7.03125,54.84375],[-5.625,54.84375],[-5.625,56.25],[-7.03125,56.25],[-7.03125,54.84375]]]},"properties":{"n":437}},{"type":"Feature","geometry":{"type":"Polygon","coordinates":[[[2.8125,50.625],[4.21875,50.625],[4.21875,52.03125],[2.8125,52.03125],[2.8125,50.625]]]},"properties":{"n":436}},{"type":"Feature","geometry":{"type":"Polygon","coordinates":[[[-7.03125,56.25],[-5.625,56.25],[-5.625,57.65625],[-7.03125,57.65625],[-7.03125,56.25]]]},"properties":{"n":417}},{"type":"Feature","geometry":{"type":"Polygon","coordinates":[[[-11.25,52.03125],[-9.84375,52.03125],[-9.84375,53.4375],[-11.25,53.4375],[-11.25,52.03125]]]},"properties":{"n":397}},{"type":"Feature","geometry":{"type":"Polygon","coordinates":[[[15.46875,42.1875],[16.875,42.1875],[16.875,43.59375],[15.46875,43.59375],[15.46875,42.1875]]]},"properties":{"n":395}},{"type":"Feature","geometry":{"type":"Polygon","coordinates":[[[1.40625,49.21875],[2.8125,49.21875],[2.8125,50.625],[1.40625,50.625],[1.40625,49.21875]]]},"properties":{"n":385}},{"type":"Feature","geometry":{"type":"Polygon","coordinates":[[[4.21875,52.03125],[5.625,52.03125],[5.625,53.4375],[4.21875,53.4375],[4.21875,52.03125]]]},"properties":{"n":342}},{"type":"Feature","geometry":{"type":"Polygon","coordinates":[[[1.40625,53.4375],[2.8125,53.4375],[2.8125,54.84375],[1.40625,54.84375],[1.40625,53.4375]]]},"properties":{"n":295}},{"type":"Feature","geometry":{"type":"Polygon","coordinates":[[[-4.21875,59.0625],[-2.8125,59.0625],[-2.8125,60.46875],[-4.21875,60.46875],[-4.21875,59.0625]]]},"properties":{"n":293}},{"type":"Feature","geometry":{"type":"Polygon","coordinates":[[[-7.03125,57.65625],[-5.625,57.65625],[-5.625,59.0625],[-7.03125,59.0625],[-7.03125,57.65625]]]},"properties":{"n":251}},{"type":"Feature","geometry":{"type":"Polygon","coordinates":[[[-2.8125,47.8125],[-1.40625,47.8125],[-1.40625,49.21875],[-2.8125,49.21875],[-2.8125,47.8125]]]},"properties":{"n":235}},{"type":"Feature","geometry":{"type":"Polygon","coordinates":[[[-12.65625,52.03125],[-11.25,52.03125],[-11.25,53.4375],[-12.65625,53.4375],[-12.65625,52.03125]]]},"properties":{"n":219}},{"type":"Feature","geometry":{"type":"Polygon","coordinates":[[[-15.46875,56.25],[-14.0625,56.25],[-14.0625,57.65625],[-15.46875,57.65625],[-15.46875,56.25]]]},"properties":{"n":210}},{"type":"Feature","geometry":{"type":"Polygon","coordinates":[[[-7.03125,53.4375],[-5.625,53.4375],[-5.625,54.84375],[-7.03125,54.84375],[-7.03125,53.4375]]]},"properties":{"n":188}},{"type":"Feature","geometry":{"type":"Polygon","coordinates":[[[2.8125,39.375],[4.21875,39.375],[4.21875,40.78125],[2.8125,40.78125],[2.8125,39.375]]]},"properties":{"n":183}},{"type":"Feature","geometry":{"type":"Polygon","coordinates":[[[-4.21875,46.40625],[-2.8125,46.40625],[-2.8125,47.8125],[-4.21875,47.8125],[-4.21875,46.40625]]]},"properties":{"n":179}},{"type":"Feature","geometry":{"type":"Polygon","coordinates":[[[-4.21875,45],[-2.8125,45],[-2.8125,46.40625],[-4.21875,46.40625],[-4.21875,45]]]},"properties":{"n":179}},{"type":"Feature","geometry":{"type":"Polygon","coordinates":[[[-4.21875,57.65625],[-2.8125,57.65625],[-2.8125,59.0625],[-4.21875,59.0625],[-4.21875,57.65625]]]},"properties":{"n":177}},{"type":"Feature","geometry":{"type":"Polygon","coordinates":[[[-11.25,54.84375],[-9.84375,54.84375],[-9.84375,56.25],[-11.25,56.25],[-11.25,54.84375]]]},"properties":{"n":174}},{"type":"Feature","geometry":{"type":"Polygon","coordinates":[[[4.21875,56.25],[5.625,56.25],[5.625,57.65625],[4.21875,57.65625],[4.21875,56.25]]]},"properties":{"n":173}},{"type":"Feature","geometry":{"type":"Polygon","coordinates":[[[-8.4375,57.65625],[-7.03125,57.65625],[-7.03125,59.0625],[-8.4375,59.0625],[-8.4375,57.65625]]]},"properties":{"n":172}},{"type":"Feature","geometry":{"type":"Polygon","coordinates":[[[-9.84375,52.03125],[-8.4375,52.03125],[-8.4375,53.4375],[-9.84375,53.4375],[-9.84375,52.03125]]]},"properties":{"n":166}},{"type":"Feature","geometry":{"type":"Polygon","coordinates":[[[11.25,56.25],[12.65625,56.25],[12.65625,57.65625],[11.25,57.65625],[11.25,56.25]]]},"properties":{"n":159}},{"type":"Feature","geometry":{"type":"Polygon","coordinates":[[[2.8125,56.25],[4.21875,56.25],[4.21875,57.65625],[2.8125,57.65625],[2.8125,56.25]]]},"properties":{"n":157}},{"type":"Feature","geometry":{"type":"Polygon","coordinates":[[[2.8125,52.03125],[4.21875,52.03125],[4.21875,53.4375],[2.8125,53.4375],[2.8125,52.03125]]]},"properties":{"n":157}},{"type":"Feature","geometry":{"type":"Polygon","coordinates":[[[-1.40625,54.84375],[0,54.84375],[0,56.25],[-1.40625,56.25],[-1.40625,54.84375]]]},"properties":{"n":156}},{"type":"Feature","geometry":{"type":"Polygon","coordinates":[[[0,54.84375],[1.40625,54.84375],[1.40625,56.25],[0,56.25],[0,54.84375]]]},"properties":{"n":138}},{"type":"Feature","geometry":{"type":"Polygon","coordinates":[[[-9.84375,50.625],[-8.4375,50.625],[-8.4375,52.03125],[-9.84375,52.03125],[-9.84375,50.625]]]},"properties":{"n":136}},{"type":"Feature","geometry":{"type":"Polygon","coordinates":[[[-2.8125,45],[-1.40625,45],[-1.40625,46.40625],[-2.8125,46.40625],[-2.8125,45]]]},"properties":{"n":133}},{"type":"Feature","geometry":{"type":"Polygon","coordinates":[[[1.40625,56.25],[2.8125,56.25],[2.8125,57.65625],[1.40625,57.65625],[1.40625,56.25]]]},"properties":{"n":124}},{"type":"Feature","geometry":{"type":"Polygon","coordinates":[[[2.8125,57.65625],[4.21875,57.65625],[4.21875,59.0625],[2.8125,59.0625],[2.8125,57.65625]]]},"properties":{"n":115}},{"type":"Feature","geometry":{"type":"Polygon","coordinates":[[[-7.03125,49.21875],[-5.625,49.21875],[-5.625,50.625],[-7.03125,50.625],[-7.03125,49.21875]]]},"properties":{"n":108}},{"type":"Feature","geometry":{"type":"Polygon","coordinates":[[[-8.4375,50.625],[-7.03125,50.625],[-7.03125,52.03125],[-8.4375,52.03125],[-8.4375,50.625]]]},"properties":{"n":105}},{"type":"Feature","geometry":{"type":"Polygon","coordinates":[[[1.40625,54.84375],[2.8125,54.84375],[2.8125,56.25],[1.40625,56.25],[1.40625,54.84375]]]},"properties":{"n":104}},{"type":"Feature","geometry":{"type":"Polygon","coordinates":[[[-29.53125,37.96875],[-28.125,37.96875],[-28.125,39.375],[-29.53125,39.375],[-29.53125,37.96875]]]},"properties":{"n":103}},{"type":"Feature","geometry":{"type":"Polygon","coordinates":[[[-14.0625,56.25],[-12.65625,56.25],[-12.65625,57.65625],[-14.0625,57.65625],[-14.0625,56.25]]]},"properties":{"n":94}},{"type":"Feature","geometry":{"type":"Polygon","coordinates":[[[-4.21875,54.84375],[-2.8125,54.84375],[-2.8125,56.25],[-4.21875,56.25],[-4.21875,54.84375]]]},"properties":{"n":94}},{"type":"Feature","geometry":{"type":"Polygon","coordinates":[[[-28.125,37.96875],[-26.71875,37.96875],[-26.71875,39.375],[-28.125,39.375],[-28.125,37.96875]]]},"properties":{"n":90}},{"type":"Feature","geometry":{"type":"Polygon","coordinates":[[[2.8125,37.96875],[4.21875,37.96875],[4.21875,39.375],[2.8125,39.375],[2.8125,37.96875]]]},"properties":{"n":87}},{"type":"Feature","geometry":{"type":"Polygon","coordinates":[[[4.21875,57.65625],[5.625,57.65625],[5.625,59.0625],[4.21875,59.0625],[4.21875,57.65625]]]},"properties":{"n":86}},{"type":"Feature","geometry":{"type":"Polygon","coordinates":[[[-1.40625,59.0625],[0,59.0625],[0,60.46875],[-1.40625,60.46875],[-1.40625,59.0625]]]},"properties":{"n":86}},{"type":"Feature","geometry":{"type":"Polygon","coordinates":[[[1.40625,37.96875],[2.8125,37.96875],[2.8125,39.375],[1.40625,39.375],[1.40625,37.96875]]]},"properties":{"n":85}},{"type":"Feature","geometry":{"type":"Polygon","coordinates":[[[1.40625,39.375],[2.8125,39.375],[2.8125,40.78125],[1.40625,40.78125],[1.40625,39.375]]]},"properties":{"n":83}},{"type":"Feature","geometry":{"type":"Polygon","coordinates":[[[-7.03125,47.8125],[-5.625,47.8125],[-5.625,49.21875],[-7.03125,49.21875],[-7.03125,47.8125]]]},"properties":{"n":82}},{"type":"Feature","geometry":{"type":"Polygon","coordinates":[[[18.28125,-35.15625],[19.6875,-35.15625],[19.6875,-33.75],[18.28125,-33.75],[18.28125,-35.15625]]]},"properties":{"n":74}},{"type":"Feature","geometry":{"type":"Polygon","coordinates":[[[-11.25,50.625],[-9.84375,50.625],[-9.84375,52.03125],[-11.25,52.03125],[-11.25,50.625]]]},"properties":{"n":73}},{"type":"Feature","geometry":{"type":"Polygon","coordinates":[[[-5.625,56.25],[-4.21875,56.25],[-4.21875,57.65625],[-5.625,57.65625],[-5.625,56.25]]]},"properties":{"n":70}},{"type":"Feature","geometry":{"type":"Polygon","coordinates":[[[1.40625,57.65625],[2.8125,57.65625],[2.8125,59.0625],[1.40625,59.0625],[1.40625,57.65625]]]},"properties":{"n":69}},{"type":"Feature","geometry":{"type":"Polygon","coordinates":[[[0,56.25],[1.40625,56.25],[1.40625,57.65625],[0,57.65625],[0,56.25]]]},"properties":{"n":69}},{"type":"Feature","geometry":{"type":"Polygon","coordinates":[[[4.21875,60.46875],[5.625,60.46875],[5.625,61.875],[4.21875,61.875],[4.21875,60.46875]]]},"properties":{"n":65}},{"type":"Feature","geometry":{"type":"Polygon","coordinates":[[[-5.625,46.40625],[-4.21875,46.40625],[-4.21875,47.8125],[-5.625,47.8125],[-5.625,46.40625]]]},"properties":{"n":64}},{"type":"Feature","geometry":{"type":"Polygon","coordinates":[[[-1.40625,56.25],[0,56.25],[0,57.65625],[-1.40625,57.65625],[-1.40625,56.25]]]},"properties":{"n":60}},{"type":"Feature","geometry":{"type":"Polygon","coordinates":[[[-8.4375,52.03125],[-7.03125,52.03125],[-7.03125,53.4375],[-8.4375,53.4375],[-8.4375,52.03125]]]},"properties":{"n":60}},{"type":"Feature","geometry":{"type":"Polygon","coordinates":[[[16.875,42.1875],[18.28125,42.1875],[18.28125,43.59375],[16.875,43.59375],[16.875,42.1875]]]},"properties":{"n":58}},{"type":"Feature","geometry":{"type":"Polygon","coordinates":[[[-1.40625,53.4375],[0,53.4375],[0,54.84375],[-1.40625,54.84375],[-1.40625,53.4375]]]},"properties":{"n":58}},{"type":"Feature","geometry":{"type":"Polygon","coordinates":[[[-5.625,54.84375],[-4.21875,54.84375],[-4.21875,56.25],[-5.625,56.25],[-5.625,54.84375]]]},"properties":{"n":58}},{"type":"Feature","geometry":{"type":"Polygon","coordinates":[[[5.625,56.25],[7.03125,56.25],[7.03125,57.65625],[5.625,57.65625],[5.625,56.25]]]},"properties":{"n":57}},{"type":"Feature","geometry":{"type":"Polygon","coordinates":[[[4.21875,54.84375],[5.625,54.84375],[5.625,56.25],[4.21875,56.25],[4.21875,54.84375]]]},"properties":{"n":52}},{"type":"Feature","geometry":{"type":"Polygon","coordinates":[[[4.21875,53.4375],[5.625,53.4375],[5.625,54.84375],[4.21875,54.84375],[4.21875,53.4375]]]},"properties":{"n":52}},{"type":"Feature","geometry":{"type":"Polygon","coordinates":[[[2.8125,53.4375],[4.21875,53.4375],[4.21875,54.84375],[2.8125,54.84375],[2.8125,53.4375]]]},"properties":{"n":51}},{"type":"Feature","geometry":{"type":"Polygon","coordinates":[[[-8.4375,53.4375],[-7.03125,53.4375],[-7.03125,54.84375],[-8.4375,54.84375],[-8.4375,53.4375]]]},"properties":{"n":47}},{"type":"Feature","geometry":{"type":"Polygon","coordinates":[[[1.40625,59.0625],[2.8125,59.0625],[2.8125,60.46875],[1.40625,60.46875],[1.40625,59.0625]]]},"properties":{"n":46}},{"type":"Feature","geometry":{"type":"Polygon","coordinates":[[[5.625,54.84375],[7.03125,54.84375],[7.03125,56.25],[5.625,56.25],[5.625,54.84375]]]},"properties":{"n":46}},{"type":"Feature","geometry":{"type":"Polygon","coordinates":[[[14.0625,42.1875],[15.46875,42.1875],[15.46875,43.59375],[14.0625,43.59375],[14.0625,42.1875]]]},"properties":{"n":46}},{"type":"Feature","geometry":{"type":"Polygon","coordinates":[[[-9.84375,47.8125],[-8.4375,47.8125],[-8.4375,49.21875],[-9.84375,49.21875],[-9.84375,47.8125]]]},"properties":{"n":46}},{"type":"Feature","geometry":{"type":"Polygon","coordinates":[[[5.625,61.875],[7.03125,61.875],[7.03125,63.28125],[5.625,63.28125],[5.625,61.875]]]},"properties":{"n":45}},{"type":"Feature","geometry":{"type":"Polygon","coordinates":[[[5.625,53.4375],[7.03125,53.4375],[7.03125,54.84375],[5.625,54.84375],[5.625,53.4375]]]},"properties":{"n":45}},{"type":"Feature","geometry":{"type":"Polygon","coordinates":[[[7.03125,56.25],[8.4375,56.25],[8.4375,57.65625],[7.03125,57.65625],[7.03125,56.25]]]},"properties":{"n":43}},{"type":"Feature","geometry":{"type":"Polygon","coordinates":[[[14.0625,43.59375],[15.46875,43.59375],[15.46875,45],[14.0625,45],[14.0625,43.59375]]]},"properties":{"n":42}},{"type":"Feature","geometry":{"type":"Polygon","coordinates":[[[0,59.0625],[1.40625,59.0625],[1.40625,60.46875],[0,60.46875],[0,59.0625]]]},"properties":{"n":38}},{"type":"Feature","geometry":{"type":"Polygon","coordinates":[[[4.21875,59.0625],[5.625,59.0625],[5.625,60.46875],[4.21875,60.46875],[4.21875,59.0625]]]},"properties":{"n":36}},{"type":"Feature","geometry":{"type":"Polygon","coordinates":[[[15.46875,40.78125],[16.875,40.78125],[16.875,42.1875],[15.46875,42.1875],[15.46875,40.78125]]]},"properties":{"n":35}},{"type":"Feature","geometry":{"type":"Polygon","coordinates":[[[-8.4375,49.21875],[-7.03125,49.21875],[-7.03125,50.625],[-8.4375,50.625],[-8.4375,49.21875]]]},"properties":{"n":35}},{"type":"Feature","geometry":{"type":"Polygon","coordinates":[[[-9.84375,49.21875],[-8.4375,49.21875],[-8.4375,50.625],[-9.84375,50.625],[-9.84375,49.21875]]]},"properties":{"n":34}},{"type":"Feature","geometry":{"type":"Polygon","coordinates":[[[-26.71875,36.5625],[-25.3125,36.5625],[-25.3125,37.96875],[-26.71875,37.96875],[-26.71875,36.5625]]]},"properties":{"n":34}},{"type":"Feature","geometry":{"type":"Polygon","coordinates":[[[16.875,-33.75],[18.28125,-33.75],[18.28125,-32.34375],[16.875,-32.34375],[16.875,-33.75]]]},"properties":{"n":33}},{"type":"Feature","geometry":{"type":"Polygon","coordinates":[[[-5.625,59.0625],[-4.21875,59.0625],[-4.21875,60.46875],[-5.625,60.46875],[-5.625,59.0625]]]},"properties":{"n":33}},{"type":"Feature","geometry":{"type":"Polygon","coordinates":[[[-5.625,57.65625],[-4.21875,57.65625],[-4.21875,59.0625],[-5.625,59.0625],[-5.625,57.65625]]]},"properties":{"n":33}},{"type":"Feature","geometry":{"type":"Polygon","coordinates":[[[2.8125,54.84375],[4.21875,54.84375],[4.21875,56.25],[2.8125,56.25],[2.8125,54.84375]]]},"properties":{"n":32}},{"type":"Feature","geometry":{"type":"Polygon","coordinates":[[[-1.40625,60.46875],[0,60.46875],[0,61.875],[-1.40625,61.875],[-1.40625,60.46875]]]},"properties":{"n":32}},{"type":"Feature","geometry":{"type":"Polygon","coordinates":[[[2.8125,59.0625],[4.21875,59.0625],[4.21875,60.46875],[2.8125,60.46875],[2.8125,59.0625]]]},"properties":{"n":31}},{"type":"Feature","geometry":{"type":"Polygon","coordinates":[[[-5.625,47.8125],[-4.21875,47.8125],[-4.21875,49.21875],[-5.625,49.21875],[-5.625,47.8125]]]},"properties":{"n":31}},{"type":"Feature","geometry":{"type":"Polygon","coordinates":[[[-25.3125,36.5625],[-23.90625,36.5625],[-23.90625,37.96875],[-25.3125,37.96875],[-25.3125,36.5625]]]},"properties":{"n":31}},{"type":"Feature","geometry":{"type":"Polygon","coordinates":[[[-4.21875,47.8125],[-2.8125,47.8125],[-2.8125,49.21875],[-4.21875,49.21875],[-4.21875,47.8125]]]},"properties":{"n":30}},{"type":"Feature","geometry":{"type":"Polygon","coordinates":[[[-12.65625,53.4375],[-11.25,53.4375],[-11.25,54.84375],[-12.65625,54.84375],[-12.65625,53.4375]]]},"properties":{"n":30}},{"type":"Feature","geometry":{"type":"Polygon","coordinates":[[[18.28125,40.78125],[19.6875,40.78125],[19.6875,42.1875],[18.28125,42.1875],[18.28125,40.78125]]]},"properties":{"n":28}},{"type":"Feature","geometry":{"type":"Polygon","coordinates":[[[-2.8125,57.65625],[-1.40625,57.65625],[-1.40625,59.0625],[-2.8125,59.0625],[-2.8125,57.65625]]]},"properties":{"n":28}},{"type":"Feature","geometry":{"type":"Polygon","coordinates":[[[-11.25,49.21875],[-9.84375,49.21875],[-9.84375,50.625],[-11.25,50.625],[-11.25,49.21875]]]},"properties":{"n":28}},{"type":"Feature","geometry":{"type":"Polygon","coordinates":[[[-9.84375,37.96875],[-8.4375,37.96875],[-8.4375,39.375],[-9.84375,39.375],[-9.84375,37.96875]]]},"properties":{"n":28}},{"type":"Feature","geometry":{"type":"Polygon","coordinates":[[[-2.8125,56.25],[-1.40625,56.25],[-1.40625,57.65625],[-2.8125,57.65625],[-2.8125,56.25]]]},"properties":{"n":27}},{"type":"Feature","geometry":{"type":"Polygon","coordinates":[[[-2.8125,43.59375],[-1.40625,43.59375],[-1.40625,45],[-2.8125,45],[-2.8125,43.59375]]]},"properties":{"n":27}},{"type":"Feature","geometry":{"type":"Polygon","coordinates":[[[8.4375,56.25],[9.84375,56.25],[9.84375,57.65625],[8.4375,57.65625],[8.4375,56.25]]]},"properties":{"n":26}},{"type":"Feature","geometry":{"type":"Polygon","coordinates":[[[8.4375,53.4375],[9.84375,53.4375],[9.84375,54.84375],[8.4375,54.84375],[8.4375,53.4375]]]},"properties":{"n":23}},{"type":"Feature","geometry":{"type":"Polygon","coordinates":[[[12.65625,43.59375],[14.0625,43.59375],[14.0625,45],[12.65625,45],[12.65625,43.59375]]]},"properties":{"n":23}},{"type":"Feature","geometry":{"type":"Polygon","coordinates":[[[33.75,32.34375],[35.15625,32.34375],[35.15625,33.75],[33.75,33.75],[33.75,32.34375]]]},"properties":{"n":22}},{"type":"Feature","geometry":{"type":"Polygon","coordinates":[[[4.21875,39.375],[5.625,39.375],[5.625,40.78125],[4.21875,40.78125],[4.21875,39.375]]]},"properties":{"n":22}},{"type":"Feature","geometry":{"type":"Polygon","coordinates":[[[-2.8125,54.84375],[-1.40625,54.84375],[-1.40625,56.25],[-2.8125,56.25],[-2.8125,54.84375]]]},"properties":{"n":22}},{"type":"Feature","geometry":{"type":"Polygon","coordinates":[[[8.4375,63.28125],[9.84375,63.28125],[9.84375,64.6875],[8.4375,64.6875],[8.4375,63.28125]]]},"properties":{"n":21}},{"type":"Feature","geometry":{"type":"Polygon","coordinates":[[[-32.34375,39.375],[-30.9375,39.375],[-30.9375,40.78125],[-32.34375,40.78125],[-32.34375,39.375]]]},"properties":{"n":21}},{"type":"Feature","geometry":{"type":"Polygon","coordinates":[[[0,37.96875],[1.40625,37.96875],[1.40625,39.375],[0,39.375],[0,37.96875]]]},"properties":{"n":20}},{"type":"Feature","geometry":{"type":"Polygon","coordinates":[[[33.75,30.9375],[35.15625,30.9375],[35.15625,32.34375],[33.75,32.34375],[33.75,30.9375]]]},"properties":{"n":19}},{"type":"Feature","geometry":{"type":"Polygon","coordinates":[[[7.03125,63.28125],[8.4375,63.28125],[8.4375,64.6875],[7.03125,64.6875],[7.03125,63.28125]]]},"properties":{"n":18}},{"type":"Feature","geometry":{"type":"Polygon","coordinates":[[[-2.8125,59.0625],[-1.40625,59.0625],[-1.40625,60.46875],[-2.8125,60.46875],[-2.8125,59.0625]]]},"properties":{"n":17}},{"type":"Feature","geometry":{"type":"Polygon","coordinates":[[[-8.4375,47.8125],[-7.03125,47.8125],[-7.03125,49.21875],[-8.4375,49.21875],[-8.4375,47.8125]]]},"properties":{"n":17}},{"type":"Feature","geometry":{"type":"Polygon","coordinates":[[[-2.8125,42.1875],[-1.40625,42.1875],[-1.40625,43.59375],[-2.8125,43.59375],[-2.8125,42.1875]]]},"properties":{"n":17}},{"type":"Feature","geometry":{"type":"Polygon","coordinates":[[[-9.84375,40.78125],[-8.4375,40.78125],[-8.4375,42.1875],[-9.84375,42.1875],[-9.84375,40.78125]]]},"properties":{"n":17}},{"type":"Feature","geometry":{"type":"Polygon","coordinates":[[[9.84375,57.65625],[11.25,57.65625],[11.25,59.0625],[9.84375,59.0625],[9.84375,57.65625]]]},"properties":{"n":16}},{"type":"Feature","geometry":{"type":"Polygon","coordinates":[[[0,57.65625],[1.40625,57.65625],[1.40625,59.0625],[0,59.0625],[0,57.65625]]]},"properties":{"n":16}},{"type":"Feature","geometry":{"type":"Polygon","coordinates":[[[0,39.375],[1.40625,39.375],[1.40625,40.78125],[0,40.78125],[0,39.375]]]},"properties":{"n":16}},{"type":"Feature","geometry":{"type":"Polygon","coordinates":[[[8.4375,36.5625],[9.84375,36.5625],[9.84375,37.96875],[8.4375,37.96875],[8.4375,36.5625]]]},"properties":{"n":16}},{"type":"Feature","geometry":{"type":"Polygon","coordinates":[[[14.0625,-29.53125],[15.46875,-29.53125],[15.46875,-28.125],[14.0625,-28.125],[14.0625,-29.53125]]]},"properties":{"n":16}},{"type":"Feature","geometry":{"type":"Polygon","coordinates":[[[-9.84375,42.1875],[-8.4375,42.1875],[-8.4375,43.59375],[-9.84375,43.59375],[-9.84375,42.1875]]]},"properties":{"n":16}},{"type":"Feature","geometry":{"type":"Polygon","coordinates":[[[-9.84375,39.375],[-8.4375,39.375],[-8.4375,40.78125],[-9.84375,40.78125],[-9.84375,39.375]]]},"properties":{"n":16}},{"type":"Feature","geometry":{"type":"Polygon","coordinates":[[[7.03125,53.4375],[8.4375,53.4375],[8.4375,54.84375],[7.03125,54.84375],[7.03125,53.4375]]]},"properties":{"n":15}},{"type":"Feature","geometry":{"type":"Polygon","coordinates":[[[7.03125,61.875],[8.4375,61.875],[8.4375,63.28125],[7.03125,63.28125],[7.03125,61.875]]]},"properties":{"n":14}},{"type":"Feature","geometry":{"type":"Polygon","coordinates":[[[1.40625,60.46875],[2.8125,60.46875],[2.8125,61.875],[1.40625,61.875],[1.40625,60.46875]]]},"properties":{"n":14}},{"type":"Feature","geometry":{"type":"Polygon","coordinates":[[[7.03125,54.84375],[8.4375,54.84375],[8.4375,56.25],[7.03125,56.25],[7.03125,54.84375]]]},"properties":{"n":14}},{"type":"Feature","geometry":{"type":"Polygon","coordinates":[[[5.625,59.0625],[7.03125,59.0625],[7.03125,60.46875],[5.625,60.46875],[5.625,59.0625]]]},"properties":{"n":13}},{"type":"Feature","geometry":{"type":"Polygon","coordinates":[[[4.21875,50.625],[5.625,50.625],[5.625,52.03125],[4.21875,52.03125],[4.21875,50.625]]]},"properties":{"n":13}},{"type":"Feature","geometry":{"type":"Polygon","coordinates":[[[11.25,33.75],[12.65625,33.75],[12.65625,35.15625],[11.25,35.15625],[11.25,33.75]]]},"properties":{"n":13}},{"type":"Feature","geometry":{"type":"Polygon","coordinates":[[[16.875,-35.15625],[18.28125,-35.15625],[18.28125,-33.75],[16.875,-33.75],[16.875,-35.15625]]]},"properties":{"n":13}},{"type":"Feature","geometry":{"type":"Polygon","coordinates":[[[8.4375,57.65625],[9.84375,57.65625],[9.84375,59.0625],[8.4375,59.0625],[8.4375,57.65625]]]},"properties":{"n":12}},{"type":"Feature","geometry":{"type":"Polygon","coordinates":[[[8.4375,42.1875],[9.84375,42.1875],[9.84375,43.59375],[8.4375,43.59375],[8.4375,42.1875]]]},"properties":{"n":12}},{"type":"Feature","geometry":{"type":"Polygon","coordinates":[[[7.03125,36.5625],[8.4375,36.5625],[8.4375,37.96875],[7.03125,37.96875],[7.03125,36.5625]]]},"properties":{"n":12}},{"type":"Feature","geometry":{"type":"Polygon","coordinates":[[[-1.40625,57.65625],[0,57.65625],[0,59.0625],[-1.40625,59.0625],[-1.40625,57.65625]]]},"properties":{"n":12}},{"type":"Feature","geometry":{"type":"Polygon","coordinates":[[[0,60.46875],[1.40625,60.46875],[1.40625,61.875],[0,61.875],[0,60.46875]]]},"properties":{"n":11}},{"type":"Feature","geometry":{"type":"Polygon","coordinates":[[[11.25,-8.4375],[12.65625,-8.4375],[12.65625,-7.03125],[11.25,-7.03125],[11.25,-8.4375]]]},"properties":{"n":11}},{"type":"Feature","geometry":{"type":"Polygon","coordinates":[[[12.65625,-9.84375],[14.0625,-9.84375],[14.0625,-8.4375],[12.65625,-8.4375],[12.65625,-9.84375]]]},"properties":{"n":11}},{"type":"Feature","geometry":{"type":"Polygon","coordinates":[[[18.28125,-36.5625],[19.6875,-36.5625],[19.6875,-35.15625],[18.28125,-35.15625],[18.28125,-36.5625]]]},"properties":{"n":11}},{"type":"Feature","geometry":{"type":"Polygon","coordinates":[[[-2.8125,53.4375],[-1.40625,53.4375],[-1.40625,54.84375],[-2.8125,54.84375],[-2.8125,53.4375]]]},"properties":{"n":11}},{"type":"Feature","geometry":{"type":"Polygon","coordinates":[[[11.25,36.5625],[12.65625,36.5625],[12.65625,37.96875],[11.25,37.96875],[11.25,36.5625]]]},"properties":{"n":10}},{"type":"Feature","geometry":{"type":"Polygon","coordinates":[[[9.84375,36.5625],[11.25,36.5625],[11.25,37.96875],[9.84375,37.96875],[9.84375,36.5625]]]},"properties":{"n":10}},{"type":"Feature","geometry":{"type":"Polygon","coordinates":[[[14.0625,-28.125],[15.46875,-28.125],[15.46875,-26.71875],[14.0625,-26.71875],[14.0625,-28.125]]]},"properties":{"n":10}},{"type":"Feature","geometry":{"type":"Polygon","coordinates":[[[5.625,57.65625],[7.03125,57.65625],[7.03125,59.0625],[5.625,59.0625],[5.625,57.65625]]]},"properties":{"n":9}},{"type":"Feature","geometry":{"type":"Polygon","coordinates":[[[12.65625,45],[14.0625,45],[14.0625,46.40625],[12.65625,46.40625],[12.65625,45]]]},"properties":{"n":9}},{"type":"Feature","geometry":{"type":"Polygon","coordinates":[[[11.25,-7.03125],[12.65625,-7.03125],[12.65625,-5.625],[11.25,-5.625],[11.25,-7.03125]]]},"properties":{"n":9}},{"type":"Feature","geometry":{"type":"Polygon","coordinates":[[[15.46875,-29.53125],[16.875,-29.53125],[16.875,-28.125],[15.46875,-28.125],[15.46875,-29.53125]]]},"properties":{"n":9}},{"type":"Feature","geometry":{"type":"Polygon","coordinates":[[[2.8125,60.46875],[4.21875,60.46875],[4.21875,61.875],[2.8125,61.875],[2.8125,60.46875]]]},"properties":{"n":8}},{"type":"Feature","geometry":{"type":"Polygon","coordinates":[[[12.65625,-11.25],[14.0625,-11.25],[14.0625,-9.84375],[12.65625,-9.84375],[12.65625,-11.25]]]},"properties":{"n":8}},{"type":"Feature","geometry":{"type":"Polygon","coordinates":[[[-2.8125,52.03125],[-1.40625,52.03125],[-1.40625,53.4375],[-2.8125,53.4375],[-2.8125,52.03125]]]},"properties":{"n":8}},{"type":"Feature","geometry":{"type":"Polygon","coordinates":[[[-1.40625,45],[0,45],[0,46.40625],[-1.40625,46.40625],[-1.40625,45]]]},"properties":{"n":8}},{"type":"Feature","geometry":{"type":"Polygon","coordinates":[[[-14.0625,53.4375],[-12.65625,53.4375],[-12.65625,54.84375],[-14.0625,54.84375],[-14.0625,53.4375]]]},"properties":{"n":8}},{"type":"Feature","geometry":{"type":"Polygon","coordinates":[[[15.46875,70.3125],[16.875,70.3125],[16.875,71.71875],[15.46875,71.71875],[15.46875,70.3125]]]},"properties":{"n":7}},{"type":"Feature","geometry":{"type":"Polygon","coordinates":[[[18.28125,39.375],[19.6875,39.375],[19.6875,40.78125],[18.28125,40.78125],[18.28125,39.375]]]},"properties":{"n":7}},{"type":"Feature","geometry":{"type":"Polygon","coordinates":[[[12.65625,-23.90625],[14.0625,-23.90625],[14.0625,-22.5],[12.65625,-22.5],[12.65625,-23.90625]]]},"properties":{"n":7}},{"type":"Feature","geometry":{"type":"Polygon","coordinates":[[[15.46875,-30.9375],[16.875,-30.9375],[16.875,-29.53125],[15.46875,-29.53125],[15.46875,-30.9375]]]},"properties":{"n":7}},{"type":"Feature","geometry":{"type":"Polygon","coordinates":[[[-2.8125,46.40625],[-1.40625,46.40625],[-1.40625,47.8125],[-2.8125,47.8125],[-2.8125,46.40625]]]},"properties":{"n":7}},{"type":"Feature","geometry":{"type":"Polygon","coordinates":[[[-1.40625,39.375],[0,39.375],[0,40.78125],[-1.40625,40.78125],[-1.40625,39.375]]]},"properties":{"n":7}},{"type":"Feature","geometry":{"type":"Polygon","coordinates":[[[36.5625,43.59375],[37.96875,43.59375],[37.96875,45],[36.5625,45],[36.5625,43.59375]]]},"properties":{"n":6}},{"type":"Feature","geometry":{"type":"Polygon","coordinates":[[[30.9375,33.75],[32.34375,33.75],[32.34375,35.15625],[30.9375,35.15625],[30.9375,33.75]]]},"properties":{"n":6}},{"type":"Feature","geometry":{"type":"Polygon","coordinates":[[[9.84375,35.15625],[11.25,35.15625],[11.25,36.5625],[9.84375,36.5625],[9.84375,35.15625]]]},"properties":{"n":6}},{"type":"Feature","geometry":{"type":"Polygon","coordinates":[[[12.65625,-12.65625],[14.0625,-12.65625],[14.0625,-11.25],[12.65625,-11.25],[12.65625,-12.65625]]]},"properties":{"n":6}},{"type":"Feature","geometry":{"type":"Polygon","coordinates":[[[25.3125,-35.15625],[26.71875,-35.15625],[26.71875,-33.75],[25.3125,-33.75],[25.3125,-35.15625]]]},"properties":{"n":6}},{"type":"Feature","geometry":{"type":"Polygon","coordinates":[[[16.875,-32.34375],[18.28125,-32.34375],[18.28125,-30.9375],[16.875,-30.9375],[16.875,-32.34375]]]},"properties":{"n":6}},{"type":"Feature","geometry":{"type":"Polygon","coordinates":[[[14.0625,-30.9375],[15.46875,-30.9375],[15.46875,-29.53125],[14.0625,-29.53125],[14.0625,-30.9375]]]},"properties":{"n":6}},{"type":"Feature","geometry":{"type":"Polygon","coordinates":[[[-2.8125,60.46875],[-1.40625,60.46875],[-1.40625,61.875],[-2.8125,61.875],[-2.8125,60.46875]]]},"properties":{"n":6}},{"type":"Feature","geometry":{"type":"Polygon","coordinates":[[[-11.25,45],[-9.84375,45],[-9.84375,46.40625],[-11.25,46.40625],[-11.25,45]]]},"properties":{"n":6}},{"type":"Feature","geometry":{"type":"Polygon","coordinates":[[[-8.4375,36.5625],[-7.03125,36.5625],[-7.03125,37.96875],[-8.4375,37.96875],[-8.4375,36.5625]]]},"properties":{"n":6}},{"type":"Feature","geometry":{"type":"Polygon","coordinates":[[[14.0625,71.71875],[15.46875,71.71875],[15.46875,73.125],[14.0625,73.125],[14.0625,71.71875]]]},"properties":{"n":5}},{"type":"Feature","geometry":{"type":"Polygon","coordinates":[[[7.03125,43.59375],[8.4375,43.59375],[8.4375,45],[7.03125,45],[7.03125,43.59375]]]},"properties":{"n":5}},{"type":"Feature","geometry":{"type":"Polygon","coordinates":[[[-7.03125,59.0625],[-5.625,59.0625],[-5.625,60.46875],[-7.03125,60.46875],[-7.03125,59.0625]]]},"properties":{"n":5}},{"type":"Feature","geometry":{"type":"Polygon","coordinates":[[[-14.0625,57.65625],[-12.65625,57.65625],[-12.65625,59.0625],[-14.0625,59.0625],[-14.0625,57.65625]]]},"properties":{"n":5}},{"type":"Feature","geometry":{"type":"Polygon","coordinates":[[[-15.46875,54.84375],[-14.0625,54.84375],[-14.0625,56.25],[-15.46875,56.25],[-15.46875,54.84375]]]},"properties":{"n":5}},{"type":"Feature","geometry":{"type":"Polygon","coordinates":[[[-12.65625,50.625],[-11.25,50.625],[-11.25,52.03125],[-12.65625,52.03125],[-12.65625,50.625]]]},"properties":{"n":5}},{"type":"Feature","geometry":{"type":"Polygon","coordinates":[[[-32.34375,37.96875],[-30.9375,37.96875],[-30.9375,39.375],[-32.34375,39.375],[-32.34375,37.96875]]]},"properties":{"n":5}},{"type":"Feature","geometry":{"type":"Polygon","coordinates":[[[9.84375,77.34375],[11.25,77.34375],[11.25,78.75],[9.84375,78.75],[9.84375,77.34375]]]},"properties":{"n":4}},{"type":"Feature","geometry":{"type":"Polygon","coordinates":[[[9.84375,64.6875],[11.25,64.6875],[11.25,66.09375],[9.84375,66.09375],[9.84375,64.6875]]]},"properties":{"n":4}},{"type":"Feature","geometry":{"type":"Polygon","coordinates":[[[14.0625,45],[15.46875,45],[15.46875,46.40625],[14.0625,46.40625],[14.0625,45]]]},"properties":{"n":4}},{"type":"Feature","geometry":{"type":"Polygon","coordinates":[[[32.34375,33.75],[33.75,33.75],[33.75,35.15625],[32.34375,35.15625],[32.34375,33.75]]]},"properties":{"n":4}},{"type":"Feature","geometry":{"type":"Polygon","coordinates":[[[11.25,43.59375],[12.65625,43.59375],[12.65625,45],[11.25,45],[11.25,43.59375]]]},"properties":{"n":4}},{"type":"Feature","geometry":{"type":"Polygon","coordinates":[[[-7.03125,36.5625],[-5.625,36.5625],[-5.625,37.96875],[-7.03125,37.96875],[-7.03125,36.5625]]]},"properties":{"n":4}},{"type":"Feature","geometry":{"type":"Polygon","coordinates":[[[-9.84375,30.9375],[-8.4375,30.9375],[-8.4375,32.34375],[-9.84375,32.34375],[-9.84375,30.9375]]]},"properties":{"n":4}},{"type":"Feature","geometry":{"type":"Polygon","coordinates":[[[-29.53125,36.5625],[-28.125,36.5625],[-28.125,37.96875],[-29.53125,37.96875],[-29.53125,36.5625]]]},"properties":{"n":4}},{"type":"Feature","geometry":{"type":"Polygon","coordinates":[[[23.90625,70.3125],[25.3125,70.3125],[25.3125,71.71875],[23.90625,71.71875],[23.90625,70.3125]]]},"properties":{"n":3}},{"type":"Feature","geometry":{"type":"Polygon","coordinates":[[[16.875,70.3125],[18.28125,70.3125],[18.28125,71.71875],[16.875,71.71875],[16.875,70.3125]]]},"properties":{"n":3}},{"type":"Feature","geometry":{"type":"Polygon","coordinates":[[[15.46875,71.71875],[16.875,71.71875],[16.875,73.125],[15.46875,73.125],[15.46875,71.71875]]]},"properties":{"n":3}},{"type":"Feature","geometry":{"type":"Polygon","coordinates":[[[32.34375,45],[33.75,45],[33.75,46.40625],[32.34375,46.40625],[32.34375,45]]]},"properties":{"n":3}},{"type":"Feature","geometry":{"type":"Polygon","coordinates":[[[22.5,39.375],[23.90625,39.375],[23.90625,40.78125],[22.5,40.78125],[22.5,39.375]]]},"properties":{"n":3}},{"type":"Feature","geometry":{"type":"Polygon","coordinates":[[[23.90625,36.5625],[25.3125,36.5625],[25.3125,37.96875],[23.90625,37.96875],[23.90625,36.5625]]]},"properties":{"n":3}},{"type":"Feature","geometry":{"type":"Polygon","coordinates":[[[1.40625,40.78125],[2.8125,40.78125],[2.8125,42.1875],[1.40625,42.1875],[1.40625,40.78125]]]},"properties":{"n":3}},{"type":"Feature","geometry":{"type":"Polygon","coordinates":[[[11.25,-5.625],[12.65625,-5.625],[12.65625,-4.21875],[11.25,-4.21875],[11.25,-5.625]]]},"properties":{"n":3}},{"type":"Feature","geometry":{"type":"Polygon","coordinates":[[[11.25,-9.84375],[12.65625,-9.84375],[12.65625,-8.4375],[11.25,-8.4375],[11.25,-9.84375]]]},"properties":{"n":3}},{"type":"Feature","geometry":{"type":"Polygon","coordinates":[[[14.0625,-23.90625],[15.46875,-23.90625],[15.46875,-22.5],[14.0625,-22.5],[14.0625,-23.90625]]]},"properties":{"n":3}},{"type":"Feature","geometry":{"type":"Polygon","coordinates":[[[12.65625,-25.3125],[14.0625,-25.3125],[14.0625,-23.90625],[12.65625,-23.90625],[12.65625,-25.3125]]]},"properties":{"n":3}},{"type":"Feature","geometry":{"type":"Polygon","coordinates":[[[16.875,-30.9375],[18.28125,-30.9375],[18.28125,-29.53125],[16.875,-29.53125],[16.875,-30.9375]]]},"properties":{"n":3}},{"type":"Feature","geometry":{"type":"Polygon","coordinates":[[[21.09375,-35.15625],[22.5,-35.15625],[22.5,-33.75],[21.09375,-33.75],[21.09375,-35.15625]]]},"properties":{"n":3}},{"type":"Feature","geometry":{"type":"Polygon","coordinates":[[[19.6875,-35.15625],[21.09375,-35.15625],[21.09375,-33.75],[19.6875,-33.75],[19.6875,-35.15625]]]},"properties":{"n":3}},{"type":"Feature","geometry":{"type":"Polygon","coordinates":[[[-1.40625,47.8125],[0,47.8125],[0,49.21875],[-1.40625,49.21875],[-1.40625,47.8125]]]},"properties":{"n":3}},{"type":"Feature","geometry":{"type":"Polygon","coordinates":[[[-14.0625,52.03125],[-12.65625,52.03125],[-12.65625,53.4375],[-14.0625,53.4375],[-14.0625,52.03125]]]},"properties":{"n":3}},{"type":"Feature","geometry":{"type":"Polygon","coordinates":[[[-5.625,42.1875],[-4.21875,42.1875],[-4.21875,43.59375],[-5.625,43.59375],[-5.625,42.1875]]]},"properties":{"n":3}},{"type":"Feature","geometry":{"type":"Polygon","coordinates":[[[-1.40625,37.96875],[0,37.96875],[0,39.375],[-1.40625,39.375],[-1.40625,37.96875]]]},"properties":{"n":3}},{"type":"Feature","geometry":{"type":"Polygon","coordinates":[[[36.5625,70.3125],[37.96875,70.3125],[37.96875,71.71875],[36.5625,71.71875],[36.5625,70.3125]]]},"properties":{"n":2}},{"type":"Feature","geometry":{"type":"Polygon","coordinates":[[[28.125,70.3125],[29.53125,70.3125],[29.53125,71.71875],[28.125,71.71875],[28.125,70.3125]]]},"properties":{"n":2}},{"type":"Feature","geometry":{"type":"Polygon","coordinates":[[[26.71875,70.3125],[28.125,70.3125],[28.125,71.71875],[26.71875,71.71875],[26.71875,70.3125]]]},"properties":{"n":2}},{"type":"Feature","geometry":{"type":"Polygon","coordinates":[[[22.5,70.3125],[23.90625,70.3125],[23.90625,71.71875],[22.5,71.71875],[22.5,70.3125]]]},"properties":{"n":2}},{"type":"Feature","geometry":{"type":"Polygon","coordinates":[[[15.46875,74.53125],[16.875,74.53125],[16.875,75.9375],[15.46875,75.9375],[15.46875,74.53125]]]},"properties":{"n":2}},{"type":"Feature","geometry":{"type":"Polygon","coordinates":[[[14.0625,73.125],[15.46875,73.125],[15.46875,74.53125],[14.0625,74.53125],[14.0625,73.125]]]},"properties":{"n":2}},{"type":"Feature","geometry":{"type":"Polygon","coordinates":[[[21.09375,70.3125],[22.5,70.3125],[22.5,71.71875],[21.09375,71.71875],[21.09375,70.3125]]]},"properties":{"n":2}},{"type":"Feature","geometry":{"type":"Polygon","coordinates":[[[19.6875,70.3125],[21.09375,70.3125],[21.09375,71.71875],[19.6875,71.71875],[19.6875,70.3125]]]},"properties":{"n":2}},{"type":"Feature","geometry":{"type":"Polygon","coordinates":[[[19.6875,68.90625],[21.09375,68.90625],[21.09375,70.3125],[19.6875,70.3125],[19.6875,68.90625]]]},"properties":{"n":2}},{"type":"Feature","geometry":{"type":"Polygon","coordinates":[[[15.46875,68.90625],[16.875,68.90625],[16.875,70.3125],[15.46875,70.3125],[15.46875,68.90625]]]},"properties":{"n":2}},{"type":"Feature","geometry":{"type":"Polygon","coordinates":[[[14.0625,68.90625],[15.46875,68.90625],[15.46875,70.3125],[14.0625,70.3125],[14.0625,68.90625]]]},"properties":{"n":2}},{"type":"Feature","geometry":{"type":"Polygon","coordinates":[[[11.25,64.6875],[12.65625,64.6875],[12.65625,66.09375],[11.25,66.09375],[11.25,64.6875]]]},"properties":{"n":2}},{"type":"Feature","geometry":{"type":"Polygon","coordinates":[[[9.84375,63.28125],[11.25,63.28125],[11.25,64.6875],[9.84375,64.6875],[9.84375,63.28125]]]},"properties":{"n":2}},{"type":"Feature","geometry":{"type":"Polygon","coordinates":[[[8.4375,54.84375],[9.84375,54.84375],[9.84375,56.25],[8.4375,56.25],[8.4375,54.84375]]]},"properties":{"n":2}},{"type":"Feature","geometry":{"type":"Polygon","coordinates":[[[35.15625,43.59375],[36.5625,43.59375],[36.5625,45],[35.15625,45],[35.15625,43.59375]]]},"properties":{"n":2}},{"type":"Feature","geometry":{"type":"Polygon","coordinates":[[[28.125,40.78125],[29.53125,40.78125],[29.53125,42.1875],[28.125,42.1875],[28.125,40.78125]]]},"properties":{"n":2}},{"type":"Feature","geometry":{"type":"Polygon","coordinates":[[[14.0625,36.5625],[15.46875,36.5625],[15.46875,37.96875],[14.0625,37.96875],[14.0625,36.5625]]]},"properties":{"n":2}},{"type":"Feature","geometry":{"type":"Polygon","coordinates":[[[14.0625,33.75],[15.46875,33.75],[15.46875,35.15625],[14.0625,35.15625],[14.0625,33.75]]]},"properties":{"n":2}},{"type":"Feature","geometry":{"type":"Polygon","coordinates":[[[11.25,35.15625],[12.65625,35.15625],[12.65625,36.5625],[11.25,36.5625],[11.25,35.15625]]]},"properties":{"n":2}},{"type":"Feature","geometry":{"type":"Polygon","coordinates":[[[12.65625,33.75],[14.0625,33.75],[14.0625,35.15625],[12.65625,35.15625],[12.65625,33.75]]]},"properties":{"n":2}},{"type":"Feature","geometry":{"type":"Polygon","coordinates":[[[8.4375,43.59375],[9.84375,43.59375],[9.84375,45],[8.4375,45],[8.4375,43.59375]]]},"properties":{"n":2}},{"type":"Feature","geometry":{"type":"Polygon","coordinates":[[[9.84375,42.1875],[11.25,42.1875],[11.25,43.59375],[9.84375,43.59375],[9.84375,42.1875]]]},"properties":{"n":2}},{"type":"Feature","geometry":{"type":"Polygon","coordinates":[[[9.84375,33.75],[11.25,33.75],[11.25,35.15625],[9.84375,35.15625],[9.84375,33.75]]]},"properties":{"n":2}},{"type":"Feature","geometry":{"type":"Polygon","coordinates":[[[2.8125,36.5625],[4.21875,36.5625],[4.21875,37.96875],[2.8125,37.96875],[2.8125,36.5625]]]},"properties":{"n":2}},{"type":"Feature","geometry":{"type":"Polygon","coordinates":[[[12.65625,-8.4375],[14.0625,-8.4375],[14.0625,-7.03125],[12.65625,-7.03125],[12.65625,-8.4375]]]},"properties":{"n":2}},{"type":"Feature","geometry":{"type":"Polygon","coordinates":[[[11.25,-15.46875],[12.65625,-15.46875],[12.65625,-14.0625],[11.25,-14.0625],[11.25,-15.46875]]]},"properties":{"n":2}},{"type":"Feature","geometry":{"type":"Polygon","coordinates":[[[11.25,-18.28125],[12.65625,-18.28125],[12.65625,-16.875],[11.25,-16.875],[11.25,-18.28125]]]},"properties":{"n":2}},{"type":"Feature","geometry":{"type":"Polygon","coordinates":[[[32.34375,-28.125],[33.75,-28.125],[33.75,-26.71875],[32.34375,-26.71875],[32.34375,-28.125]]]},"properties":{"n":2}},{"type":"Feature","geometry":{"type":"Polygon","coordinates":[[[26.71875,-33.75],[28.125,-33.75],[28.125,-32.34375],[26.71875,-32.34375],[26.71875,-33.75]]]},"properties":{"n":2}},{"type":"Feature","geometry":{"type":"Polygon","coordinates":[[[14.0625,-26.71875],[15.46875,-26.71875],[15.46875,-25.3125],[14.0625,-25.3125],[14.0625,-26.71875]]]},"properties":{"n":2}},{"type":"Feature","geometry":{"type":"Polygon","coordinates":[[[12.65625,-26.71875],[14.0625,-26.71875],[14.0625,-25.3125],[12.65625,-25.3125],[12.65625,-26.71875]]]},"properties":{"n":2}},{"type":"Feature","geometry":{"type":"Polygon","coordinates":[[[12.65625,-28.125],[14.0625,-28.125],[14.0625,-26.71875],[12.65625,-26.71875],[12.65625,-28.125]]]},"properties":{"n":2}},{"type":"Feature","geometry":{"type":"Polygon","coordinates":[[[15.46875,-32.34375],[16.875,-32.34375],[16.875,-30.9375],[15.46875,-30.9375],[15.46875,-32.34375]]]},"properties":{"n":2}},{"type":"Feature","geometry":{"type":"Polygon","coordinates":[[[-7.03125,43.59375],[-5.625,43.59375],[-5.625,45],[-7.03125,45],[-7.03125,43.59375]]]},"properties":{"n":2}},{"type":"Feature","geometry":{"type":"Polygon","coordinates":[[[-9.84375,36.5625],[-8.4375,36.5625],[-8.4375,37.96875],[-9.84375,37.96875],[-9.84375,36.5625]]]},"properties":{"n":2}},{"type":"Feature","geometry":{"type":"Polygon","coordinates":[[[-7.03125,35.15625],[-5.625,35.15625],[-5.625,36.5625],[-7.03125,36.5625],[-7.03125,35.15625]]]},"properties":{"n":2}},{"type":"Feature","geometry":{"type":"Polygon","coordinates":[[[-30.9375,37.96875],[-29.53125,37.96875],[-29.53125,39.375],[-30.9375,39.375],[-30.9375,37.96875]]]},"properties":{"n":2}},{"type":"Feature","geometry":{"type":"Polygon","coordinates":[[[46.40625,71.71875],[47.8125,71.71875],[47.8125,73.125],[46.40625,73.125],[46.40625,71.71875]]]},"properties":{"n":1}},{"type":"Feature","geometry":{"type":"Polygon","coordinates":[[[46.40625,70.3125],[47.8125,70.3125],[47.8125,71.71875],[46.40625,71.71875],[46.40625,70.3125]]]},"properties":{"n":1}},{"type":"Feature","geometry":{"type":"Polygon","coordinates":[[[36.5625,71.71875],[37.96875,71.71875],[37.96875,73.125],[36.5625,73.125],[36.5625,71.71875]]]},"properties":{"n":1}},{"type":"Feature","geometry":{"type":"Polygon","coordinates":[[[37.96875,70.3125],[39.375,70.3125],[39.375,71.71875],[37.96875,71.71875],[37.96875,70.3125]]]},"properties":{"n":1}},{"type":"Feature","geometry":{"type":"Polygon","coordinates":[[[33.75,70.3125],[35.15625,70.3125],[35.15625,71.71875],[33.75,71.71875],[33.75,70.3125]]]},"properties":{"n":1}},{"type":"Feature","geometry":{"type":"Polygon","coordinates":[[[32.34375,70.3125],[33.75,70.3125],[33.75,71.71875],[32.34375,71.71875],[32.34375,70.3125]]]},"properties":{"n":1}},{"type":"Feature","geometry":{"type":"Polygon","coordinates":[[[29.53125,71.71875],[30.9375,71.71875],[30.9375,73.125],[29.53125,73.125],[29.53125,71.71875]]]},"properties":{"n":1}},{"type":"Feature","geometry":{"type":"Polygon","coordinates":[[[29.53125,70.3125],[30.9375,70.3125],[30.9375,71.71875],[29.53125,71.71875],[29.53125,70.3125]]]},"properties":{"n":1}},{"type":"Feature","geometry":{"type":"Polygon","coordinates":[[[30.9375,68.90625],[32.34375,68.90625],[32.34375,70.3125],[30.9375,70.3125],[30.9375,68.90625]]]},"properties":{"n":1}},{"type":"Feature","geometry":{"type":"Polygon","coordinates":[[[7.03125,78.75],[8.4375,78.75],[8.4375,80.15625],[7.03125,80.15625],[7.03125,78.75]]]},"properties":{"n":1}},{"type":"Feature","geometry":{"type":"Polygon","coordinates":[[[14.0625,74.53125],[15.46875,74.53125],[15.46875,75.9375],[14.0625,75.9375],[14.0625,74.53125]]]},"properties":{"n":1}},{"type":"Feature","geometry":{"type":"Polygon","coordinates":[[[15.46875,73.125],[16.875,73.125],[16.875,74.53125],[15.46875,74.53125],[15.46875,73.125]]]},"properties":{"n":1}},{"type":"Feature","geometry":{"type":"Polygon","coordinates":[[[18.28125,70.3125],[19.6875,70.3125],[19.6875,71.71875],[18.28125,71.71875],[18.28125,70.3125]]]},"properties":{"n":1}},{"type":"Feature","geometry":{"type":"Polygon","coordinates":[[[18.28125,68.90625],[19.6875,68.90625],[19.6875,70.3125],[18.28125,70.3125],[18.28125,68.90625]]]},"properties":{"n":1}},{"type":"Feature","geometry":{"type":"Polygon","coordinates":[[[15.46875,67.5],[16.875,67.5],[16.875,68.90625],[15.46875,68.90625],[15.46875,67.5]]]},"properties":{"n":1}},{"type":"Feature","geometry":{"type":"Polygon","coordinates":[[[12.65625,67.5],[14.0625,67.5],[14.0625,68.90625],[12.65625,68.90625],[12.65625,67.5]]]},"properties":{"n":1}},{"type":"Feature","geometry":{"type":"Polygon","coordinates":[[[35.15625,45],[36.5625,45],[36.5625,46.40625],[35.15625,46.40625],[35.15625,45]]]},"properties":{"n":1}},{"type":"Feature","geometry":{"type":"Polygon","coordinates":[[[11.25,66.09375],[12.65625,66.09375],[12.65625,67.5],[11.25,67.5],[11.25,66.09375]]]},"properties":{"n":1}},{"type":"Feature","geometry":{"type":"Polygon","coordinates":[[[11.25,63.28125],[12.65625,63.28125],[12.65625,64.6875],[11.25,64.6875],[11.25,63.28125]]]},"properties":{"n":1}},{"type":"Feature","geometry":{"type":"Polygon","coordinates":[[[19.6875,59.0625],[21.09375,59.0625],[21.09375,60.46875],[19.6875,60.46875],[19.6875,59.0625]]]},"properties":{"n":1}},{"type":"Feature","geometry":{"type":"Polygon","coordinates":[[[11.25,57.65625],[12.65625,57.65625],[12.65625,59.0625],[11.25,59.0625],[11.25,57.65625]]]},"properties":{"n":1}},{"type":"Feature","geometry":{"type":"Polygon","coordinates":[[[8.4375,64.6875],[9.84375,64.6875],[9.84375,66.09375],[8.4375,66.09375],[8.4375,64.6875]]]},"properties":{"n":1}},{"type":"Feature","geometry":{"type":"Polygon","coordinates":[[[5.625,63.28125],[7.03125,63.28125],[7.03125,64.6875],[5.625,64.6875],[5.625,63.28125]]]},"properties":{"n":1}},{"type":"Feature","geometry":{"type":"Polygon","coordinates":[[[0,61.875],[1.40625,61.875],[1.40625,63.28125],[0,63.28125],[0,61.875]]]},"properties":{"n":1}},{"type":"Feature","geometry":{"type":"Polygon","coordinates":[[[9.84375,59.0625],[11.25,59.0625],[11.25,60.46875],[9.84375,60.46875],[9.84375,59.0625]]]},"properties":{"n":1}},{"type":"Feature","geometry":{"type":"Polygon","coordinates":[[[5.625,49.21875],[7.03125,49.21875],[7.03125,50.625],[5.625,50.625],[5.625,49.21875]]]},"properties":{"n":1}},{"type":"Feature","geometry":{"type":"Polygon","coordinates":[[[40.78125,40.78125],[42.1875,40.78125],[42.1875,42.1875],[40.78125,42.1875],[40.78125,40.78125]]]},"properties":{"n":1}},{"type":"Feature","geometry":{"type":"Polygon","coordinates":[[[37.96875,43.59375],[39.375,43.59375],[39.375,45],[37.96875,45],[37.96875,43.59375]]]},"properties":{"n":1}},{"type":"Feature","geometry":{"type":"Polygon","coordinates":[[[33.75,43.59375],[35.15625,43.59375],[35.15625,45],[33.75,45],[33.75,43.59375]]]},"properties":{"n":1}},{"type":"Feature","geometry":{"type":"Polygon","coordinates":[[[32.34375,43.59375],[33.75,43.59375],[33.75,45],[32.34375,45],[32.34375,43.59375]]]},"properties":{"n":1}},{"type":"Feature","geometry":{"type":"Polygon","coordinates":[[[25.3125,39.375],[26.71875,39.375],[26.71875,40.78125],[25.3125,40.78125],[25.3125,39.375]]]},"properties":{"n":1}},{"type":"Feature","geometry":{"type":"Polygon","coordinates":[[[25.3125,37.96875],[26.71875,37.96875],[26.71875,39.375],[25.3125,39.375],[25.3125,37.96875]]]},"properties":{"n":1}},{"type":"Feature","geometry":{"type":"Polygon","coordinates":[[[23.90625,37.96875],[25.3125,37.96875],[25.3125,39.375],[23.90625,39.375],[23.90625,37.96875]]]},"properties":{"n":1}},{"type":"Feature","geometry":{"type":"Polygon","coordinates":[[[16.875,40.78125],[18.28125,40.78125],[18.28125,42.1875],[16.875,42.1875],[16.875,40.78125]]]},"properties":{"n":1}},{"type":"Feature","geometry":{"type":"Polygon","coordinates":[[[12.65625,42.1875],[14.0625,42.1875],[14.0625,43.59375],[12.65625,43.59375],[12.65625,42.1875]]]},"properties":{"n":1}},{"type":"Feature","geometry":{"type":"Polygon","coordinates":[[[14.0625,40.78125],[15.46875,40.78125],[15.46875,42.1875],[14.0625,42.1875],[14.0625,40.78125]]]},"properties":{"n":1}},{"type":"Feature","geometry":{"type":"Polygon","coordinates":[[[14.0625,39.375],[15.46875,39.375],[15.46875,40.78125],[14.0625,40.78125],[14.0625,39.375]]]},"properties":{"n":1}},{"type":"Feature","geometry":{"type":"Polygon","coordinates":[[[19.6875,37.96875],[21.09375,37.96875],[21.09375,39.375],[19.6875,39.375],[19.6875,37.96875]]]},"properties":{"n":1}},{"type":"Feature","geometry":{"type":"Polygon","coordinates":[[[14.0625,35.15625],[15.46875,35.15625],[15.46875,36.5625],[14.0625,36.5625],[14.0625,35.15625]]]},"properties":{"n":1}},{"type":"Feature","geometry":{"type":"Polygon","coordinates":[[[9.84375,43.59375],[11.25,43.59375],[11.25,45],[9.84375,45],[9.84375,43.59375]]]},"properties":{"n":1}},{"type":"Feature","geometry":{"type":"Polygon","coordinates":[[[7.03125,42.1875],[8.4375,42.1875],[8.4375,43.59375],[7.03125,43.59375],[7.03125,42.1875]]]},"properties":{"n":1}},{"type":"Feature","geometry":{"type":"Polygon","coordinates":[[[8.4375,40.78125],[9.84375,40.78125],[9.84375,42.1875],[8.4375,42.1875],[8.4375,40.78125]]]},"properties":{"n":1}},{"type":"Feature","geometry":{"type":"Polygon","coordinates":[[[2.8125,40.78125],[4.21875,40.78125],[4.21875,42.1875],[2.8125,42.1875],[2.8125,40.78125]]]},"properties":{"n":1}},{"type":"Feature","geometry":{"type":"Polygon","coordinates":[[[45,-33.75],[46.40625,-33.75],[46.40625,-32.34375],[45,-32.34375],[45,-33.75]]]},"properties":{"n":1}},{"type":"Feature","geometry":{"type":"Polygon","coordinates":[[[11.25,-16.875],[12.65625,-16.875],[12.65625,-15.46875],[11.25,-15.46875],[11.25,-16.875]]]},"properties":{"n":1}},{"type":"Feature","geometry":{"type":"Polygon","coordinates":[[[11.25,-19.6875],[12.65625,-19.6875],[12.65625,-18.28125],[11.25,-18.28125],[11.25,-19.6875]]]},"properties":{"n":1}},{"type":"Feature","geometry":{"type":"Polygon","coordinates":[[[11.25,-21.09375],[12.65625,-21.09375],[12.65625,-19.6875],[11.25,-19.6875],[11.25,-21.09375]]]},"properties":{"n":1}},{"type":"Feature","geometry":{"type":"Polygon","coordinates":[[[28.125,-33.75],[29.53125,-33.75],[29.53125,-32.34375],[28.125,-32.34375],[28.125,-33.75]]]},"properties":{"n":1}},{"type":"Feature","geometry":{"type":"Polygon","coordinates":[[[22.5,-35.15625],[23.90625,-35.15625],[23.90625,-33.75],[22.5,-33.75],[22.5,-35.15625]]]},"properties":{"n":1}},{"type":"Feature","geometry":{"type":"Polygon","coordinates":[[[-5.625,45],[-4.21875,45],[-4.21875,46.40625],[-5.625,46.40625],[-5.625,45]]]},"properties":{"n":1}},{"type":"Feature","geometry":{"type":"Polygon","coordinates":[[[-11.25,47.8125],[-9.84375,47.8125],[-9.84375,49.21875],[-11.25,49.21875],[-11.25,47.8125]]]},"properties":{"n":1}},{"type":"Feature","geometry":{"type":"Polygon","coordinates":[[[-23.90625,63.28125],[-22.5,63.28125],[-22.5,64.6875],[-23.90625,64.6875],[-23.90625,63.28125]]]},"properties":{"n":1}},{"type":"Feature","geometry":{"type":"Polygon","coordinates":[[[-35.15625,57.65625],[-33.75,57.65625],[-33.75,59.0625],[-35.15625,59.0625],[-35.15625,57.65625]]]},"properties":{"n":1}},{"type":"Feature","geometry":{"type":"Polygon","coordinates":[[[-1.40625,43.59375],[0,43.59375],[0,45],[-1.40625,45],[-1.40625,43.59375]]]},"properties":{"n":1}},{"type":"Feature","geometry":{"type":"Polygon","coordinates":[[[-4.21875,42.1875],[-2.8125,42.1875],[-2.8125,43.59375],[-4.21875,43.59375],[-4.21875,42.1875]]]},"properties":{"n":1}},{"type":"Feature","geometry":{"type":"Polygon","coordinates":[[[-8.4375,43.59375],[-7.03125,43.59375],[-7.03125,45],[-8.4375,45],[-8.4375,43.59375]]]},"properties":{"n":1}},{"type":"Feature","geometry":{"type":"Polygon","coordinates":[[[-2.8125,36.5625],[-1.40625,36.5625],[-1.40625,37.96875],[-2.8125,37.96875],[-2.8125,36.5625]]]},"properties":{"n":1}},{"type":"Feature","geometry":{"type":"Polygon","coordinates":[[[-4.21875,36.5625],[-2.8125,36.5625],[-2.8125,37.96875],[-4.21875,37.96875],[-4.21875,36.5625]]]},"properties":{"n":1}},{"type":"Feature","geometry":{"type":"Polygon","coordinates":[[[-5.625,36.5625],[-4.21875,36.5625],[-4.21875,37.96875],[-5.625,37.96875],[-5.625,36.5625]]]},"properties":{"n":1}},{"type":"Feature","geometry":{"type":"Polygon","coordinates":[[[-2.8125,35.15625],[-1.40625,35.15625],[-1.40625,36.5625],[-2.8125,36.5625],[-2.8125,35.15625]]]},"properties":{"n":1}},{"type":"Feature","geometry":{"type":"Polygon","coordinates":[[[-4.21875,35.15625],[-2.8125,35.15625],[-2.8125,36.5625],[-4.21875,36.5625],[-4.21875,35.15625]]]},"properties":{"n":1}},{"type":"Feature","geometry":{"type":"Polygon","coordinates":[[[-11.25,37.96875],[-9.84375,37.96875],[-9.84375,39.375],[-11.25,39.375],[-11.25,37.96875]]]},"properties":{"n":1}},{"type":"Feature","geometry":{"type":"Polygon","coordinates":[[[-14.0625,37.96875],[-12.65625,37.96875],[-12.65625,39.375],[-14.0625,39.375],[-14.0625,37.96875]]]},"properties":{"n":1}},{"type":"Feature","geometry":{"type":"Polygon","coordinates":[[[-12.65625,36.5625],[-11.25,36.5625],[-11.25,37.96875],[-12.65625,37.96875],[-12.65625,36.5625]]]},"properties":{"n":1}},{"type":"Feature","geometry":{"type":"Polygon","coordinates":[[[-15.46875,36.5625],[-14.0625,36.5625],[-14.0625,37.96875],[-15.46875,37.96875],[-15.46875,36.5625]]]},"properties":{"n":1}},{"type":"Feature","geometry":{"type":"Polygon","coordinates":[[[-11.25,30.9375],[-9.84375,30.9375],[-9.84375,32.34375],[-11.25,32.34375],[-11.25,30.9375]]]},"properties":{"n":1}},{"type":"Feature","geometry":{"type":"Polygon","coordinates":[[[-18.28125,23.90625],[-16.875,23.90625],[-16.875,25.3125],[-18.28125,25.3125],[-18.28125,23.90625]]]},"properties":{"n":1}},{"type":"Feature","geometry":{"type":"Polygon","coordinates":[[[-26.71875,33.75],[-25.3125,33.75],[-25.3125,35.15625],[-26.71875,35.15625],[-26.71875,33.75]]]},"properties":{"n":1}},{"type":"Feature","geometry":{"type":"Polygon","coordinates":[[[-33.75,37.96875],[-32.34375,37.96875],[-32.34375,39.375],[-33.75,39.375],[-33.75,37.96875]]]},"properties":{"n":1}},{"type":"Feature","geometry":{"type":"Polygon","coordinates":[[[-33.75,36.5625],[-32.34375,36.5625],[-32.34375,37.96875],[-33.75,37.96875],[-33.75,36.5625]]]},"properties":{"n":1}},{"type":"Feature","geometry":{"type":"Polygon","coordinates":[[[-32.34375,35.15625],[-30.9375,35.15625],[-30.9375,36.5625],[-32.34375,36.5625],[-32.34375,35.15625]]]},"properties":{"n":1}},{"type":"Feature","geometry":{"type":"Polygon","coordinates":[[[-36.5625,36.5625],[-35.15625,36.5625],[-35.15625,37.96875],[-36.5625,37.96875],[-36.5625,36.5625]]]},"properties":{"n":1}},{"type":"Feature","geometry":{"type":"Polygon","coordinates":[[[-37.96875,37.96875],[-36.5625,37.96875],[-36.5625,39.375],[-37.96875,39.375],[-37.96875,37.96875]]]},"properties":{"n":1}},{"type":"Feature","geometry":{"type":"Polygon","coordinates":[[[-71.71875,40.78125],[-70.3125,40.78125],[-70.3125,42.1875],[-71.71875,42.1875],[-71.71875,40.78125]]]},"properties":{"n":1}},{"type":"Feature","geometry":{"type":"Polygon","coordinates":[[[-78.75,37.96875],[-77.34375,37.96875],[-77.34375,39.375],[-78.75,39.375],[-78.75,37.96875]]]},"properties":{"n":1}}]}