{"type":"FeatureCollection","features":[{"type":"Feature","geometry":{"type":"Polygon","coordinates":[[[-71.71875,39.375],[-70.3125,39.375],[-70.3125,40.78125],[-71.71875,40.78125],[-71.71875,39.375]]]},"properties":{"n":1164}},{"type":"Feature","geometry":{"type":"Polygon","coordinates":[[[-67.5,39.375],[-66.09375,39.375],[-66.09375,40.78125],[-67.5,40.78125],[-67.5,39.375]]]},"properties":{"n":705}},{"type":"Feature","geometry":{"type":"Polygon","coordinates":[[[-73.125,39.375],[-71.71875,39.375],[-71.71875,40.78125],[-73.125,40.78125],[-73.125,39.375]]]},"properties":{"n":564}},{"type":"Feature","geometry":{"type":"Polygon","coordinates":[[[-75.9375,35.15625],[-74.53125,35.15625],[-74.53125,36.5625],[-75.9375,36.5625],[-75.9375,35.15625]]]},"properties":{"n":522}},{"type":"Feature","geometry":{"type":"Polygon","coordinates":[[[-73.125,37.96875],[-71.71875,37.96875],[-71.71875,39.375],[-73.125,39.375],[-73.125,37.96875]]]},"properties":{"n":429}},{"type":"Feature","geometry":{"type":"Polygon","coordinates":[[[-91.40625,25.3125],[-90,25.3125],[-90,26.71875],[-91.40625,26.71875],[-91.40625,25.3125]]]},"properties":{"n":370}},{"type":"Feature","geometry":{"type":"Polygon","coordinates":[[[-92.8125,25.3125],[-91.40625,25.3125],[-91.40625,26.71875],[-92.8125,26.71875],[-92.8125,25.3125]]]},"properties":{"n":361}},{"type":"Feature","geometry":{"type":"Polygon","coordinates":[[[-70.3125,39.375],[-68.90625,39.375],[-68.90625,40.78125],[-70.3125,40.78125],[-70.3125,39.375]]]},"properties":{"n":344}},{"type":"Feature","geometry":{"type":"Polygon","coordinates":[[[-68.90625,39.375],[-67.5,39.375],[-67.5,40.78125],[-68.90625,40.78125],[-68.90625,39.375]]]},"properties":{"n":338}},{"type":"Feature","geometry":{"type":"Polygon","coordinates":[[[-91.40625,26.71875],[-90,26.71875],[-90,28.125],[-91.40625,28.125],[-91.40625,26.71875]]]},"properties":{"n":313}},{"type":"Feature","geometry":{"type":"Polygon","coordinates":[[[-90,26.71875],[-88.59375,26.71875],[-88.59375,28.125],[-90,28.125],[-90,26.71875]]]},"properties":{"n":274}},{"type":"Feature","geometry":{"type":"Polygon","coordinates":[[[-92.8125,26.71875],[-91.40625,26.71875],[-91.40625,28.125],[-92.8125,28.125],[-92.8125,26.71875]]]},"properties":{"n":272}},{"type":"Feature","geometry":{"type":"Polygon","coordinates":[[[15.46875,42.1875],[16.875,42.1875],[16.875,43.59375],[15.46875,43.59375],[15.46875,42.1875]]]},"properties":{"n":234}},{"type":"Feature","geometry":{"type":"Polygon","coordinates":[[[0,42.1875],[1.40625,42.1875],[1.40625,43.59375],[0,43.59375],[0,42.1875]]]},"properties":{"n":219}},{"type":"Feature","geometry":{"type":"Polygon","coordinates":[[[-78.75,28.125],[-77.34375,28.125],[-77.34375,29.53125],[-78.75,29.53125],[-78.75,28.125]]]},"properties":{"n":211}},{"type":"Feature","geometry":{"type":"Polygon","coordinates":[[[-74.53125,36.5625],[-73.125,36.5625],[-73.125,37.96875],[-74.53125,37.96875],[-74.53125,36.5625]]]},"properties":{"n":169}},{"type":"Feature","geometry":{"type":"Polygon","coordinates":[[[-74.53125,37.96875],[-73.125,37.96875],[-73.125,39.375],[-74.53125,39.375],[-74.53125,37.96875]]]},"properties":{"n":161}},{"type":"Feature","geometry":{"type":"Polygon","coordinates":[[[-75.9375,33.75],[-74.53125,33.75],[-74.53125,35.15625],[-75.9375,35.15625],[-75.9375,33.75]]]},"properties":{"n":157}},{"type":"Feature","geometry":{"type":"Polygon","coordinates":[[[-94.21875,26.71875],[-92.8125,26.71875],[-92.8125,28.125],[-94.21875,28.125],[-94.21875,26.71875]]]},"properties":{"n":154}},{"type":"Feature","geometry":{"type":"Polygon","coordinates":[[[-90,25.3125],[-88.59375,25.3125],[-88.59375,26.71875],[-90,26.71875],[-90,25.3125]]]},"properties":{"n":153}},{"type":"Feature","geometry":{"type":"Polygon","coordinates":[[[-94.21875,25.3125],[-92.8125,25.3125],[-92.8125,26.71875],[-94.21875,26.71875],[-94.21875,25.3125]]]},"properties":{"n":148}},{"type":"Feature","geometry":{"type":"Polygon","coordinates":[[[-71.71875,37.96875],[-70.3125,37.96875],[-70.3125,39.375],[-71.71875,39.375],[-71.71875,37.96875]]]},"properties":{"n":135}},{"type":"Feature","geometry":{"type":"Polygon","coordinates":[[[-52.03125,42.1875],[-50.625,42.1875],[-50.625,43.59375],[-52.03125,43.59375],[-52.03125,42.1875]]]},"properties":{"n":106}},{"type":"Feature","geometry":{"type":"Polygon","coordinates":[[[-88.59375,26.71875],[-87.1875,26.71875],[-87.1875,28.125],[-88.59375,28.125],[-88.59375,26.71875]]]},"properties":{"n":106}},{"type":"Feature","geometry":{"type":"Polygon","coordinates":[[[-87.1875,26.71875],[-85.78125,26.71875],[-85.78125,28.125],[-87.1875,28.125],[-87.1875,26.71875]]]},"properties":{"n":103}},{"type":"Feature","geometry":{"type":"Polygon","coordinates":[[[-52.03125,40.78125],[-50.625,40.78125],[-50.625,42.1875],[-52.03125,42.1875],[-52.03125,40.78125]]]},"properties":{"n":88}},{"type":"Feature","geometry":{"type":"Polygon","coordinates":[[[-77.34375,33.75],[-75.9375,33.75],[-75.9375,35.15625],[-77.34375,35.15625],[-77.34375,33.75]]]},"properties":{"n":76}},{"type":"Feature","geometry":{"type":"Polygon","coordinates":[[[-70.3125,37.96875],[-68.90625,37.96875],[-68.90625,39.375],[-70.3125,39.375],[-70.3125,37.96875]]]},"properties":{"n":73}},{"type":"Feature","geometry":{"type":"Polygon","coordinates":[[[-67.5,26.71875],[-66.09375,26.71875],[-66.09375,28.125],[-67.5,28.125],[-67.5,26.71875]]]},"properties":{"n":71}},{"type":"Feature","geometry":{"type":"Polygon","coordinates":[[[-74.53125,35.15625],[-73.125,35.15625],[-73.125,36.5625],[-74.53125,36.5625],[-74.53125,35.15625]]]},"properties":{"n":71}},{"type":"Feature","geometry":{"type":"Polygon","coordinates":[[[-49.21875,43.59375],[-47.8125,43.59375],[-47.8125,45],[-49.21875,45],[-49.21875,43.59375]]]},"properties":{"n":69}},{"type":"Feature","geometry":{"type":"Polygon","coordinates":[[[0,40.78125],[1.40625,40.78125],[1.40625,42.1875],[0,42.1875],[0,40.78125]]]},"properties":{"n":65}},{"type":"Feature","geometry":{"type":"Polygon","coordinates":[[[-95.625,26.71875],[-94.21875,26.71875],[-94.21875,28.125],[-95.625,28.125],[-95.625,26.71875]]]},"properties":{"n":65}},{"type":"Feature","geometry":{"type":"Polygon","coordinates":[[[-80.15625,25.3125],[-78.75,25.3125],[-78.75,26.71875],[-80.15625,26.71875],[-80.15625,25.3125]]]},"properties":{"n":64}},{"type":"Feature","geometry":{"type":"Polygon","coordinates":[[[-67.5,45],[-66.09375,45],[-66.09375,46.40625],[-67.5,46.40625],[-67.5,45]]]},"properties":{"n":57}},{"type":"Feature","geometry":{"type":"Polygon","coordinates":[[[-71.71875,40.78125],[-70.3125,40.78125],[-70.3125,42.1875],[-71.71875,42.1875],[-71.71875,40.78125]]]},"properties":{"n":53}},{"type":"Feature","geometry":{"type":"Polygon","coordinates":[[[-74.53125,39.375],[-73.125,39.375],[-73.125,40.78125],[-74.53125,40.78125],[-74.53125,39.375]]]},"properties":{"n":52}},{"type":"Feature","geometry":{"type":"Polygon","coordinates":[[[-95.625,25.3125],[-94.21875,25.3125],[-94.21875,26.71875],[-95.625,26.71875],[-95.625,25.3125]]]},"properties":{"n":52}},{"type":"Feature","geometry":{"type":"Polygon","coordinates":[[[-88.59375,28.125],[-87.1875,28.125],[-87.1875,29.53125],[-88.59375,29.53125],[-88.59375,28.125]]]},"properties":{"n":47}},{"type":"Feature","geometry":{"type":"Polygon","coordinates":[[[2.8125,37.96875],[4.21875,37.96875],[4.21875,39.375],[2.8125,39.375],[2.8125,37.96875]]]},"properties":{"n":45}},{"type":"Feature","geometry":{"type":"Polygon","coordinates":[[[-80.15625,26.71875],[-78.75,26.71875],[-78.75,28.125],[-80.15625,28.125],[-80.15625,26.71875]]]},"properties":{"n":45}},{"type":"Feature","geometry":{"type":"Polygon","coordinates":[[[-67.5,40.78125],[-66.09375,40.78125],[-66.09375,42.1875],[-67.5,42.1875],[-67.5,40.78125]]]},"properties":{"n":43}},{"type":"Feature","geometry":{"type":"Polygon","coordinates":[[[-68.90625,37.96875],[-67.5,37.96875],[-67.5,39.375],[-68.90625,39.375],[-68.90625,37.96875]]]},"properties":{"n":41}},{"type":"Feature","geometry":{"type":"Polygon","coordinates":[[[1.40625,40.78125],[2.8125,40.78125],[2.8125,42.1875],[1.40625,42.1875],[1.40625,40.78125]]]},"properties":{"n":36}},{"type":"Feature","geometry":{"type":"Polygon","coordinates":[[[-45,45],[-43.59375,45],[-43.59375,46.40625],[-45,46.40625],[-45,45]]]},"properties":{"n":36}},{"type":"Feature","geometry":{"type":"Polygon","coordinates":[[[-28.125,37.96875],[-26.71875,37.96875],[-26.71875,39.375],[-28.125,39.375],[-28.125,37.96875]]]},"properties":{"n":36}},{"type":"Feature","geometry":{"type":"Polygon","coordinates":[[[-67.5,43.59375],[-66.09375,43.59375],[-66.09375,45],[-67.5,45],[-67.5,43.59375]]]},"properties":{"n":36}},{"type":"Feature","geometry":{"type":"Polygon","coordinates":[[[-77.34375,32.34375],[-75.9375,32.34375],[-75.9375,33.75],[-77.34375,33.75],[-77.34375,32.34375]]]},"properties":{"n":36}},{"type":"Feature","geometry":{"type":"Polygon","coordinates":[[[-77.34375,28.125],[-75.9375,28.125],[-75.9375,29.53125],[-77.34375,29.53125],[-77.34375,28.125]]]},"properties":{"n":36}},{"type":"Feature","geometry":{"type":"Polygon","coordinates":[[[-80.15625,28.125],[-78.75,28.125],[-78.75,29.53125],[-80.15625,29.53125],[-80.15625,28.125]]]},"properties":{"n":36}},{"type":"Feature","geometry":{"type":"Polygon","coordinates":[[[1.40625,37.96875],[2.8125,37.96875],[2.8125,39.375],[1.40625,39.375],[1.40625,37.96875]]]},"properties":{"n":34}},{"type":"Feature","geometry":{"type":"Polygon","coordinates":[[[-75.9375,36.5625],[-74.53125,36.5625],[-74.53125,37.96875],[-75.9375,37.96875],[-75.9375,36.5625]]]},"properties":{"n":34}},{"type":"Feature","geometry":{"type":"Polygon","coordinates":[[[-74.53125,19.6875],[-73.125,19.6875],[-73.125,21.09375],[-74.53125,21.09375],[-74.53125,19.6875]]]},"properties":{"n":33}},{"type":"Feature","geometry":{"type":"Polygon","coordinates":[[[-73.125,36.5625],[-71.71875,36.5625],[-71.71875,37.96875],[-73.125,37.96875],[-73.125,36.5625]]]},"properties":{"n":32}},{"type":"Feature","geometry":{"type":"Polygon","coordinates":[[[-78.75,32.34375],[-77.34375,32.34375],[-77.34375,33.75],[-78.75,33.75],[-78.75,32.34375]]]},"properties":{"n":29}},{"type":"Feature","geometry":{"type":"Polygon","coordinates":[[[-80.15625,30.9375],[-78.75,30.9375],[-78.75,32.34375],[-80.15625,32.34375],[-80.15625,30.9375]]]},"properties":{"n":29}},{"type":"Feature","geometry":{"type":"Polygon","coordinates":[[[35.15625,33.75],[36.5625,33.75],[36.5625,35.15625],[35.15625,35.15625],[35.15625,33.75]]]},"properties":{"n":28}},{"type":"Feature","geometry":{"type":"Polygon","coordinates":[[[-53.4375,40.78125],[-52.03125,40.78125],[-52.03125,42.1875],[-53.4375,42.1875],[-53.4375,40.78125]]]},"properties":{"n":28}},{"type":"Feature","geometry":{"type":"Polygon","coordinates":[[[2.8125,42.1875],[4.21875,42.1875],[4.21875,43.59375],[2.8125,43.59375],[2.8125,42.1875]]]},"properties":{"n":27}},{"type":"Feature","geometry":{"type":"Polygon","coordinates":[[[-46.40625,43.59375],[-45,43.59375],[-45,45],[-46.40625,45],[-46.40625,43.59375]]]},"properties":{"n":27}},{"type":"Feature","geometry":{"type":"Polygon","coordinates":[[[-50.625,40.78125],[-49.21875,40.78125],[-49.21875,42.1875],[-50.625,42.1875],[-50.625,40.78125]]]},"properties":{"n":27}},{"type":"Feature","geometry":{"type":"Polygon","coordinates":[[[-90,28.125],[-88.59375,28.125],[-88.59375,29.53125],[-90,29.53125],[-90,28.125]]]},"properties":{"n":27}},{"type":"Feature","geometry":{"type":"Polygon","coordinates":[[[-47.8125,43.59375],[-46.40625,43.59375],[-46.40625,45],[-47.8125,45],[-47.8125,43.59375]]]},"properties":{"n":26}},{"type":"Feature","geometry":{"type":"Polygon","coordinates":[[[-45,43.59375],[-43.59375,43.59375],[-43.59375,45],[-45,45],[-45,43.59375]]]},"properties":{"n":25}},{"type":"Feature","geometry":{"type":"Polygon","coordinates":[[[-70.3125,42.1875],[-68.90625,42.1875],[-68.90625,43.59375],[-70.3125,43.59375],[-70.3125,42.1875]]]},"properties":{"n":25}},{"type":"Feature","geometry":{"type":"Polygon","coordinates":[[[-46.40625,42.1875],[-45,42.1875],[-45,43.59375],[-46.40625,43.59375],[-46.40625,42.1875]]]},"properties":{"n":24}},{"type":"Feature","geometry":{"type":"Polygon","coordinates":[[[-74.53125,33.75],[-73.125,33.75],[-73.125,35.15625],[-74.53125,35.15625],[-74.53125,33.75]]]},"properties":{"n":23}},{"type":"Feature","geometry":{"type":"Polygon","coordinates":[[[-68.90625,26.71875],[-67.5,26.71875],[-67.5,28.125],[-68.90625,28.125],[-68.90625,26.71875]]]},"properties":{"n":23}},{"type":"Feature","geometry":{"type":"Polygon","coordinates":[[[14.0625,45],[15.46875,45],[15.46875,46.40625],[14.0625,46.40625],[14.0625,45]]]},"properties":{"n":22}},{"type":"Feature","geometry":{"type":"Polygon","coordinates":[[[-97.03125,26.71875],[-95.625,26.71875],[-95.625,28.125],[-97.03125,28.125],[-97.03125,26.71875]]]},"properties":{"n":22}},{"type":"Feature","geometry":{"type":"Polygon","coordinates":[[[-29.53125,37.96875],[-28.125,37.96875],[-28.125,39.375],[-29.53125,39.375],[-29.53125,37.96875]]]},"properties":{"n":21}},{"type":"Feature","geometry":{"type":"Polygon","coordinates":[[[-53.4375,42.1875],[-52.03125,42.1875],[-52.03125,43.59375],[-53.4375,43.59375],[-53.4375,42.1875]]]},"properties":{"n":21}},{"type":"Feature","geometry":{"type":"Polygon","coordinates":[[[-78.75,30.9375],[-77.34375,30.9375],[-77.34375,32.34375],[-78.75,32.34375],[-78.75,30.9375]]]},"properties":{"n":21}},{"type":"Feature","geometry":{"type":"Polygon","coordinates":[[[-43.59375,45],[-42.1875,45],[-42.1875,46.40625],[-43.59375,46.40625],[-43.59375,45]]]},"properties":{"n":20}},{"type":"Feature","geometry":{"type":"Polygon","coordinates":[[[-49.21875,45],[-47.8125,45],[-47.8125,46.40625],[-49.21875,46.40625],[-49.21875,45]]]},"properties":{"n":20}},{"type":"Feature","geometry":{"type":"Polygon","coordinates":[[[-50.625,42.1875],[-49.21875,42.1875],[-49.21875,43.59375],[-50.625,43.59375],[-50.625,42.1875]]]},"properties":{"n":20}},{"type":"Feature","geometry":{"type":"Polygon","coordinates":[[[-70.3125,40.78125],[-68.90625,40.78125],[-68.90625,42.1875],[-70.3125,42.1875],[-70.3125,40.78125]]]},"properties":{"n":20}},{"type":"Feature","geometry":{"type":"Polygon","coordinates":[[[-87.1875,28.125],[-85.78125,28.125],[-85.78125,29.53125],[-87.1875,29.53125],[-87.1875,28.125]]]},"properties":{"n":20}},{"type":"Feature","geometry":{"type":"Polygon","coordinates":[[[-84.375,23.90625],[-82.96875,23.90625],[-82.96875,25.3125],[-84.375,25.3125],[-84.375,23.90625]]]},"properties":{"n":19}},{"type":"Feature","geometry":{"type":"Polygon","coordinates":[[[12.65625,45],[14.0625,45],[14.0625,46.40625],[12.65625,46.40625],[12.65625,45]]]},"properties":{"n":18}},{"type":"Feature","geometry":{"type":"Polygon","coordinates":[[[1.40625,39.375],[2.8125,39.375],[2.8125,40.78125],[1.40625,40.78125],[1.40625,39.375]]]},"properties":{"n":18}},{"type":"Feature","geometry":{"type":"Polygon","coordinates":[[[-49.21875,42.1875],[-47.8125,42.1875],[-47.8125,43.59375],[-49.21875,43.59375],[-49.21875,42.1875]]]},"properties":{"n":18}},{"type":"Feature","geometry":{"type":"Polygon","coordinates":[[[-71.71875,36.5625],[-70.3125,36.5625],[-70.3125,37.96875],[-71.71875,37.96875],[-71.71875,36.5625]]]},"properties":{"n":18}},{"type":"Feature","geometry":{"type":"Polygon","coordinates":[[[-80.15625,23.90625],[-78.75,23.90625],[-78.75,25.3125],[-80.15625,25.3125],[-80.15625,23.90625]]]},"properties":{"n":18}},{"type":"Feature","geometry":{"type":"Polygon","coordinates":[[[-82.96875,23.90625],[-81.5625,23.90625],[-81.5625,25.3125],[-82.96875,25.3125],[-82.96875,23.90625]]]},"properties":{"n":18}},{"type":"Feature","geometry":{"type":"Polygon","coordinates":[[[4.21875,37.96875],[5.625,37.96875],[5.625,39.375],[4.21875,39.375],[4.21875,37.96875]]]},"properties":{"n":17}},{"type":"Feature","geometry":{"type":"Polygon","coordinates":[[[0,37.96875],[1.40625,37.96875],[1.40625,39.375],[0,39.375],[0,37.96875]]]},"properties":{"n":17}},{"type":"Feature","geometry":{"type":"Polygon","coordinates":[[[-66.09375,26.71875],[-64.6875,26.71875],[-64.6875,28.125],[-66.09375,28.125],[-66.09375,26.71875]]]},"properties":{"n":16}},{"type":"Feature","geometry":{"type":"Polygon","coordinates":[[[-67.5,25.3125],[-66.09375,25.3125],[-66.09375,26.71875],[-67.5,26.71875],[-67.5,25.3125]]]},"properties":{"n":16}},{"type":"Feature","geometry":{"type":"Polygon","coordinates":[[[-73.125,26.71875],[-71.71875,26.71875],[-71.71875,28.125],[-73.125,28.125],[-73.125,26.71875]]]},"properties":{"n":16}},{"type":"Feature","geometry":{"type":"Polygon","coordinates":[[[-85.78125,25.3125],[-84.375,25.3125],[-84.375,26.71875],[-85.78125,26.71875],[-85.78125,25.3125]]]},"properties":{"n":16}},{"type":"Feature","geometry":{"type":"Polygon","coordinates":[[[-47.8125,45],[-46.40625,45],[-46.40625,46.40625],[-47.8125,46.40625],[-47.8125,45]]]},"properties":{"n":15}},{"type":"Feature","geometry":{"type":"Polygon","coordinates":[[[-49.21875,40.78125],[-47.8125,40.78125],[-47.8125,42.1875],[-49.21875,42.1875],[-49.21875,40.78125]]]},"properties":{"n":15}},{"type":"Feature","geometry":{"type":"Polygon","coordinates":[[[-71.71875,42.1875],[-70.3125,42.1875],[-70.3125,43.59375],[-71.71875,43.59375],[-71.71875,42.1875]]]},"properties":{"n":15}},{"type":"Feature","geometry":{"type":"Polygon","coordinates":[[[4.21875,39.375],[5.625,39.375],[5.625,40.78125],[4.21875,40.78125],[4.21875,39.375]]]},"properties":{"n":14}},{"type":"Feature","geometry":{"type":"Polygon","coordinates":[[[-43.59375,46.40625],[-42.1875,46.40625],[-42.1875,47.8125],[-43.59375,47.8125],[-43.59375,46.40625]]]},"properties":{"n":14}},{"type":"Feature","geometry":{"type":"Polygon","coordinates":[[[0,39.375],[1.40625,39.375],[1.40625,40.78125],[0,40.78125],[0,39.375]]]},"properties":{"n":13}},{"type":"Feature","geometry":{"type":"Polygon","coordinates":[[[-47.8125,42.1875],[-46.40625,42.1875],[-46.40625,43.59375],[-47.8125,43.59375],[-47.8125,42.1875]]]},"properties":{"n":13}},{"type":"Feature","geometry":{"type":"Polygon","coordinates":[[[-73.125,28.125],[-71.71875,28.125],[-71.71875,29.53125],[-73.125,29.53125],[-73.125,28.125]]]},"properties":{"n":13}},{"type":"Feature","geometry":{"type":"Polygon","coordinates":[[[18.28125,-35.15625],[19.6875,-35.15625],[19.6875,-33.75],[18.28125,-33.75],[18.28125,-35.15625]]]},"properties":{"n":12}},{"type":"Feature","geometry":{"type":"Polygon","coordinates":[[[-67.5,37.96875],[-66.09375,37.96875],[-66.09375,39.375],[-67.5,39.375],[-67.5,37.96875]]]},"properties":{"n":12}},{"type":"Feature","geometry":{"type":"Polygon","coordinates":[[[-74.53125,25.3125],[-73.125,25.3125],[-73.125,26.71875],[-74.53125,26.71875],[-74.53125,25.3125]]]},"properties":{"n":12}},{"type":"Feature","geometry":{"type":"Polygon","coordinates":[[[2.8125,39.375],[4.21875,39.375],[4.21875,40.78125],[2.8125,40.78125],[2.8125,39.375]]]},"properties":{"n":11}},{"type":"Feature","geometry":{"type":"Polygon","coordinates":[[[-46.40625,45],[-45,45],[-45,46.40625],[-46.40625,46.40625],[-46.40625,45]]]},"properties":{"n":11}},{"type":"Feature","geometry":{"type":"Polygon","coordinates":[[[-71.71875,26.71875],[-70.3125,26.71875],[-70.3125,28.125],[-71.71875,28.125],[-71.71875,26.71875]]]},"properties":{"n":11}},{"type":"Feature","geometry":{"type":"Polygon","coordinates":[[[-45,50.625],[-43.59375,50.625],[-43.59375,52.03125],[-45,52.03125],[-45,50.625]]]},"properties":{"n":10}},{"type":"Feature","geometry":{"type":"Polygon","coordinates":[[[-42.1875,47.8125],[-40.78125,47.8125],[-40.78125,49.21875],[-42.1875,49.21875],[-42.1875,47.8125]]]},"properties":{"n":10}},{"type":"Feature","geometry":{"type":"Polygon","coordinates":[[[-42.1875,46.40625],[-40.78125,46.40625],[-40.78125,47.8125],[-42.1875,47.8125],[-42.1875,46.40625]]]},"properties":{"n":10}},{"type":"Feature","geometry":{"type":"Polygon","coordinates":[[[-45,42.1875],[-43.59375,42.1875],[-43.59375,43.59375],[-45,43.59375],[-45,42.1875]]]},"properties":{"n":10}},{"type":"Feature","geometry":{"type":"Polygon","coordinates":[[[-77.34375,30.9375],[-75.9375,30.9375],[-75.9375,32.34375],[-77.34375,32.34375],[-77.34375,30.9375]]]},"properties":{"n":10}},{"type":"Feature","geometry":{"type":"Polygon","coordinates":[[[-68.90625,25.3125],[-67.5,25.3125],[-67.5,26.71875],[-68.90625,26.71875],[-68.90625,25.3125]]]},"properties":{"n":10}},{"type":"Feature","geometry":{"type":"Polygon","coordinates":[[[-77.34375,26.71875],[-75.9375,26.71875],[-75.9375,28.125],[-77.34375,28.125],[-77.34375,26.71875]]]},"properties":{"n":10}},{"type":"Feature","geometry":{"type":"Polygon","coordinates":[[[-88.59375,25.3125],[-87.1875,25.3125],[-87.1875,26.71875],[-88.59375,26.71875],[-88.59375,25.3125]]]},"properties":{"n":10}},{"type":"Feature","geometry":{"type":"Polygon","coordinates":[[[-94.21875,23.90625],[-92.8125,23.90625],[-92.8125,25.3125],[-94.21875,25.3125],[-94.21875,23.90625]]]},"properties":{"n":10}},{"type":"Feature","geometry":{"type":"Polygon","coordinates":[[[12.65625,54.84375],[14.0625,54.84375],[14.0625,56.25],[12.65625,56.25],[12.65625,54.84375]]]},"properties":{"n":9}},{"type":"Feature","geometry":{"type":"Polygon","coordinates":[[[-2.8125,43.59375],[-1.40625,43.59375],[-1.40625,45],[-2.8125,45],[-2.8125,43.59375]]]},"properties":{"n":9}},{"type":"Feature","geometry":{"type":"Polygon","coordinates":[[[-91.40625,23.90625],[-90,23.90625],[-90,25.3125],[-91.40625,25.3125],[-91.40625,23.90625]]]},"properties":{"n":9}},{"type":"Feature","geometry":{"type":"Polygon","coordinates":[[[7.03125,43.59375],[8.4375,43.59375],[8.4375,45],[7.03125,45],[7.03125,43.59375]]]},"properties":{"n":8}},{"type":"Feature","geometry":{"type":"Polygon","coordinates":[[[2.8125,40.78125],[4.21875,40.78125],[4.21875,42.1875],[2.8125,42.1875],[2.8125,40.78125]]]},"properties":{"n":8}},{"type":"Feature","geometry":{"type":"Polygon","coordinates":[[[-4.21875,49.21875],[-2.8125,49.21875],[-2.8125,50.625],[-4.21875,50.625],[-4.21875,49.21875]]]},"properties":{"n":8}},{"type":"Feature","geometry":{"type":"Polygon","coordinates":[[[-11.25,45],[-9.84375,45],[-9.84375,46.40625],[-11.25,46.40625],[-11.25,45]]]},"properties":{"n":8}},{"type":"Feature","geometry":{"type":"Polygon","coordinates":[[[-43.59375,47.8125],[-42.1875,47.8125],[-42.1875,49.21875],[-43.59375,49.21875],[-43.59375,47.8125]]]},"properties":{"n":8}},{"type":"Feature","geometry":{"type":"Polygon","coordinates":[[[-7.03125,35.15625],[-5.625,35.15625],[-5.625,36.5625],[-7.03125,36.5625],[-7.03125,35.15625]]]},"properties":{"n":8}},{"type":"Feature","geometry":{"type":"Polygon","coordinates":[[[-52.03125,39.375],[-50.625,39.375],[-50.625,40.78125],[-52.03125,40.78125],[-52.03125,39.375]]]},"properties":{"n":8}},{"type":"Feature","geometry":{"type":"Polygon","coordinates":[[[-73.125,35.15625],[-71.71875,35.15625],[-71.71875,36.5625],[-73.125,36.5625],[-73.125,35.15625]]]},"properties":{"n":8}},{"type":"Feature","geometry":{"type":"Polygon","coordinates":[[[-74.53125,26.71875],[-73.125,26.71875],[-73.125,28.125],[-74.53125,28.125],[-74.53125,26.71875]]]},"properties":{"n":8}},{"type":"Feature","geometry":{"type":"Polygon","coordinates":[[[-85.78125,23.90625],[-84.375,23.90625],[-84.375,25.3125],[-85.78125,25.3125],[-85.78125,23.90625]]]},"properties":{"n":8}},{"type":"Feature","geometry":{"type":"Polygon","coordinates":[[[-60.46875,45],[-59.0625,45],[-59.0625,46.40625],[-60.46875,46.40625],[-60.46875,45]]]},"properties":{"n":7}},{"type":"Feature","geometry":{"type":"Polygon","coordinates":[[[-47.8125,40.78125],[-46.40625,40.78125],[-46.40625,42.1875],[-47.8125,42.1875],[-47.8125,40.78125]]]},"properties":{"n":7}},{"type":"Feature","geometry":{"type":"Polygon","coordinates":[[[-67.5,28.125],[-66.09375,28.125],[-66.09375,29.53125],[-67.5,29.53125],[-67.5,28.125]]]},"properties":{"n":7}},{"type":"Feature","geometry":{"type":"Polygon","coordinates":[[[-61.875,26.71875],[-60.46875,26.71875],[-60.46875,28.125],[-61.875,28.125],[-61.875,26.71875]]]},"properties":{"n":7}},{"type":"Feature","geometry":{"type":"Polygon","coordinates":[[[-68.90625,40.78125],[-67.5,40.78125],[-67.5,42.1875],[-68.90625,42.1875],[-68.90625,40.78125]]]},"properties":{"n":7}},{"type":"Feature","geometry":{"type":"Polygon","coordinates":[[[-75.9375,32.34375],[-74.53125,32.34375],[-74.53125,33.75],[-75.9375,33.75],[-75.9375,32.34375]]]},"properties":{"n":7}},{"type":"Feature","geometry":{"type":"Polygon","coordinates":[[[-77.34375,29.53125],[-75.9375,29.53125],[-75.9375,30.9375],[-77.34375,30.9375],[-77.34375,29.53125]]]},"properties":{"n":7}},{"type":"Feature","geometry":{"type":"Polygon","coordinates":[[[-70.3125,26.71875],[-68.90625,26.71875],[-68.90625,28.125],[-70.3125,28.125],[-70.3125,26.71875]]]},"properties":{"n":7}},{"type":"Feature","geometry":{"type":"Polygon","coordinates":[[[-80.15625,32.34375],[-78.75,32.34375],[-78.75,33.75],[-80.15625,33.75],[-80.15625,32.34375]]]},"properties":{"n":7}},{"type":"Feature","geometry":{"type":"Polygon","coordinates":[[[-82.96875,22.5],[-81.5625,22.5],[-81.5625,23.90625],[-82.96875,23.90625],[-82.96875,22.5]]]},"properties":{"n":7}},{"type":"Feature","geometry":{"type":"Polygon","coordinates":[[[-73.125,19.6875],[-71.71875,19.6875],[-71.71875,21.09375],[-73.125,21.09375],[-73.125,19.6875]]]},"properties":{"n":7}},{"type":"Feature","geometry":{"type":"Polygon","coordinates":[[[-92.8125,23.90625],[-91.40625,23.90625],[-91.40625,25.3125],[-92.8125,25.3125],[-92.8125,23.90625]]]},"properties":{"n":7}},{"type":"Feature","geometry":{"type":"Polygon","coordinates":[[[-97.03125,25.3125],[-95.625,25.3125],[-95.625,26.71875],[-97.03125,26.71875],[-97.03125,25.3125]]]},"properties":{"n":7}},{"type":"Feature","geometry":{"type":"Polygon","coordinates":[[[9.84375,57.65625],[11.25,57.65625],[11.25,59.0625],[9.84375,59.0625],[9.84375,57.65625]]]},"properties":{"n":6}},{"type":"Feature","geometry":{"type":"Polygon","coordinates":[[[11.25,43.59375],[12.65625,43.59375],[12.65625,45],[11.25,45],[11.25,43.59375]]]},"properties":{"n":6}},{"type":"Feature","geometry":{"type":"Polygon","coordinates":[[[14.0625,39.375],[15.46875,39.375],[15.46875,40.78125],[14.0625,40.78125],[14.0625,39.375]]]},"properties":{"n":6}},{"type":"Feature","geometry":{"type":"Polygon","coordinates":[[[4.21875,42.1875],[5.625,42.1875],[5.625,43.59375],[4.21875,43.59375],[4.21875,42.1875]]]},"properties":{"n":6}},{"type":"Feature","geometry":{"type":"Polygon","coordinates":[[[15.46875,-29.53125],[16.875,-29.53125],[16.875,-28.125],[15.46875,-28.125],[15.46875,-29.53125]]]},"properties":{"n":6}},{"type":"Feature","geometry":{"type":"Polygon","coordinates":[[[-42.1875,45],[-40.78125,45],[-40.78125,46.40625],[-42.1875,46.40625],[-42.1875,45]]]},"properties":{"n":6}},{"type":"Feature","geometry":{"type":"Polygon","coordinates":[[[-64.6875,43.59375],[-63.28125,43.59375],[-63.28125,45],[-64.6875,45],[-64.6875,43.59375]]]},"properties":{"n":6}},{"type":"Feature","geometry":{"type":"Polygon","coordinates":[[[-66.09375,42.1875],[-64.6875,42.1875],[-64.6875,43.59375],[-66.09375,43.59375],[-66.09375,42.1875]]]},"properties":{"n":6}},{"type":"Feature","geometry":{"type":"Polygon","coordinates":[[[-66.09375,23.90625],[-64.6875,23.90625],[-64.6875,25.3125],[-66.09375,25.3125],[-66.09375,23.90625]]]},"properties":{"n":6}},{"type":"Feature","geometry":{"type":"Polygon","coordinates":[[[-70.3125,36.5625],[-68.90625,36.5625],[-68.90625,37.96875],[-70.3125,37.96875],[-70.3125,36.5625]]]},"properties":{"n":6}},{"type":"Feature","geometry":{"type":"Polygon","coordinates":[[[-71.71875,35.15625],[-70.3125,35.15625],[-70.3125,36.5625],[-71.71875,36.5625],[-71.71875,35.15625]]]},"properties":{"n":6}},{"type":"Feature","geometry":{"type":"Polygon","coordinates":[[[-71.71875,28.125],[-70.3125,28.125],[-70.3125,29.53125],[-71.71875,29.53125],[-71.71875,28.125]]]},"properties":{"n":6}},{"type":"Feature","geometry":{"type":"Polygon","coordinates":[[[-75.9375,30.9375],[-74.53125,30.9375],[-74.53125,32.34375],[-75.9375,32.34375],[-75.9375,30.9375]]]},"properties":{"n":6}},{"type":"Feature","geometry":{"type":"Polygon","coordinates":[[[-74.53125,28.125],[-73.125,28.125],[-73.125,29.53125],[-74.53125,29.53125],[-74.53125,28.125]]]},"properties":{"n":6}},{"type":"Feature","geometry":{"type":"Polygon","coordinates":[[[-80.15625,29.53125],[-78.75,29.53125],[-78.75,30.9375],[-80.15625,30.9375],[-80.15625,29.53125]]]},"properties":{"n":6}},{"type":"Feature","geometry":{"type":"Polygon","coordinates":[[[-81.5625,23.90625],[-80.15625,23.90625],[-80.15625,25.3125],[-81.5625,25.3125],[-81.5625,23.90625]]]},"properties":{"n":6}},{"type":"Feature","geometry":{"type":"Polygon","coordinates":[[[-85.78125,26.71875],[-84.375,26.71875],[-84.375,28.125],[-85.78125,28.125],[-85.78125,26.71875]]]},"properties":{"n":6}},{"type":"Feature","geometry":{"type":"Polygon","coordinates":[[[-87.1875,25.3125],[-85.78125,25.3125],[-85.78125,26.71875],[-87.1875,26.71875],[-87.1875,25.3125]]]},"properties":{"n":6}},{"type":"Feature","geometry":{"type":"Polygon","coordinates":[[[-91.40625,28.125],[-90,28.125],[-90,29.53125],[-91.40625,29.53125],[-91.40625,28.125]]]},"properties":{"n":6}},{"type":"Feature","geometry":{"type":"Polygon","coordinates":[[[19.6875,39.375],[21.09375,39.375],[21.09375,40.78125],[19.6875,40.78125],[19.6875,39.375]]]},"properties":{"n":5}},{"type":"Feature","geometry":{"type":"Polygon","coordinates":[[[14.0625,36.5625],[15.46875,36.5625],[15.46875,37.96875],[14.0625,37.96875],[14.0625,36.5625]]]},"properties":{"n":5}},{"type":"Feature","geometry":{"type":"Polygon","coordinates":[[[-5.625,49.21875],[-4.21875,49.21875],[-4.21875,50.625],[-5.625,50.625],[-5.625,49.21875]]]},"properties":{"n":5}},{"type":"Feature","geometry":{"type":"Polygon","coordinates":[[[-5.625,47.8125],[-4.21875,47.8125],[-4.21875,49.21875],[-5.625,49.21875],[-5.625,47.8125]]]},"properties":{"n":5}},{"type":"Feature","geometry":{"type":"Polygon","coordinates":[[[-4.21875,46.40625],[-2.8125,46.40625],[-2.8125,47.8125],[-4.21875,47.8125],[-4.21875,46.40625]]]},"properties":{"n":5}},{"type":"Feature","geometry":{"type":"Polygon","coordinates":[[[-42.1875,49.21875],[-40.78125,49.21875],[-40.78125,50.625],[-42.1875,50.625],[-42.1875,49.21875]]]},"properties":{"n":5}},{"type":"Feature","geometry":{"type":"Polygon","coordinates":[[[-54.84375,47.8125],[-53.4375,47.8125],[-53.4375,49.21875],[-54.84375,49.21875],[-54.84375,47.8125]]]},"properties":{"n":5}},{"type":"Feature","geometry":{"type":"Polygon","coordinates":[[[-68.90625,49.21875],[-67.5,49.21875],[-67.5,50.625],[-68.90625,50.625],[-68.90625,49.21875]]]},"properties":{"n":5}},{"type":"Feature","geometry":{"type":"Polygon","coordinates":[[[-25.3125,36.5625],[-23.90625,36.5625],[-23.90625,37.96875],[-25.3125,37.96875],[-25.3125,36.5625]]]},"properties":{"n":5}},{"type":"Feature","geometry":{"type":"Polygon","coordinates":[[[-43.59375,42.1875],[-42.1875,42.1875],[-42.1875,43.59375],[-43.59375,43.59375],[-43.59375,42.1875]]]},"properties":{"n":5}},{"type":"Feature","geometry":{"type":"Polygon","coordinates":[[[-66.09375,25.3125],[-64.6875,25.3125],[-64.6875,26.71875],[-66.09375,26.71875],[-66.09375,25.3125]]]},"properties":{"n":5}},{"type":"Feature","geometry":{"type":"Polygon","coordinates":[[[-75.9375,37.96875],[-74.53125,37.96875],[-74.53125,39.375],[-75.9375,39.375],[-75.9375,37.96875]]]},"properties":{"n":5}},{"type":"Feature","geometry":{"type":"Polygon","coordinates":[[[-78.75,33.75],[-77.34375,33.75],[-77.34375,35.15625],[-78.75,35.15625],[-78.75,33.75]]]},"properties":{"n":5}},{"type":"Feature","geometry":{"type":"Polygon","coordinates":[[[-75.9375,28.125],[-74.53125,28.125],[-74.53125,29.53125],[-75.9375,29.53125],[-75.9375,28.125]]]},"properties":{"n":5}},{"type":"Feature","geometry":{"type":"Polygon","coordinates":[[[-70.3125,25.3125],[-68.90625,25.3125],[-68.90625,26.71875],[-70.3125,26.71875],[-70.3125,25.3125]]]},"properties":{"n":5}},{"type":"Feature","geometry":{"type":"Polygon","coordinates":[[[-78.75,26.71875],[-77.34375,26.71875],[-77.34375,28.125],[-78.75,28.125],[-78.75,26.71875]]]},"properties":{"n":5}},{"type":"Feature","geometry":{"type":"Polygon","coordinates":[[[-64.6875,15.46875],[-63.28125,15.46875],[-63.28125,16.875],[-64.6875,16.875],[-64.6875,15.46875]]]},"properties":{"n":5}},{"type":"Feature","geometry":{"type":"Polygon","coordinates":[[[-92.8125,28.125],[-91.40625,28.125],[-91.40625,29.53125],[-92.8125,29.53125],[-92.8125,28.125]]]},"properties":{"n":5}},{"type":"Feature","geometry":{"type":"Polygon","coordinates":[[[-94.21875,21.09375],[-92.8125,21.09375],[-92.8125,22.5],[-94.21875,22.5],[-94.21875,21.09375]]]},"properties":{"n":5}},{"type":"Feature","geometry":{"type":"Polygon","coordinates":[[[8.4375,43.59375],[9.84375,43.59375],[9.84375,45],[8.4375,45],[8.4375,43.59375]]]},"properties":{"n":4}},{"type":"Feature","geometry":{"type":"Polygon","coordinates":[[[-11.25,50.625],[-9.84375,50.625],[-9.84375,52.03125],[-11.25,52.03125],[-11.25,50.625]]]},"properties":{"n":4}},{"type":"Feature","geometry":{"type":"Polygon","coordinates":[[[-40.78125,46.40625],[-39.375,46.40625],[-39.375,47.8125],[-40.78125,47.8125],[-40.78125,46.40625]]]},"properties":{"n":4}},{"type":"Feature","geometry":{"type":"Polygon","coordinates":[[[-61.875,45],[-60.46875,45],[-60.46875,46.40625],[-61.875,46.40625],[-61.875,45]]]},"properties":{"n":4}},{"type":"Feature","geometry":{"type":"Polygon","coordinates":[[[-63.28125,46.40625],[-61.875,46.40625],[-61.875,47.8125],[-63.28125,47.8125],[-63.28125,46.40625]]]},"properties":{"n":4}},{"type":"Feature","geometry":{"type":"Polygon","coordinates":[[[-5.625,35.15625],[-4.21875,35.15625],[-4.21875,36.5625],[-5.625,36.5625],[-5.625,35.15625]]]},"properties":{"n":4}},{"type":"Feature","geometry":{"type":"Polygon","coordinates":[[[-23.90625,36.5625],[-22.5,36.5625],[-22.5,37.96875],[-23.90625,37.96875],[-23.90625,36.5625]]]},"properties":{"n":4}},{"type":"Feature","geometry":{"type":"Polygon","coordinates":[[[-42.1875,42.1875],[-40.78125,42.1875],[-40.78125,43.59375],[-42.1875,43.59375],[-42.1875,42.1875]]]},"properties":{"n":4}},{"type":"Feature","geometry":{"type":"Polygon","coordinates":[[[-63.28125,39.375],[-61.875,39.375],[-61.875,40.78125],[-63.28125,40.78125],[-63.28125,39.375]]]},"properties":{"n":4}},{"type":"Feature","geometry":{"type":"Polygon","coordinates":[[[-70.3125,43.59375],[-68.90625,43.59375],[-68.90625,45],[-70.3125,45],[-70.3125,43.59375]]]},"properties":{"n":4}},{"type":"Feature","geometry":{"type":"Polygon","coordinates":[[[-68.90625,42.1875],[-67.5,42.1875],[-67.5,43.59375],[-68.90625,43.59375],[-68.90625,42.1875]]]},"properties":{"n":4}},{"type":"Feature","geometry":{"type":"Polygon","coordinates":[[[-75.9375,29.53125],[-74.53125,29.53125],[-74.53125,30.9375],[-75.9375,30.9375],[-75.9375,29.53125]]]},"properties":{"n":4}},{"type":"Feature","geometry":{"type":"Polygon","coordinates":[[[-84.375,26.71875],[-82.96875,26.71875],[-82.96875,28.125],[-84.375,28.125],[-84.375,26.71875]]]},"properties":{"n":4}},{"type":"Feature","geometry":{"type":"Polygon","coordinates":[[[-90,23.90625],[-88.59375,23.90625],[-88.59375,25.3125],[-90,25.3125],[-90,23.90625]]]},"properties":{"n":4}},{"type":"Feature","geometry":{"type":"Polygon","coordinates":[[[-66.09375,16.875],[-64.6875,16.875],[-64.6875,18.28125],[-66.09375,18.28125],[-66.09375,16.875]]]},"properties":{"n":4}},{"type":"Feature","geometry":{"type":"Polygon","coordinates":[[[-98.4375,21.09375],[-97.03125,21.09375],[-97.03125,22.5],[-98.4375,22.5],[-98.4375,21.09375]]]},"properties":{"n":4}},{"type":"Feature","geometry":{"type":"Polygon","coordinates":[[[23.90625,39.375],[25.3125,39.375],[25.3125,40.78125],[23.90625,40.78125],[23.90625,39.375]]]},"properties":{"n":3}},{"type":"Feature","geometry":{"type":"Polygon","coordinates":[[[18.28125,40.78125],[19.6875,40.78125],[19.6875,42.1875],[18.28125,42.1875],[18.28125,40.78125]]]},"properties":{"n":3}},{"type":"Feature","geometry":{"type":"Polygon","coordinates":[[[8.4375,42.1875],[9.84375,42.1875],[9.84375,43.59375],[8.4375,43.59375],[8.4375,42.1875]]]},"properties":{"n":3}},{"type":"Feature","geometry":{"type":"Polygon","coordinates":[[[-40.78125,49.21875],[-39.375,49.21875],[-39.375,50.625],[-40.78125,50.625],[-40.78125,49.21875]]]},"properties":{"n":3}},{"type":"Feature","geometry":{"type":"Polygon","coordinates":[[[-45,49.21875],[-43.59375,49.21875],[-43.59375,50.625],[-45,50.625],[-45,49.21875]]]},"properties":{"n":3}},{"type":"Feature","geometry":{"type":"Polygon","coordinates":[[[-46.40625,46.40625],[-45,46.40625],[-45,47.8125],[-46.40625,47.8125],[-46.40625,46.40625]]]},"properties":{"n":3}},{"type":"Feature","geometry":{"type":"Polygon","coordinates":[[[-32.34375,39.375],[-30.9375,39.375],[-30.9375,40.78125],[-32.34375,40.78125],[-32.34375,39.375]]]},"properties":{"n":3}},{"type":"Feature","geometry":{"type":"Polygon","coordinates":[[[-63.28125,43.59375],[-61.875,43.59375],[-61.875,45],[-63.28125,45],[-63.28125,43.59375]]]},"properties":{"n":3}},{"type":"Feature","geometry":{"type":"Polygon","coordinates":[[[-66.09375,40.78125],[-64.6875,40.78125],[-64.6875,42.1875],[-66.09375,42.1875],[-66.09375,40.78125]]]},"properties":{"n":3}},{"type":"Feature","geometry":{"type":"Polygon","coordinates":[[[-66.09375,39.375],[-64.6875,39.375],[-64.6875,40.78125],[-66.09375,40.78125],[-66.09375,39.375]]]},"properties":{"n":3}},{"type":"Feature","geometry":{"type":"Polygon","coordinates":[[[-57.65625,30.9375],[-56.25,30.9375],[-56.25,32.34375],[-57.65625,32.34375],[-57.65625,30.9375]]]},"properties":{"n":3}},{"type":"Feature","geometry":{"type":"Polygon","coordinates":[[[-60.46875,26.71875],[-59.0625,26.71875],[-59.0625,28.125],[-60.46875,28.125],[-60.46875,26.71875]]]},"properties":{"n":3}},{"type":"Feature","geometry":{"type":"Polygon","coordinates":[[[-61.875,25.3125],[-60.46875,25.3125],[-60.46875,26.71875],[-61.875,26.71875],[-61.875,25.3125]]]},"properties":{"n":3}},{"type":"Feature","geometry":{"type":"Polygon","coordinates":[[[-64.6875,26.71875],[-63.28125,26.71875],[-63.28125,28.125],[-64.6875,28.125],[-64.6875,26.71875]]]},"properties":{"n":3}},{"type":"Feature","geometry":{"type":"Polygon","coordinates":[[[-67.5,23.90625],[-66.09375,23.90625],[-66.09375,25.3125],[-67.5,25.3125],[-67.5,23.90625]]]},"properties":{"n":3}},{"type":"Feature","geometry":{"type":"Polygon","coordinates":[[[-67.5,22.5],[-66.09375,22.5],[-66.09375,23.90625],[-67.5,23.90625],[-67.5,22.5]]]},"properties":{"n":3}},{"type":"Feature","geometry":{"type":"Polygon","coordinates":[[[-68.90625,43.59375],[-67.5,43.59375],[-67.5,45],[-68.90625,45],[-68.90625,43.59375]]]},"properties":{"n":3}},{"type":"Feature","geometry":{"type":"Polygon","coordinates":[[[-73.125,40.78125],[-71.71875,40.78125],[-71.71875,42.1875],[-73.125,42.1875],[-73.125,40.78125]]]},"properties":{"n":3}},{"type":"Feature","geometry":{"type":"Polygon","coordinates":[[[-68.90625,36.5625],[-67.5,36.5625],[-67.5,37.96875],[-68.90625,37.96875],[-68.90625,36.5625]]]},"properties":{"n":3}},{"type":"Feature","geometry":{"type":"Polygon","coordinates":[[[-71.71875,30.9375],[-70.3125,30.9375],[-70.3125,32.34375],[-71.71875,32.34375],[-71.71875,30.9375]]]},"properties":{"n":3}},{"type":"Feature","geometry":{"type":"Polygon","coordinates":[[[-74.53125,32.34375],[-73.125,32.34375],[-73.125,33.75],[-74.53125,33.75],[-74.53125,32.34375]]]},"properties":{"n":3}},{"type":"Feature","geometry":{"type":"Polygon","coordinates":[[[-78.75,29.53125],[-77.34375,29.53125],[-77.34375,30.9375],[-78.75,30.9375],[-78.75,29.53125]]]},"properties":{"n":3}},{"type":"Feature","geometry":{"type":"Polygon","coordinates":[[[-71.71875,25.3125],[-70.3125,25.3125],[-70.3125,26.71875],[-71.71875,26.71875],[-71.71875,25.3125]]]},"properties":{"n":3}},{"type":"Feature","geometry":{"type":"Polygon","coordinates":[[[-75.9375,26.71875],[-74.53125,26.71875],[-74.53125,28.125],[-75.9375,28.125],[-75.9375,26.71875]]]},"properties":{"n":3}},{"type":"Feature","geometry":{"type":"Polygon","coordinates":[[[-75.9375,25.3125],[-74.53125,25.3125],[-74.53125,26.71875],[-75.9375,26.71875],[-75.9375,25.3125]]]},"properties":{"n":3}},{"type":"Feature","geometry":{"type":"Polygon","coordinates":[[[-87.1875,29.53125],[-85.78125,29.53125],[-85.78125,30.9375],[-87.1875,30.9375],[-87.1875,29.53125]]]},"properties":{"n":3}},{"type":"Feature","geometry":{"type":"Polygon","coordinates":[[[-60.46875,21.09375],[-59.0625,21.09375],[-59.0625,22.5],[-60.46875,22.5],[-60.46875,21.09375]]]},"properties":{"n":3}},{"type":"Feature","geometry":{"type":"Polygon","coordinates":[[[-61.875,21.09375],[-60.46875,21.09375],[-60.46875,22.5],[-61.875,22.5],[-61.875,21.09375]]]},"properties":{"n":3}},{"type":"Feature","geometry":{"type":"Polygon","coordinates":[[[-63.28125,19.6875],[-61.875,19.6875],[-61.875,21.09375],[-63.28125,21.09375],[-63.28125,19.6875]]]},"properties":{"n":3}},{"type":"Feature","geometry":{"type":"Polygon","coordinates":[[[-57.65625,9.84375],[-56.25,9.84375],[-56.25,11.25],[-57.65625,11.25],[-57.65625,9.84375]]]},"properties":{"n":3}},{"type":"Feature","geometry":{"type":"Polygon","coordinates":[[[-85.78125,21.09375],[-84.375,21.09375],[-84.375,22.5],[-85.78125,22.5],[-85.78125,21.09375]]]},"properties":{"n":3}},{"type":"Feature","geometry":{"type":"Polygon","coordinates":[[[-92.8125,22.5],[-91.40625,22.5],[-91.40625,23.90625],[-92.8125,23.90625],[-92.8125,22.5]]]},"properties":{"n":3}},{"type":"Feature","geometry":{"type":"Polygon","coordinates":[[[-95.625,23.90625],[-94.21875,23.90625],[-94.21875,25.3125],[-95.625,25.3125],[-95.625,23.90625]]]},"properties":{"n":3}},{"type":"Feature","geometry":{"type":"Polygon","coordinates":[[[-94.21875,18.28125],[-92.8125,18.28125],[-92.8125,19.6875],[-94.21875,19.6875],[-94.21875,18.28125]]]},"properties":{"n":3}},{"type":"Feature","geometry":{"type":"Polygon","coordinates":[[[-97.03125,21.09375],[-95.625,21.09375],[-95.625,22.5],[-97.03125,22.5],[-97.03125,21.09375]]]},"properties":{"n":3}},{"type":"Feature","geometry":{"type":"Polygon","coordinates":[[[11.25,45],[12.65625,45],[12.65625,46.40625],[11.25,46.40625],[11.25,45]]]},"properties":{"n":2}},{"type":"Feature","geometry":{"type":"Polygon","coordinates":[[[1.40625,50.625],[2.8125,50.625],[2.8125,52.03125],[1.40625,52.03125],[1.40625,50.625]]]},"properties":{"n":2}},{"type":"Feature","geometry":{"type":"Polygon","coordinates":[[[26.71875,36.5625],[28.125,36.5625],[28.125,37.96875],[26.71875,37.96875],[26.71875,36.5625]]]},"properties":{"n":2}},{"type":"Feature","geometry":{"type":"Polygon","coordinates":[[[18.28125,39.375],[19.6875,39.375],[19.6875,40.78125],[18.28125,40.78125],[18.28125,39.375]]]},"properties":{"n":2}},{"type":"Feature","geometry":{"type":"Polygon","coordinates":[[[15.46875,43.59375],[16.875,43.59375],[16.875,45],[15.46875,45],[15.46875,43.59375]]]},"properties":{"n":2}},{"type":"Feature","geometry":{"type":"Polygon","coordinates":[[[19.6875,33.75],[21.09375,33.75],[21.09375,35.15625],[19.6875,35.15625],[19.6875,33.75]]]},"properties":{"n":2}},{"type":"Feature","geometry":{"type":"Polygon","coordinates":[[[15.46875,37.96875],[16.875,37.96875],[16.875,39.375],[15.46875,39.375],[15.46875,37.96875]]]},"properties":{"n":2}},{"type":"Feature","geometry":{"type":"Polygon","coordinates":[[[5.625,42.1875],[7.03125,42.1875],[7.03125,43.59375],[5.625,43.59375],[5.625,42.1875]]]},"properties":{"n":2}},{"type":"Feature","geometry":{"type":"Polygon","coordinates":[[[16.875,-35.15625],[18.28125,-35.15625],[18.28125,-33.75],[16.875,-33.75],[16.875,-35.15625]]]},"properties":{"n":2}},{"type":"Feature","geometry":{"type":"Polygon","coordinates":[[[-5.625,50.625],[-4.21875,50.625],[-4.21875,52.03125],[-5.625,52.03125],[-5.625,50.625]]]},"properties":{"n":2}},{"type":"Feature","geometry":{"type":"Polygon","coordinates":[[[-8.4375,53.4375],[-7.03125,53.4375],[-7.03125,54.84375],[-8.4375,54.84375],[-8.4375,53.4375]]]},"properties":{"n":2}},{"type":"Feature","geometry":{"type":"Polygon","coordinates":[[[-11.25,52.03125],[-9.84375,52.03125],[-9.84375,53.4375],[-11.25,53.4375],[-11.25,52.03125]]]},"properties":{"n":2}},{"type":"Feature","geometry":{"type":"Polygon","coordinates":[[[-2.8125,49.21875],[-1.40625,49.21875],[-1.40625,50.625],[-2.8125,50.625],[-2.8125,49.21875]]]},"properties":{"n":2}},{"type":"Feature","geometry":{"type":"Polygon","coordinates":[[[-5.625,46.40625],[-4.21875,46.40625],[-4.21875,47.8125],[-5.625,47.8125],[-5.625,46.40625]]]},"properties":{"n":2}},{"type":"Feature","geometry":{"type":"Polygon","coordinates":[[[-53.4375,47.8125],[-52.03125,47.8125],[-52.03125,49.21875],[-53.4375,49.21875],[-53.4375,47.8125]]]},"properties":{"n":2}},{"type":"Feature","geometry":{"type":"Polygon","coordinates":[[[-59.0625,49.21875],[-57.65625,49.21875],[-57.65625,50.625],[-59.0625,50.625],[-59.0625,49.21875]]]},"properties":{"n":2}},{"type":"Feature","geometry":{"type":"Polygon","coordinates":[[[-61.875,47.8125],[-60.46875,47.8125],[-60.46875,49.21875],[-61.875,49.21875],[-61.875,47.8125]]]},"properties":{"n":2}},{"type":"Feature","geometry":{"type":"Polygon","coordinates":[[[-64.6875,46.40625],[-63.28125,46.40625],[-63.28125,47.8125],[-64.6875,47.8125],[-64.6875,46.40625]]]},"properties":{"n":2}},{"type":"Feature","geometry":{"type":"Polygon","coordinates":[[[-1.40625,36.5625],[0,36.5625],[0,37.96875],[-1.40625,37.96875],[-1.40625,36.5625]]]},"properties":{"n":2}},{"type":"Feature","geometry":{"type":"Polygon","coordinates":[[[-2.8125,36.5625],[-1.40625,36.5625],[-1.40625,37.96875],[-2.8125,37.96875],[-2.8125,36.5625]]]},"properties":{"n":2}},{"type":"Feature","geometry":{"type":"Polygon","coordinates":[[[-9.84375,37.96875],[-8.4375,37.96875],[-8.4375,39.375],[-9.84375,39.375],[-9.84375,37.96875]]]},"properties":{"n":2}},{"type":"Feature","geometry":{"type":"Polygon","coordinates":[[[-26.71875,37.96875],[-25.3125,37.96875],[-25.3125,39.375],[-26.71875,39.375],[-26.71875,37.96875]]]},"properties":{"n":2}},{"type":"Feature","geometry":{"type":"Polygon","coordinates":[[[-26.71875,36.5625],[-25.3125,36.5625],[-25.3125,37.96875],[-26.71875,37.96875],[-26.71875,36.5625]]]},"properties":{"n":2}},{"type":"Feature","geometry":{"type":"Polygon","coordinates":[[[-43.59375,43.59375],[-42.1875,43.59375],[-42.1875,45],[-43.59375,45],[-43.59375,43.59375]]]},"properties":{"n":2}},{"type":"Feature","geometry":{"type":"Polygon","coordinates":[[[-46.40625,40.78125],[-45,40.78125],[-45,42.1875],[-46.40625,42.1875],[-46.40625,40.78125]]]},"properties":{"n":2}},{"type":"Feature","geometry":{"type":"Polygon","coordinates":[[[-47.8125,39.375],[-46.40625,39.375],[-46.40625,40.78125],[-47.8125,40.78125],[-47.8125,39.375]]]},"properties":{"n":2}},{"type":"Feature","geometry":{"type":"Polygon","coordinates":[[[-49.21875,39.375],[-47.8125,39.375],[-47.8125,40.78125],[-49.21875,40.78125],[-49.21875,39.375]]]},"properties":{"n":2}},{"type":"Feature","geometry":{"type":"Polygon","coordinates":[[[-50.625,39.375],[-49.21875,39.375],[-49.21875,40.78125],[-50.625,40.78125],[-50.625,39.375]]]},"properties":{"n":2}},{"type":"Feature","geometry":{"type":"Polygon","coordinates":[[[-54.84375,40.78125],[-53.4375,40.78125],[-53.4375,42.1875],[-54.84375,42.1875],[-54.84375,40.78125]]]},"properties":{"n":2}},{"type":"Feature","geometry":{"type":"Polygon","coordinates":[[[-59.0625,39.375],[-57.65625,39.375],[-57.65625,40.78125],[-59.0625,40.78125],[-59.0625,39.375]]]},"properties":{"n":2}},{"type":"Feature","geometry":{"type":"Polygon","coordinates":[[[-66.09375,43.59375],[-64.6875,43.59375],[-64.6875,45],[-66.09375,45],[-66.09375,43.59375]]]},"properties":{"n":2}},{"type":"Feature","geometry":{"type":"Polygon","coordinates":[[[-66.09375,37.96875],[-64.6875,37.96875],[-64.6875,39.375],[-66.09375,39.375],[-66.09375,37.96875]]]},"properties":{"n":2}},{"type":"Feature","geometry":{"type":"Polygon","coordinates":[[[-67.5,36.5625],[-66.09375,36.5625],[-66.09375,37.96875],[-67.5,37.96875],[-67.5,36.5625]]]},"properties":{"n":2}},{"type":"Feature","geometry":{"type":"Polygon","coordinates":[[[-61.875,28.125],[-60.46875,28.125],[-60.46875,29.53125],[-61.875,29.53125],[-61.875,28.125]]]},"properties":{"n":2}},{"type":"Feature","geometry":{"type":"Polygon","coordinates":[[[-66.09375,28.125],[-64.6875,28.125],[-64.6875,29.53125],[-66.09375,29.53125],[-66.09375,28.125]]]},"properties":{"n":2}},{"type":"Feature","geometry":{"type":"Polygon","coordinates":[[[-63.28125,25.3125],[-61.875,25.3125],[-61.875,26.71875],[-63.28125,26.71875],[-63.28125,25.3125]]]},"properties":{"n":2}},{"type":"Feature","geometry":{"type":"Polygon","coordinates":[[[-71.71875,33.75],[-70.3125,33.75],[-70.3125,35.15625],[-71.71875,35.15625],[-71.71875,33.75]]]},"properties":{"n":2}},{"type":"Feature","geometry":{"type":"Polygon","coordinates":[[[-77.34375,35.15625],[-75.9375,35.15625],[-75.9375,36.5625],[-77.34375,36.5625],[-77.34375,35.15625]]]},"properties":{"n":2}},{"type":"Feature","geometry":{"type":"Polygon","coordinates":[[[-70.3125,30.9375],[-68.90625,30.9375],[-68.90625,32.34375],[-70.3125,32.34375],[-70.3125,30.9375]]]},"properties":{"n":2}},{"type":"Feature","geometry":{"type":"Polygon","coordinates":[[[-70.3125,29.53125],[-68.90625,29.53125],[-68.90625,30.9375],[-70.3125,30.9375],[-70.3125,29.53125]]]},"properties":{"n":2}},{"type":"Feature","geometry":{"type":"Polygon","coordinates":[[[-70.3125,28.125],[-68.90625,28.125],[-68.90625,29.53125],[-70.3125,29.53125],[-70.3125,28.125]]]},"properties":{"n":2}},{"type":"Feature","geometry":{"type":"Polygon","coordinates":[[[-74.53125,30.9375],[-73.125,30.9375],[-73.125,32.34375],[-74.53125,32.34375],[-74.53125,30.9375]]]},"properties":{"n":2}},{"type":"Feature","geometry":{"type":"Polygon","coordinates":[[[-74.53125,29.53125],[-73.125,29.53125],[-73.125,30.9375],[-74.53125,30.9375],[-74.53125,29.53125]]]},"properties":{"n":2}},{"type":"Feature","geometry":{"type":"Polygon","coordinates":[[[-85.78125,28.125],[-84.375,28.125],[-84.375,29.53125],[-85.78125,29.53125],[-85.78125,28.125]]]},"properties":{"n":2}},{"type":"Feature","geometry":{"type":"Polygon","coordinates":[[[-87.1875,23.90625],[-85.78125,23.90625],[-85.78125,25.3125],[-87.1875,25.3125],[-87.1875,23.90625]]]},"properties":{"n":2}},{"type":"Feature","geometry":{"type":"Polygon","coordinates":[[[-90,22.5],[-88.59375,22.5],[-88.59375,23.90625],[-90,23.90625],[-90,22.5]]]},"properties":{"n":2}},{"type":"Feature","geometry":{"type":"Polygon","coordinates":[[[-54.84375,19.6875],[-53.4375,19.6875],[-53.4375,21.09375],[-54.84375,21.09375],[-54.84375,19.6875]]]},"properties":{"n":2}},{"type":"Feature","geometry":{"type":"Polygon","coordinates":[[[-50.625,14.0625],[-49.21875,14.0625],[-49.21875,15.46875],[-50.625,15.46875],[-50.625,14.0625]]]},"properties":{"n":2}},{"type":"Feature","geometry":{"type":"Polygon","coordinates":[[[-57.65625,21.09375],[-56.25,21.09375],[-56.25,22.5],[-57.65625,22.5],[-57.65625,21.09375]]]},"properties":{"n":2}},{"type":"Feature","geometry":{"type":"Polygon","coordinates":[[[-59.0625,21.09375],[-57.65625,21.09375],[-57.65625,22.5],[-59.0625,22.5],[-59.0625,21.09375]]]},"properties":{"n":2}},{"type":"Feature","geometry":{"type":"Polygon","coordinates":[[[-57.65625,19.6875],[-56.25,19.6875],[-56.25,21.09375],[-57.65625,21.09375],[-57.65625,19.6875]]]},"properties":{"n":2}},{"type":"Feature","geometry":{"type":"Polygon","coordinates":[[[-60.46875,19.6875],[-59.0625,19.6875],[-59.0625,21.09375],[-60.46875,21.09375],[-60.46875,19.6875]]]},"properties":{"n":2}},{"type":"Feature","geometry":{"type":"Polygon","coordinates":[[[-61.875,19.6875],[-60.46875,19.6875],[-60.46875,21.09375],[-61.875,21.09375],[-61.875,19.6875]]]},"properties":{"n":2}},{"type":"Feature","geometry":{"type":"Polygon","coordinates":[[[-66.09375,15.46875],[-64.6875,15.46875],[-64.6875,16.875],[-66.09375,16.875],[-66.09375,15.46875]]]},"properties":{"n":2}},{"type":"Feature","geometry":{"type":"Polygon","coordinates":[[[-87.1875,21.09375],[-85.78125,21.09375],[-85.78125,22.5],[-87.1875,22.5],[-87.1875,21.09375]]]},"properties":{"n":2}},{"type":"Feature","geometry":{"type":"Polygon","coordinates":[[[-88.59375,21.09375],[-87.1875,21.09375],[-87.1875,22.5],[-88.59375,22.5],[-88.59375,21.09375]]]},"properties":{"n":2}},{"type":"Feature","geometry":{"type":"Polygon","coordinates":[[[-94.21875,22.5],[-92.8125,22.5],[-92.8125,23.90625],[-94.21875,23.90625],[-94.21875,22.5]]]},"properties":{"n":2}},{"type":"Feature","geometry":{"type":"Polygon","coordinates":[[[-98.4375,26.71875],[-97.03125,26.71875],[-97.03125,28.125],[-98.4375,28.125],[-98.4375,26.71875]]]},"properties":{"n":2}},{"type":"Feature","geometry":{"type":"Polygon","coordinates":[[[-122.34375,36.5625],[-120.9375,36.5625],[-120.9375,37.96875],[-122.34375,37.96875],[-122.34375,36.5625]]]},"properties":{"n":2}},{"type":"Feature","geometry":{"type":"Polygon","coordinates":[[[-95.625,21.09375],[-94.21875,21.09375],[-94.21875,22.5],[-95.625,22.5],[-95.625,21.09375]]]},"properties":{"n":2}},{"type":"Feature","geometry":{"type":"Polygon","coordinates":[[[-95.625,19.6875],[-94.21875,19.6875],[-94.21875,21.09375],[-95.625,21.09375],[-95.625,19.6875]]]},"properties":{"n":2}},{"type":"Feature","geometry":{"type":"Polygon","coordinates":[[[129.375,30.9375],[130.78125,30.9375],[130.78125,32.34375],[129.375,32.34375],[129.375,30.9375]]]},"properties":{"n":1}},{"type":"Feature","geometry":{"type":"Polygon","coordinates":[[[130.78125,29.53125],[132.1875,29.53125],[132.1875,30.9375],[130.78125,30.9375],[130.78125,29.53125]]]},"properties":{"n":1}},{"type":"Feature","geometry":{"type":"Polygon","coordinates":[[[129.375,28.125],[130.78125,28.125],[130.78125,29.53125],[129.375,29.53125],[129.375,28.125]]]},"properties":{"n":1}},{"type":"Feature","geometry":{"type":"Polygon","coordinates":[[[7.03125,61.875],[8.4375,61.875],[8.4375,63.28125],[7.03125,63.28125],[7.03125,61.875]]]},"properties":{"n":1}},{"type":"Feature","geometry":{"type":"Polygon","coordinates":[[[2.8125,60.46875],[4.21875,60.46875],[4.21875,61.875],[2.8125,61.875],[2.8125,60.46875]]]},"properties":{"n":1}},{"type":"Feature","geometry":{"type":"Polygon","coordinates":[[[4.21875,52.03125],[5.625,52.03125],[5.625,53.4375],[4.21875,53.4375],[4.21875,52.03125]]]},"properties":{"n":1}},{"type":"Feature","geometry":{"type":"Polygon","coordinates":[[[73.125,12.65625],[74.53125,12.65625],[74.53125,14.0625],[73.125,14.0625],[73.125,12.65625]]]},"properties":{"n":1}},{"type":"Feature","geometry":{"type":"Polygon","coordinates":[[[74.53125,8.4375],[75.9375,8.4375],[75.9375,9.84375],[74.53125,9.84375],[74.53125,8.4375]]]},"properties":{"n":1}},{"type":"Feature","geometry":{"type":"Polygon","coordinates":[[[28.125,40.78125],[29.53125,40.78125],[29.53125,42.1875],[28.125,42.1875],[28.125,40.78125]]]},"properties":{"n":1}},{"type":"Feature","geometry":{"type":"Polygon","coordinates":[[[23.90625,40.78125],[25.3125,40.78125],[25.3125,42.1875],[23.90625,42.1875],[23.90625,40.78125]]]},"properties":{"n":1}},{"type":"Feature","geometry":{"type":"Polygon","coordinates":[[[30.9375,36.5625],[32.34375,36.5625],[32.34375,37.96875],[30.9375,37.96875],[30.9375,36.5625]]]},"properties":{"n":1}},{"type":"Feature","geometry":{"type":"Polygon","coordinates":[[[22.5,36.5625],[23.90625,36.5625],[23.90625,37.96875],[22.5,37.96875],[22.5,36.5625]]]},"properties":{"n":1}},{"type":"Feature","geometry":{"type":"Polygon","coordinates":[[[25.3125,35.15625],[26.71875,35.15625],[26.71875,36.5625],[25.3125,36.5625],[25.3125,35.15625]]]},"properties":{"n":1}},{"type":"Feature","geometry":{"type":"Polygon","coordinates":[[[18.28125,42.1875],[19.6875,42.1875],[19.6875,43.59375],[18.28125,43.59375],[18.28125,42.1875]]]},"properties":{"n":1}},{"type":"Feature","geometry":{"type":"Polygon","coordinates":[[[16.875,39.375],[18.28125,39.375],[18.28125,40.78125],[16.875,40.78125],[16.875,39.375]]]},"properties":{"n":1}},{"type":"Feature","geometry":{"type":"Polygon","coordinates":[[[15.46875,40.78125],[16.875,40.78125],[16.875,42.1875],[15.46875,42.1875],[15.46875,40.78125]]]},"properties":{"n":1}},{"type":"Feature","geometry":{"type":"Polygon","coordinates":[[[14.0625,40.78125],[15.46875,40.78125],[15.46875,42.1875],[14.0625,42.1875],[14.0625,40.78125]]]},"properties":{"n":1}},{"type":"Feature","geometry":{"type":"Polygon","coordinates":[[[11.25,37.96875],[12.65625,37.96875],[12.65625,39.375],[11.25,39.375],[11.25,37.96875]]]},"properties":{"n":1}},{"type":"Feature","geometry":{"type":"Polygon","coordinates":[[[15.46875,33.75],[16.875,33.75],[16.875,35.15625],[15.46875,35.15625],[15.46875,33.75]]]},"properties":{"n":1}},{"type":"Feature","geometry":{"type":"Polygon","coordinates":[[[8.4375,40.78125],[9.84375,40.78125],[9.84375,42.1875],[8.4375,42.1875],[8.4375,40.78125]]]},"properties":{"n":1}},{"type":"Feature","geometry":{"type":"Polygon","coordinates":[[[4.21875,36.5625],[5.625,36.5625],[5.625,37.96875],[4.21875,37.96875],[4.21875,36.5625]]]},"properties":{"n":1}},{"type":"Feature","geometry":{"type":"Polygon","coordinates":[[[2.8125,36.5625],[4.21875,36.5625],[4.21875,37.96875],[2.8125,37.96875],[2.8125,36.5625]]]},"properties":{"n":1}},{"type":"Feature","geometry":{"type":"Polygon","coordinates":[[[1.40625,36.5625],[2.8125,36.5625],[2.8125,37.96875],[1.40625,37.96875],[1.40625,36.5625]]]},"properties":{"n":1}},{"type":"Feature","geometry":{"type":"Polygon","coordinates":[[[0,36.5625],[1.40625,36.5625],[1.40625,37.96875],[0,37.96875],[0,36.5625]]]},"properties":{"n":1}},{"type":"Feature","geometry":{"type":"Polygon","coordinates":[[[136.40625,-8.4375],[137.8125,-8.4375],[137.8125,-7.03125],[136.40625,-7.03125],[136.40625,-8.4375]]]},"properties":{"n":1}},{"type":"Feature","geometry":{"type":"Polygon","coordinates":[[[140.625,-14.0625],[142.03125,-14.0625],[142.03125,-12.65625],[140.625,-12.65625],[140.625,-14.0625]]]},"properties":{"n":1}},{"type":"Feature","geometry":{"type":"Polygon","coordinates":[[[140.625,-15.46875],[142.03125,-15.46875],[142.03125,-14.0625],[140.625,-14.0625],[140.625,-15.46875]]]},"properties":{"n":1}},{"type":"Feature","geometry":{"type":"Polygon","coordinates":[[[140.625,-16.875],[142.03125,-16.875],[142.03125,-15.46875],[140.625,-15.46875],[140.625,-16.875]]]},"properties":{"n":1}},{"type":"Feature","geometry":{"type":"Polygon","coordinates":[[[137.8125,-16.875],[139.21875,-16.875],[139.21875,-15.46875],[137.8125,-15.46875],[137.8125,-16.875]]]},"properties":{"n":1}},{"type":"Feature","geometry":{"type":"Polygon","coordinates":[[[12.65625,-7.03125],[14.0625,-7.03125],[14.0625,-5.625],[12.65625,-5.625],[12.65625,-7.03125]]]},"properties":{"n":1}},{"type":"Feature","geometry":{"type":"Polygon","coordinates":[[[14.0625,-28.125],[15.46875,-28.125],[15.46875,-26.71875],[14.0625,-26.71875],[14.0625,-28.125]]]},"properties":{"n":1}},{"type":"Feature","geometry":{"type":"Polygon","coordinates":[[[16.875,-32.34375],[18.28125,-32.34375],[18.28125,-30.9375],[16.875,-30.9375],[16.875,-32.34375]]]},"properties":{"n":1}},{"type":"Feature","geometry":{"type":"Polygon","coordinates":[[[16.875,-33.75],[18.28125,-33.75],[18.28125,-32.34375],[16.875,-32.34375],[16.875,-33.75]]]},"properties":{"n":1}},{"type":"Feature","geometry":{"type":"Polygon","coordinates":[[[-1.40625,54.84375],[0,54.84375],[0,56.25],[-1.40625,56.25],[-1.40625,54.84375]]]},"properties":{"n":1}},{"type":"Feature","geometry":{"type":"Polygon","coordinates":[[[-2.8125,54.84375],[-1.40625,54.84375],[-1.40625,56.25],[-2.8125,56.25],[-2.8125,54.84375]]]},"properties":{"n":1}},{"type":"Feature","geometry":{"type":"Polygon","coordinates":[[[-5.625,54.84375],[-4.21875,54.84375],[-4.21875,56.25],[-5.625,56.25],[-5.625,54.84375]]]},"properties":{"n":1}},{"type":"Feature","geometry":{"type":"Polygon","coordinates":[[[-4.21875,50.625],[-2.8125,50.625],[-2.8125,52.03125],[-4.21875,52.03125],[-4.21875,50.625]]]},"properties":{"n":1}},{"type":"Feature","geometry":{"type":"Polygon","coordinates":[[[-7.03125,54.84375],[-5.625,54.84375],[-5.625,56.25],[-7.03125,56.25],[-7.03125,54.84375]]]},"properties":{"n":1}},{"type":"Feature","geometry":{"type":"Polygon","coordinates":[[[-8.4375,54.84375],[-7.03125,54.84375],[-7.03125,56.25],[-8.4375,56.25],[-8.4375,54.84375]]]},"properties":{"n":1}},{"type":"Feature","geometry":{"type":"Polygon","coordinates":[[[-9.84375,53.4375],[-8.4375,53.4375],[-8.4375,54.84375],[-9.84375,54.84375],[-9.84375,53.4375]]]},"properties":{"n":1}},{"type":"Feature","geometry":{"type":"Polygon","coordinates":[[[-2.8125,47.8125],[-1.40625,47.8125],[-1.40625,49.21875],[-2.8125,49.21875],[-2.8125,47.8125]]]},"properties":{"n":1}},{"type":"Feature","geometry":{"type":"Polygon","coordinates":[[[-4.21875,47.8125],[-2.8125,47.8125],[-2.8125,49.21875],[-4.21875,49.21875],[-4.21875,47.8125]]]},"properties":{"n":1}},{"type":"Feature","geometry":{"type":"Polygon","coordinates":[[[-4.21875,45],[-2.8125,45],[-2.8125,46.40625],[-4.21875,46.40625],[-4.21875,45]]]},"properties":{"n":1}},{"type":"Feature","geometry":{"type":"Polygon","coordinates":[[[-7.03125,49.21875],[-5.625,49.21875],[-5.625,50.625],[-7.03125,50.625],[-7.03125,49.21875]]]},"properties":{"n":1}},{"type":"Feature","geometry":{"type":"Polygon","coordinates":[[[-42.1875,50.625],[-40.78125,50.625],[-40.78125,52.03125],[-42.1875,52.03125],[-42.1875,50.625]]]},"properties":{"n":1}},{"type":"Feature","geometry":{"type":"Polygon","coordinates":[[[-43.59375,49.21875],[-42.1875,49.21875],[-42.1875,50.625],[-43.59375,50.625],[-43.59375,49.21875]]]},"properties":{"n":1}},{"type":"Feature","geometry":{"type":"Polygon","coordinates":[[[-45,46.40625],[-43.59375,46.40625],[-43.59375,47.8125],[-45,47.8125],[-45,46.40625]]]},"properties":{"n":1}},{"type":"Feature","geometry":{"type":"Polygon","coordinates":[[[-46.40625,49.21875],[-45,49.21875],[-45,50.625],[-46.40625,50.625],[-46.40625,49.21875]]]},"properties":{"n":1}},{"type":"Feature","geometry":{"type":"Polygon","coordinates":[[[-47.8125,46.40625],[-46.40625,46.40625],[-46.40625,47.8125],[-47.8125,47.8125],[-47.8125,46.40625]]]},"properties":{"n":1}},{"type":"Feature","geometry":{"type":"Polygon","coordinates":[[[-56.25,46.40625],[-54.84375,46.40625],[-54.84375,47.8125],[-56.25,47.8125],[-56.25,46.40625]]]},"properties":{"n":1}},{"type":"Feature","geometry":{"type":"Polygon","coordinates":[[[-57.65625,50.625],[-56.25,50.625],[-56.25,52.03125],[-57.65625,52.03125],[-57.65625,50.625]]]},"properties":{"n":1}},{"type":"Feature","geometry":{"type":"Polygon","coordinates":[[[-60.46875,49.21875],[-59.0625,49.21875],[-59.0625,50.625],[-60.46875,50.625],[-60.46875,49.21875]]]},"properties":{"n":1}},{"type":"Feature","geometry":{"type":"Polygon","coordinates":[[[-59.0625,45],[-57.65625,45],[-57.65625,46.40625],[-59.0625,46.40625],[-59.0625,45]]]},"properties":{"n":1}},{"type":"Feature","geometry":{"type":"Polygon","coordinates":[[[-60.46875,46.40625],[-59.0625,46.40625],[-59.0625,47.8125],[-60.46875,47.8125],[-60.46875,46.40625]]]},"properties":{"n":1}},{"type":"Feature","geometry":{"type":"Polygon","coordinates":[[[-63.28125,45],[-61.875,45],[-61.875,46.40625],[-63.28125,46.40625],[-63.28125,45]]]},"properties":{"n":1}},{"type":"Feature","geometry":{"type":"Polygon","coordinates":[[[-70.3125,63.28125],[-68.90625,63.28125],[-68.90625,64.6875],[-70.3125,64.6875],[-70.3125,63.28125]]]},"properties":{"n":1}},{"type":"Feature","geometry":{"type":"Polygon","coordinates":[[[-1.40625,43.59375],[0,43.59375],[0,45],[-1.40625,45],[-1.40625,43.59375]]]},"properties":{"n":1}},{"type":"Feature","geometry":{"type":"Polygon","coordinates":[[[-9.84375,39.375],[-8.4375,39.375],[-8.4375,40.78125],[-9.84375,40.78125],[-9.84375,39.375]]]},"properties":{"n":1}},{"type":"Feature","geometry":{"type":"Polygon","coordinates":[[[-4.21875,36.5625],[-2.8125,36.5625],[-2.8125,37.96875],[-4.21875,37.96875],[-4.21875,36.5625]]]},"properties":{"n":1}},{"type":"Feature","geometry":{"type":"Polygon","coordinates":[[[-7.03125,36.5625],[-5.625,36.5625],[-5.625,37.96875],[-7.03125,37.96875],[-7.03125,36.5625]]]},"properties":{"n":1}},{"type":"Feature","geometry":{"type":"Polygon","coordinates":[[[-8.4375,36.5625],[-7.03125,36.5625],[-7.03125,37.96875],[-8.4375,37.96875],[-8.4375,36.5625]]]},"properties":{"n":1}},{"type":"Feature","geometry":{"type":"Polygon","coordinates":[[[-18.28125,37.96875],[-16.875,37.96875],[-16.875,39.375],[-18.28125,39.375],[-18.28125,37.96875]]]},"properties":{"n":1}},{"type":"Feature","geometry":{"type":"Polygon","coordinates":[[[-16.875,32.34375],[-15.46875,32.34375],[-15.46875,33.75],[-16.875,33.75],[-16.875,32.34375]]]},"properties":{"n":1}},{"type":"Feature","geometry":{"type":"Polygon","coordinates":[[[-16.875,26.71875],[-15.46875,26.71875],[-15.46875,28.125],[-16.875,28.125],[-16.875,26.71875]]]},"properties":{"n":1}},{"type":"Feature","geometry":{"type":"Polygon","coordinates":[[[-40.78125,43.59375],[-39.375,43.59375],[-39.375,45],[-40.78125,45],[-40.78125,43.59375]]]},"properties":{"n":1}},{"type":"Feature","geometry":{"type":"Polygon","coordinates":[[[-42.1875,43.59375],[-40.78125,43.59375],[-40.78125,45],[-42.1875,45],[-42.1875,43.59375]]]},"properties":{"n":1}},{"type":"Feature","geometry":{"type":"Polygon","coordinates":[[[-43.59375,40.78125],[-42.1875,40.78125],[-42.1875,42.1875],[-43.59375,42.1875],[-43.59375,40.78125]]]},"properties":{"n":1}},{"type":"Feature","geometry":{"type":"Polygon","coordinates":[[[-43.59375,37.96875],[-42.1875,37.96875],[-42.1875,39.375],[-43.59375,39.375],[-43.59375,37.96875]]]},"properties":{"n":1}},{"type":"Feature","geometry":{"type":"Polygon","coordinates":[[[-26.71875,26.71875],[-25.3125,26.71875],[-25.3125,28.125],[-26.71875,28.125],[-26.71875,26.71875]]]},"properties":{"n":1}},{"type":"Feature","geometry":{"type":"Polygon","coordinates":[[[-35.15625,30.9375],[-33.75,30.9375],[-33.75,32.34375],[-35.15625,32.34375],[-35.15625,30.9375]]]},"properties":{"n":1}},{"type":"Feature","geometry":{"type":"Polygon","coordinates":[[[-54.84375,42.1875],[-53.4375,42.1875],[-53.4375,43.59375],[-54.84375,43.59375],[-54.84375,42.1875]]]},"properties":{"n":1}},{"type":"Feature","geometry":{"type":"Polygon","coordinates":[[[-56.25,42.1875],[-54.84375,42.1875],[-54.84375,43.59375],[-56.25,43.59375],[-56.25,42.1875]]]},"properties":{"n":1}},{"type":"Feature","geometry":{"type":"Polygon","coordinates":[[[-54.84375,39.375],[-53.4375,39.375],[-53.4375,40.78125],[-54.84375,40.78125],[-54.84375,39.375]]]},"properties":{"n":1}},{"type":"Feature","geometry":{"type":"Polygon","coordinates":[[[-56.25,39.375],[-54.84375,39.375],[-54.84375,40.78125],[-56.25,40.78125],[-56.25,39.375]]]},"properties":{"n":1}},{"type":"Feature","geometry":{"type":"Polygon","coordinates":[[[-52.03125,37.96875],[-50.625,37.96875],[-50.625,39.375],[-52.03125,39.375],[-52.03125,37.96875]]]},"properties":{"n":1}},{"type":"Feature","geometry":{"type":"Polygon","coordinates":[[[-59.0625,43.59375],[-57.65625,43.59375],[-57.65625,45],[-59.0625,45],[-59.0625,43.59375]]]},"properties":{"n":1}},{"type":"Feature","geometry":{"type":"Polygon","coordinates":[[[-61.875,40.78125],[-60.46875,40.78125],[-60.46875,42.1875],[-61.875,42.1875],[-61.875,40.78125]]]},"properties":{"n":1}},{"type":"Feature","geometry":{"type":"Polygon","coordinates":[[[-61.875,39.375],[-60.46875,39.375],[-60.46875,40.78125],[-61.875,40.78125],[-61.875,39.375]]]},"properties":{"n":1}},{"type":"Feature","geometry":{"type":"Polygon","coordinates":[[[-64.6875,42.1875],[-63.28125,42.1875],[-63.28125,43.59375],[-64.6875,43.59375],[-64.6875,42.1875]]]},"properties":{"n":1}},{"type":"Feature","geometry":{"type":"Polygon","coordinates":[[[-67.5,42.1875],[-66.09375,42.1875],[-66.09375,43.59375],[-67.5,43.59375],[-67.5,42.1875]]]},"properties":{"n":1}},{"type":"Feature","geometry":{"type":"Polygon","coordinates":[[[-57.65625,33.75],[-56.25,33.75],[-56.25,35.15625],[-57.65625,35.15625],[-57.65625,33.75]]]},"properties":{"n":1}},{"type":"Feature","geometry":{"type":"Polygon","coordinates":[[[-63.28125,37.96875],[-61.875,37.96875],[-61.875,39.375],[-63.28125,39.375],[-63.28125,37.96875]]]},"properties":{"n":1}},{"type":"Feature","geometry":{"type":"Polygon","coordinates":[[[-50.625,28.125],[-49.21875,28.125],[-49.21875,29.53125],[-50.625,29.53125],[-50.625,28.125]]]},"properties":{"n":1}},{"type":"Feature","geometry":{"type":"Polygon","coordinates":[[[-59.0625,30.9375],[-57.65625,30.9375],[-57.65625,32.34375],[-59.0625,32.34375],[-59.0625,30.9375]]]},"properties":{"n":1}},{"type":"Feature","geometry":{"type":"Polygon","coordinates":[[[-60.46875,28.125],[-59.0625,28.125],[-59.0625,29.53125],[-60.46875,29.53125],[-60.46875,28.125]]]},"properties":{"n":1}},{"type":"Feature","geometry":{"type":"Polygon","coordinates":[[[-64.6875,28.125],[-63.28125,28.125],[-63.28125,29.53125],[-64.6875,29.53125],[-64.6875,28.125]]]},"properties":{"n":1}},{"type":"Feature","geometry":{"type":"Polygon","coordinates":[[[-64.6875,23.90625],[-63.28125,23.90625],[-63.28125,25.3125],[-64.6875,25.3125],[-64.6875,23.90625]]]},"properties":{"n":1}},{"type":"Feature","geometry":{"type":"Polygon","coordinates":[[[-66.09375,22.5],[-64.6875,22.5],[-64.6875,23.90625],[-66.09375,23.90625],[-66.09375,22.5]]]},"properties":{"n":1}},{"type":"Feature","geometry":{"type":"Polygon","coordinates":[[[-68.90625,35.15625],[-67.5,35.15625],[-67.5,36.5625],[-68.90625,36.5625],[-68.90625,35.15625]]]},"properties":{"n":1}},{"type":"Feature","geometry":{"type":"Polygon","coordinates":[[[-70.3125,35.15625],[-68.90625,35.15625],[-68.90625,36.5625],[-70.3125,36.5625],[-70.3125,35.15625]]]},"properties":{"n":1}},{"type":"Feature","geometry":{"type":"Polygon","coordinates":[[[-73.125,33.75],[-71.71875,33.75],[-71.71875,35.15625],[-73.125,35.15625],[-73.125,33.75]]]},"properties":{"n":1}},{"type":"Feature","geometry":{"type":"Polygon","coordinates":[[[-73.125,32.34375],[-71.71875,32.34375],[-71.71875,33.75],[-73.125,33.75],[-73.125,32.34375]]]},"properties":{"n":1}},{"type":"Feature","geometry":{"type":"Polygon","coordinates":[[[-73.125,30.9375],[-71.71875,30.9375],[-71.71875,32.34375],[-73.125,32.34375],[-73.125,30.9375]]]},"properties":{"n":1}},{"type":"Feature","geometry":{"type":"Polygon","coordinates":[[[-68.90625,28.125],[-67.5,28.125],[-67.5,29.53125],[-68.90625,29.53125],[-68.90625,28.125]]]},"properties":{"n":1}},{"type":"Feature","geometry":{"type":"Polygon","coordinates":[[[-71.71875,29.53125],[-70.3125,29.53125],[-70.3125,30.9375],[-71.71875,30.9375],[-71.71875,29.53125]]]},"properties":{"n":1}},{"type":"Feature","geometry":{"type":"Polygon","coordinates":[[[-73.125,25.3125],[-71.71875,25.3125],[-71.71875,26.71875],[-73.125,26.71875],[-73.125,25.3125]]]},"properties":{"n":1}},{"type":"Feature","geometry":{"type":"Polygon","coordinates":[[[-71.71875,23.90625],[-70.3125,23.90625],[-70.3125,25.3125],[-71.71875,25.3125],[-71.71875,23.90625]]]},"properties":{"n":1}},{"type":"Feature","geometry":{"type":"Polygon","coordinates":[[[-81.5625,32.34375],[-80.15625,32.34375],[-80.15625,33.75],[-81.5625,33.75],[-81.5625,32.34375]]]},"properties":{"n":1}},{"type":"Feature","geometry":{"type":"Polygon","coordinates":[[[-85.78125,29.53125],[-84.375,29.53125],[-84.375,30.9375],[-85.78125,30.9375],[-85.78125,29.53125]]]},"properties":{"n":1}},{"type":"Feature","geometry":{"type":"Polygon","coordinates":[[[-82.96875,26.71875],[-81.5625,26.71875],[-81.5625,28.125],[-82.96875,28.125],[-82.96875,26.71875]]]},"properties":{"n":1}},{"type":"Feature","geometry":{"type":"Polygon","coordinates":[[[-84.375,25.3125],[-82.96875,25.3125],[-82.96875,26.71875],[-84.375,26.71875],[-84.375,25.3125]]]},"properties":{"n":1}},{"type":"Feature","geometry":{"type":"Polygon","coordinates":[[[-84.375,22.5],[-82.96875,22.5],[-82.96875,23.90625],[-84.375,23.90625],[-84.375,22.5]]]},"properties":{"n":1}},{"type":"Feature","geometry":{"type":"Polygon","coordinates":[[[-85.78125,22.5],[-84.375,22.5],[-84.375,23.90625],[-85.78125,23.90625],[-85.78125,22.5]]]},"properties":{"n":1}},{"type":"Feature","geometry":{"type":"Polygon","coordinates":[[[-88.59375,23.90625],[-87.1875,23.90625],[-87.1875,25.3125],[-88.59375,25.3125],[-88.59375,23.90625]]]},"properties":{"n":1}},{"type":"Feature","geometry":{"type":"Polygon","coordinates":[[[-54.84375,18.28125],[-53.4375,18.28125],[-53.4375,19.6875],[-54.84375,19.6875],[-54.84375,18.28125]]]},"properties":{"n":1}},{"type":"Feature","geometry":{"type":"Polygon","coordinates":[[[-56.25,18.28125],[-54.84375,18.28125],[-54.84375,19.6875],[-56.25,19.6875],[-56.25,18.28125]]]},"properties":{"n":1}},{"type":"Feature","geometry":{"type":"Polygon","coordinates":[[[-49.21875,14.0625],[-47.8125,14.0625],[-47.8125,15.46875],[-49.21875,15.46875],[-49.21875,14.0625]]]},"properties":{"n":1}},{"type":"Feature","geometry":{"type":"Polygon","coordinates":[[[-56.25,11.25],[-54.84375,11.25],[-54.84375,12.65625],[-56.25,12.65625],[-56.25,11.25]]]},"properties":{"n":1}},{"type":"Feature","geometry":{"type":"Polygon","coordinates":[[[-59.0625,19.6875],[-57.65625,19.6875],[-57.65625,21.09375],[-59.0625,21.09375],[-59.0625,19.6875]]]},"properties":{"n":1}},{"type":"Feature","geometry":{"type":"Polygon","coordinates":[[[-59.0625,16.875],[-57.65625,16.875],[-57.65625,18.28125],[-59.0625,18.28125],[-59.0625,16.875]]]},"properties":{"n":1}},{"type":"Feature","geometry":{"type":"Polygon","coordinates":[[[-60.46875,18.28125],[-59.0625,18.28125],[-59.0625,19.6875],[-60.46875,19.6875],[-60.46875,18.28125]]]},"properties":{"n":1}},{"type":"Feature","geometry":{"type":"Polygon","coordinates":[[[-64.6875,16.875],[-63.28125,16.875],[-63.28125,18.28125],[-64.6875,18.28125],[-64.6875,16.875]]]},"properties":{"n":1}},{"type":"Feature","geometry":{"type":"Polygon","coordinates":[[[-67.5,16.875],[-66.09375,16.875],[-66.09375,18.28125],[-67.5,18.28125],[-67.5,16.875]]]},"properties":{"n":1}},{"type":"Feature","geometry":{"type":"Polygon","coordinates":[[[-67.5,15.46875],[-66.09375,15.46875],[-66.09375,16.875],[-67.5,16.875],[-67.5,15.46875]]]},"properties":{"n":1}},{"type":"Feature","geometry":{"type":"Polygon","coordinates":[[[-52.03125,9.84375],[-50.625,9.84375],[-50.625,11.25],[-52.03125,11.25],[-52.03125,9.84375]]]},"properties":{"n":1}},{"type":"Feature","geometry":{"type":"Polygon","coordinates":[[[-53.4375,8.4375],[-52.03125,8.4375],[-52.03125,9.84375],[-53.4375,9.84375],[-53.4375,8.4375]]]},"properties":{"n":1}},{"type":"Feature","geometry":{"type":"Polygon","coordinates":[[[-54.84375,9.84375],[-53.4375,9.84375],[-53.4375,11.25],[-54.84375,11.25],[-54.84375,9.84375]]]},"properties":{"n":1}},{"type":"Feature","geometry":{"type":"Polygon","coordinates":[[[-56.25,9.84375],[-54.84375,9.84375],[-54.84375,11.25],[-56.25,11.25],[-56.25,9.84375]]]},"properties":{"n":1}},{"type":"Feature","geometry":{"type":"Polygon","coordinates":[[[-54.84375,8.4375],[-53.4375,8.4375],[-53.4375,9.84375],[-54.84375,9.84375],[-54.84375,8.4375]]]},"properties":{"n":1}},{"type":"Feature","geometry":{"type":"Polygon","coordinates":[[[-68.90625,16.875],[-67.5,16.875],[-67.5,18.28125],[-68.90625,18.28125],[-68.90625,16.875]]]},"properties":{"n":1}},{"type":"Feature","geometry":{"type":"Polygon","coordinates":[[[-77.34375,16.875],[-75.9375,16.875],[-75.9375,18.28125],[-77.34375,18.28125],[-77.34375,16.875]]]},"properties":{"n":1}},{"type":"Feature","geometry":{"type":"Polygon","coordinates":[[[-70.3125,11.25],[-68.90625,11.25],[-68.90625,12.65625],[-70.3125,12.65625],[-70.3125,11.25]]]},"properties":{"n":1}},{"type":"Feature","geometry":{"type":"Polygon","coordinates":[[[-84.375,8.4375],[-82.96875,8.4375],[-82.96875,9.84375],[-84.375,9.84375],[-84.375,8.4375]]]},"properties":{"n":1}},{"type":"Feature","geometry":{"type":"Polygon","coordinates":[[[-85.78125,8.4375],[-84.375,8.4375],[-84.375,9.84375],[-85.78125,9.84375],[-85.78125,8.4375]]]},"properties":{"n":1}},{"type":"Feature","geometry":{"type":"Polygon","coordinates":[[[-82.96875,2.8125],[-81.5625,2.8125],[-81.5625,4.21875],[-82.96875,4.21875],[-82.96875,2.8125]]]},"properties":{"n":1}},{"type":"Feature","geometry":{"type":"Polygon","coordinates":[[[-132.1875,47.8125],[-130.78125,47.8125],[-130.78125,49.21875],[-132.1875,49.21875],[-132.1875,47.8125]]]},"properties":{"n":1}},{"type":"Feature","geometry":{"type":"Polygon","coordinates":[[[-140.625,47.8125],[-139.21875,47.8125],[-139.21875,49.21875],[-140.625,49.21875],[-140.625,47.8125]]]},"properties":{"n":1}},{"type":"Feature","geometry":{"type":"Polygon","coordinates":[[[-94.21875,29.53125],[-92.8125,29.53125],[-92.8125,30.9375],[-94.21875,30.9375],[-94.21875,29.53125]]]},"properties":{"n":1}},{"type":"Feature","geometry":{"type":"Polygon","coordinates":[[[-94.21875,28.125],[-92.8125,28.125],[-92.8125,29.53125],[-94.21875,29.53125],[-94.21875,28.125]]]},"properties":{"n":1}},{"type":"Feature","geometry":{"type":"Polygon","coordinates":[[[-95.625,28.125],[-94.21875,28.125],[-94.21875,29.53125],[-95.625,29.53125],[-95.625,28.125]]]},"properties":{"n":1}},{"type":"Feature","geometry":{"type":"Polygon","coordinates":[[[-91.40625,22.5],[-90,22.5],[-90,23.90625],[-91.40625,23.90625],[-91.40625,22.5]]]},"properties":{"n":1}},{"type":"Feature","geometry":{"type":"Polygon","coordinates":[[[-95.625,22.5],[-94.21875,22.5],[-94.21875,23.90625],[-95.625,23.90625],[-95.625,22.5]]]},"properties":{"n":1}},{"type":"Feature","geometry":{"type":"Polygon","coordinates":[[[-91.40625,19.6875],[-90,19.6875],[-90,21.09375],[-91.40625,21.09375],[-91.40625,19.6875]]]},"properties":{"n":1}},{"type":"Feature","geometry":{"type":"Polygon","coordinates":[[[-94.21875,16.875],[-92.8125,16.875],[-92.8125,18.28125],[-94.21875,18.28125],[-94.21875,16.875]]]},"properties":{"n":1}}]}