{"type":"FeatureCollection","features":[{"type":"Feature","geometry":{"type":"Polygon","coordinates":[[[-77.34375,-12.65625],[-75.9375,-12.65625],[-75.9375,-11.25],[-77.34375,-11.25],[-77.34375,-12.65625]]]},"properties":{"n":23}},{"type":"Feature","geometry":{"type":"Polygon","coordinates":[[[-71.71875,-33.75],[-70.3125,-33.75],[-70.3125,-32.34375],[-71.71875,-32.34375],[-71.71875,-33.75]]]},"properties":{"n":14}},{"type":"Feature","geometry":{"type":"Polygon","coordinates":[[[-73.125,-37.96875],[-71.71875,-37.96875],[-71.71875,-36.5625],[-73.125,-36.5625],[-73.125,-37.96875]]]},"properties":{"n":12}},{"type":"Feature","geometry":{"type":"Polygon","coordinates":[[[-74.53125,-39.375],[-73.125,-39.375],[-73.125,-37.96875],[-74.53125,-37.96875],[-74.53125,-39.375]]]},"properties":{"n":8}},{"type":"Feature","geometry":{"type":"Polygon","coordinates":[[[-71.71875,-23.90625],[-70.3125,-23.90625],[-70.3125,-22.5],[-71.71875,-22.5],[-71.71875,-23.90625]]]},"properties":{"n":6}},{"type":"Feature","geometry":{"type":"Polygon","coordinates":[[[-67.5,45],[-66.09375,45],[-66.09375,46.40625],[-67.5,46.40625],[-67.5,45]]]},"properties":{"n":5}},{"type":"Feature","geometry":{"type":"Polygon","coordinates":[[[-74.53125,-37.96875],[-73.125,-37.96875],[-73.125,-36.5625],[-74.53125,-36.5625],[-74.53125,-37.96875]]]},"properties":{"n":5}},{"type":"Feature","geometry":{"type":"Polygon","coordinates":[[[-80.15625,-8.4375],[-78.75,-8.4375],[-78.75,-7.03125],[-80.15625,-7.03125],[-80.15625,-8.4375]]]},"properties":{"n":4}},{"type":"Feature","geometry":{"type":"Polygon","coordinates":[[[-77.34375,-14.0625],[-75.9375,-14.0625],[-75.9375,-12.65625],[-77.34375,-12.65625],[-77.34375,-14.0625]]]},"properties":{"n":4}},{"type":"Feature","geometry":{"type":"Polygon","coordinates":[[[-71.71875,-30.9375],[-70.3125,-30.9375],[-70.3125,-29.53125],[-71.71875,-29.53125],[-71.71875,-30.9375]]]},"properties":{"n":4}},{"type":"Feature","geometry":{"type":"Polygon","coordinates":[[[-73.125,-36.5625],[-71.71875,-36.5625],[-71.71875,-35.15625],[-73.125,-35.15625],[-73.125,-36.5625]]]},"properties":{"n":4}},{"type":"Feature","geometry":{"type":"Polygon","coordinates":[[[-74.53125,-40.78125],[-73.125,-40.78125],[-73.125,-39.375],[-74.53125,-39.375],[-74.53125,-40.78125]]]},"properties":{"n":4}},{"type":"Feature","geometry":{"type":"Polygon","coordinates":[[[-80.15625,8.4375],[-78.75,8.4375],[-78.75,9.84375],[-80.15625,9.84375],[-80.15625,8.4375]]]},"properties":{"n":3}},{"type":"Feature","geometry":{"type":"Polygon","coordinates":[[[-80.15625,-7.03125],[-78.75,-7.03125],[-78.75,-5.625],[-80.15625,-5.625],[-80.15625,-7.03125]]]},"properties":{"n":3}},{"type":"Feature","geometry":{"type":"Polygon","coordinates":[[[-71.71875,-18.28125],[-70.3125,-18.28125],[-70.3125,-16.875],[-71.71875,-16.875],[-71.71875,-18.28125]]]},"properties":{"n":3}},{"type":"Feature","geometry":{"type":"Polygon","coordinates":[[[-70.3125,-21.09375],[-68.90625,-21.09375],[-68.90625,-19.6875],[-70.3125,-19.6875],[-70.3125,-21.09375]]]},"properties":{"n":3}},{"type":"Feature","geometry":{"type":"Polygon","coordinates":[[[-67.5,43.59375],[-66.09375,43.59375],[-66.09375,45],[-67.5,45],[-67.5,43.59375]]]},"properties":{"n":2}},{"type":"Feature","geometry":{"type":"Polygon","coordinates":[[[-78.75,9.84375],[-77.34375,9.84375],[-77.34375,11.25],[-78.75,11.25],[-78.75,9.84375]]]},"properties":{"n":2}},{"type":"Feature","geometry":{"type":"Polygon","coordinates":[[[-81.5625,5.625],[-80.15625,5.625],[-80.15625,7.03125],[-81.5625,7.03125],[-81.5625,5.625]]]},"properties":{"n":2}},{"type":"Feature","geometry":{"type":"Polygon","coordinates":[[[-81.5625,2.8125],[-80.15625,2.8125],[-80.15625,4.21875],[-81.5625,4.21875],[-81.5625,2.8125]]]},"properties":{"n":2}},{"type":"Feature","geometry":{"type":"Polygon","coordinates":[[[-81.5625,-4.21875],[-80.15625,-4.21875],[-80.15625,-2.8125],[-81.5625,-2.8125],[-81.5625,-4.21875]]]},"properties":{"n":2}},{"type":"Feature","geometry":{"type":"Polygon","coordinates":[[[-71.71875,-19.6875],[-70.3125,-19.6875],[-70.3125,-18.28125],[-71.71875,-18.28125],[-71.71875,-19.6875]]]},"properties":{"n":2}},{"type":"Feature","geometry":{"type":"Polygon","coordinates":[[[-85.78125,-30.9375],[-84.375,-30.9375],[-84.375,-29.53125],[-85.78125,-29.53125],[-85.78125,-30.9375]]]},"properties":{"n":2}},{"type":"Feature","geometry":{"type":"Polygon","coordinates":[[[-73.125,-35.15625],[-71.71875,-35.15625],[-71.71875,-33.75],[-73.125,-33.75],[-73.125,-35.15625]]]},"properties":{"n":2}},{"type":"Feature","geometry":{"type":"Polygon","coordinates":[[[-73.125,-43.59375],[-71.71875,-43.59375],[-71.71875,-42.1875],[-73.125,-42.1875],[-73.125,-43.59375]]]},"properties":{"n":2}},{"type":"Feature","geometry":{"type":"Polygon","coordinates":[[[-74.53125,-42.1875],[-73.125,-42.1875],[-73.125,-40.78125],[-74.53125,-40.78125],[-74.53125,-42.1875]]]},"properties":{"n":2}},{"type":"Feature","geometry":{"type":"Polygon","coordinates":[[[71.71875,-36.5625],[73.125,-36.5625],[73.125,-35.15625],[71.71875,-35.15625],[71.71875,-36.5625]]]},"properties":{"n":1}},{"type":"Feature","geometry":{"type":"Polygon","coordinates":[[[-81.5625,9.84375],[-80.15625,9.84375],[-80.15625,11.25],[-81.5625,11.25],[-81.5625,9.84375]]]},"properties":{"n":1}},{"type":"Feature","geometry":{"type":"Polygon","coordinates":[[[-81.5625,8.4375],[-80.15625,8.4375],[-80.15625,9.84375],[-81.5625,9.84375],[-81.5625,8.4375]]]},"properties":{"n":1}},{"type":"Feature","geometry":{"type":"Polygon","coordinates":[[[-80.15625,7.03125],[-78.75,7.03125],[-78.75,8.4375],[-80.15625,8.4375],[-80.15625,7.03125]]]},"properties":{"n":1}},{"type":"Feature","geometry":{"type":"Polygon","coordinates":[[[-82.96875,7.03125],[-81.5625,7.03125],[-81.5625,8.4375],[-82.96875,8.4375],[-82.96875,7.03125]]]},"properties":{"n":1}},{"type":"Feature","geometry":{"type":"Polygon","coordinates":[[[-84.375,4.21875],[-82.96875,4.21875],[-82.96875,5.625],[-84.375,5.625],[-84.375,4.21875]]]},"properties":{"n":1}},{"type":"Feature","geometry":{"type":"Polygon","coordinates":[[[-82.96875,1.40625],[-81.5625,1.40625],[-81.5625,2.8125],[-82.96875,2.8125],[-82.96875,1.40625]]]},"properties":{"n":1}},{"type":"Feature","geometry":{"type":"Polygon","coordinates":[[[-78.75,-9.84375],[-77.34375,-9.84375],[-77.34375,-8.4375],[-78.75,-8.4375],[-78.75,-9.84375]]]},"properties":{"n":1}},{"type":"Feature","geometry":{"type":"Polygon","coordinates":[[[-81.5625,-5.625],[-80.15625,-5.625],[-80.15625,-4.21875],[-81.5625,-4.21875],[-81.5625,-5.625]]]},"properties":{"n":1}},{"type":"Feature","geometry":{"type":"Polygon","coordinates":[[[-80.15625,-9.84375],[-78.75,-9.84375],[-78.75,-8.4375],[-80.15625,-8.4375],[-80.15625,-9.84375]]]},"properties":{"n":1}},{"type":"Feature","geometry":{"type":"Polygon","coordinates":[[[-73.125,-16.875],[-71.71875,-16.875],[-71.71875,-15.46875],[-73.125,-15.46875],[-73.125,-16.875]]]},"properties":{"n":1}},{"type":"Feature","geometry":{"type":"Polygon","coordinates":[[[-77.34375,-15.46875],[-75.9375,-15.46875],[-75.9375,-14.0625],[-77.34375,-14.0625],[-77.34375,-15.46875]]]},"properties":{"n":1}},{"type":"Feature","geometry":{"type":"Polygon","coordinates":[[[-73.125,-18.28125],[-71.71875,-18.28125],[-71.71875,-16.875],[-73.125,-16.875],[-73.125,-18.28125]]]},"properties":{"n":1}},{"type":"Feature","geometry":{"type":"Polygon","coordinates":[[[-71.71875,-25.3125],[-70.3125,-25.3125],[-70.3125,-23.90625],[-71.71875,-23.90625],[-71.71875,-25.3125]]]},"properties":{"n":1}},{"type":"Feature","geometry":{"type":"Polygon","coordinates":[[[-74.53125,-35.15625],[-73.125,-35.15625],[-73.125,-33.75],[-74.53125,-33.75],[-74.53125,-35.15625]]]},"properties":{"n":1}},{"type":"Feature","geometry":{"type":"Polygon","coordinates":[[[-74.53125,-43.59375],[-73.125,-43.59375],[-73.125,-42.1875],[-74.53125,-42.1875],[-74.53125,-43.59375]]]},"properties":{"n":1}}]}