{"type":"FeatureCollection","features":[{"type":"Feature","geometry":{"type":"Polygon","coordinates":[[[75.9375,-68.90625],[77.34375,-68.90625],[77.34375,-67.5],[75.9375,-67.5],[75.9375,-68.90625]]]},"properties":{"n":3626}},{"type":"Feature","geometry":{"type":"Polygon","coordinates":[[[73.125,-68.90625],[74.53125,-68.90625],[74.53125,-67.5],[73.125,-67.5],[73.125,-68.90625]]]},"properties":{"n":2146}},{"type":"Feature","geometry":{"type":"Polygon","coordinates":[[[73.125,-67.5],[74.53125,-67.5],[74.53125,-66.09375],[73.125,-66.09375],[73.125,-67.5]]]},"properties":{"n":2041}},{"type":"Feature","geometry":{"type":"Polygon","coordinates":[[[70.3125,-67.5],[71.71875,-67.5],[71.71875,-66.09375],[70.3125,-66.09375],[70.3125,-67.5]]]},"properties":{"n":1479}},{"type":"Feature","geometry":{"type":"Polygon","coordinates":[[[71.71875,-67.5],[73.125,-67.5],[73.125,-66.09375],[71.71875,-66.09375],[71.71875,-67.5]]]},"properties":{"n":1302}},{"type":"Feature","geometry":{"type":"Polygon","coordinates":[[[64.6875,-67.5],[66.09375,-67.5],[66.09375,-66.09375],[64.6875,-66.09375],[64.6875,-67.5]]]},"properties":{"n":1272}},{"type":"Feature","geometry":{"type":"Polygon","coordinates":[[[70.3125,-68.90625],[71.71875,-68.90625],[71.71875,-67.5],[70.3125,-67.5],[70.3125,-68.90625]]]},"properties":{"n":1251}},{"type":"Feature","geometry":{"type":"Polygon","coordinates":[[[71.71875,-68.90625],[73.125,-68.90625],[73.125,-67.5],[71.71875,-67.5],[71.71875,-68.90625]]]},"properties":{"n":1034}},{"type":"Feature","geometry":{"type":"Polygon","coordinates":[[[74.53125,-68.90625],[75.9375,-68.90625],[75.9375,-67.5],[74.53125,-67.5],[74.53125,-68.90625]]]},"properties":{"n":1024}},{"type":"Feature","geometry":{"type":"Polygon","coordinates":[[[64.6875,-68.90625],[66.09375,-68.90625],[66.09375,-67.5],[64.6875,-67.5],[64.6875,-68.90625]]]},"properties":{"n":797}},{"type":"Feature","geometry":{"type":"Polygon","coordinates":[[[75.9375,-67.5],[77.34375,-67.5],[77.34375,-66.09375],[75.9375,-66.09375],[75.9375,-67.5]]]},"properties":{"n":727}},{"type":"Feature","geometry":{"type":"Polygon","coordinates":[[[68.90625,-67.5],[70.3125,-67.5],[70.3125,-66.09375],[68.90625,-66.09375],[68.90625,-67.5]]]},"properties":{"n":723}},{"type":"Feature","geometry":{"type":"Polygon","coordinates":[[[77.34375,-68.90625],[78.75,-68.90625],[78.75,-67.5],[77.34375,-67.5],[77.34375,-68.90625]]]},"properties":{"n":715}},{"type":"Feature","geometry":{"type":"Polygon","coordinates":[[[74.53125,-67.5],[75.9375,-67.5],[75.9375,-66.09375],[74.53125,-66.09375],[74.53125,-67.5]]]},"properties":{"n":649}},{"type":"Feature","geometry":{"type":"Polygon","coordinates":[[[73.125,-70.3125],[74.53125,-70.3125],[74.53125,-68.90625],[73.125,-68.90625],[73.125,-70.3125]]]},"properties":{"n":606}},{"type":"Feature","geometry":{"type":"Polygon","coordinates":[[[68.90625,-66.09375],[70.3125,-66.09375],[70.3125,-64.6875],[68.90625,-64.6875],[68.90625,-66.09375]]]},"properties":{"n":438}},{"type":"Feature","geometry":{"type":"Polygon","coordinates":[[[77.34375,-67.5],[78.75,-67.5],[78.75,-66.09375],[77.34375,-66.09375],[77.34375,-67.5]]]},"properties":{"n":343}},{"type":"Feature","geometry":{"type":"Polygon","coordinates":[[[67.5,-67.5],[68.90625,-67.5],[68.90625,-66.09375],[67.5,-66.09375],[67.5,-67.5]]]},"properties":{"n":308}},{"type":"Feature","geometry":{"type":"Polygon","coordinates":[[[66.09375,-68.90625],[67.5,-68.90625],[67.5,-67.5],[66.09375,-67.5],[66.09375,-68.90625]]]},"properties":{"n":304}},{"type":"Feature","geometry":{"type":"Polygon","coordinates":[[[71.71875,-66.09375],[73.125,-66.09375],[73.125,-64.6875],[71.71875,-64.6875],[71.71875,-66.09375]]]},"properties":{"n":235}},{"type":"Feature","geometry":{"type":"Polygon","coordinates":[[[66.09375,-67.5],[67.5,-67.5],[67.5,-66.09375],[66.09375,-66.09375],[66.09375,-67.5]]]},"properties":{"n":233}},{"type":"Feature","geometry":{"type":"Polygon","coordinates":[[[-7.03125,-70.3125],[-5.625,-70.3125],[-5.625,-68.90625],[-7.03125,-68.90625],[-7.03125,-70.3125]]]},"properties":{"n":184}},{"type":"Feature","geometry":{"type":"Polygon","coordinates":[[[33.75,-68.90625],[35.15625,-68.90625],[35.15625,-67.5],[33.75,-67.5],[33.75,-68.90625]]]},"properties":{"n":101}},{"type":"Feature","geometry":{"type":"Polygon","coordinates":[[[67.5,-68.90625],[68.90625,-68.90625],[68.90625,-67.5],[67.5,-67.5],[67.5,-68.90625]]]},"properties":{"n":92}},{"type":"Feature","geometry":{"type":"Polygon","coordinates":[[[-4.21875,-70.3125],[-2.8125,-70.3125],[-2.8125,-68.90625],[-4.21875,-68.90625],[-4.21875,-70.3125]]]},"properties":{"n":71}},{"type":"Feature","geometry":{"type":"Polygon","coordinates":[[[165.9375,-78.75],[167.34375,-78.75],[167.34375,-77.34375],[165.9375,-77.34375],[165.9375,-78.75]]]},"properties":{"n":60}},{"type":"Feature","geometry":{"type":"Polygon","coordinates":[[[84.375,-66.09375],[85.78125,-66.09375],[85.78125,-64.6875],[84.375,-64.6875],[84.375,-66.09375]]]},"properties":{"n":56}},{"type":"Feature","geometry":{"type":"Polygon","coordinates":[[[67.5,-66.09375],[68.90625,-66.09375],[68.90625,-64.6875],[67.5,-64.6875],[67.5,-66.09375]]]},"properties":{"n":53}},{"type":"Feature","geometry":{"type":"Polygon","coordinates":[[[143.4375,-67.5],[144.84375,-67.5],[144.84375,-66.09375],[143.4375,-66.09375],[143.4375,-67.5]]]},"properties":{"n":52}},{"type":"Feature","geometry":{"type":"Polygon","coordinates":[[[142.03125,-67.5],[143.4375,-67.5],[143.4375,-66.09375],[142.03125,-66.09375],[142.03125,-67.5]]]},"properties":{"n":52}},{"type":"Feature","geometry":{"type":"Polygon","coordinates":[[[-4.21875,-71.71875],[-2.8125,-71.71875],[-2.8125,-70.3125],[-4.21875,-70.3125],[-4.21875,-71.71875]]]},"properties":{"n":50}},{"type":"Feature","geometry":{"type":"Polygon","coordinates":[[[139.21875,-67.5],[140.625,-67.5],[140.625,-66.09375],[139.21875,-66.09375],[139.21875,-67.5]]]},"properties":{"n":45}},{"type":"Feature","geometry":{"type":"Polygon","coordinates":[[[-59.0625,-63.28125],[-57.65625,-63.28125],[-57.65625,-61.875],[-59.0625,-61.875],[-59.0625,-63.28125]]]},"properties":{"n":35}},{"type":"Feature","geometry":{"type":"Polygon","coordinates":[[[-60.46875,-63.28125],[-59.0625,-63.28125],[-59.0625,-61.875],[-60.46875,-61.875],[-60.46875,-63.28125]]]},"properties":{"n":31}},{"type":"Feature","geometry":{"type":"Polygon","coordinates":[[[74.53125,-70.3125],[75.9375,-70.3125],[75.9375,-68.90625],[74.53125,-68.90625],[74.53125,-70.3125]]]},"properties":{"n":27}},{"type":"Feature","geometry":{"type":"Polygon","coordinates":[[[-11.25,-71.71875],[-9.84375,-71.71875],[-9.84375,-70.3125],[-11.25,-70.3125],[-11.25,-71.71875]]]},"properties":{"n":26}},{"type":"Feature","geometry":{"type":"Polygon","coordinates":[[[-56.25,-63.28125],[-54.84375,-63.28125],[-54.84375,-61.875],[-56.25,-61.875],[-56.25,-63.28125]]]},"properties":{"n":25}},{"type":"Feature","geometry":{"type":"Polygon","coordinates":[[[84.375,-63.28125],[85.78125,-63.28125],[85.78125,-61.875],[84.375,-61.875],[84.375,-63.28125]]]},"properties":{"n":24}},{"type":"Feature","geometry":{"type":"Polygon","coordinates":[[[142.03125,-66.09375],[143.4375,-66.09375],[143.4375,-64.6875],[142.03125,-64.6875],[142.03125,-66.09375]]]},"properties":{"n":23}},{"type":"Feature","geometry":{"type":"Polygon","coordinates":[[[109.6875,-66.09375],[111.09375,-66.09375],[111.09375,-64.6875],[109.6875,-64.6875],[109.6875,-66.09375]]]},"properties":{"n":23}},{"type":"Feature","geometry":{"type":"Polygon","coordinates":[[[-61.875,-63.28125],[-60.46875,-63.28125],[-60.46875,-61.875],[-61.875,-61.875],[-61.875,-63.28125]]]},"properties":{"n":20}},{"type":"Feature","geometry":{"type":"Polygon","coordinates":[[[-57.65625,-63.28125],[-56.25,-63.28125],[-56.25,-61.875],[-57.65625,-61.875],[-57.65625,-63.28125]]]},"properties":{"n":19}},{"type":"Feature","geometry":{"type":"Polygon","coordinates":[[[143.4375,-66.09375],[144.84375,-66.09375],[144.84375,-64.6875],[143.4375,-64.6875],[143.4375,-66.09375]]]},"properties":{"n":16}},{"type":"Feature","geometry":{"type":"Polygon","coordinates":[[[144.84375,-67.5],[146.25,-67.5],[146.25,-66.09375],[144.84375,-66.09375],[144.84375,-67.5]]]},"properties":{"n":16}},{"type":"Feature","geometry":{"type":"Polygon","coordinates":[[[-56.25,-61.875],[-54.84375,-61.875],[-54.84375,-60.46875],[-56.25,-60.46875],[-56.25,-61.875]]]},"properties":{"n":16}},{"type":"Feature","geometry":{"type":"Polygon","coordinates":[[[140.625,-67.5],[142.03125,-67.5],[142.03125,-66.09375],[140.625,-66.09375],[140.625,-67.5]]]},"properties":{"n":15}},{"type":"Feature","geometry":{"type":"Polygon","coordinates":[[[139.21875,-66.09375],[140.625,-66.09375],[140.625,-64.6875],[139.21875,-64.6875],[139.21875,-66.09375]]]},"properties":{"n":15}},{"type":"Feature","geometry":{"type":"Polygon","coordinates":[[[167.34375,-74.53125],[168.75,-74.53125],[168.75,-73.125],[167.34375,-73.125],[167.34375,-74.53125]]]},"properties":{"n":14}},{"type":"Feature","geometry":{"type":"Polygon","coordinates":[[[-57.65625,-61.875],[-56.25,-61.875],[-56.25,-60.46875],[-57.65625,-60.46875],[-57.65625,-61.875]]]},"properties":{"n":13}},{"type":"Feature","geometry":{"type":"Polygon","coordinates":[[[-28.125,-75.9375],[-26.71875,-75.9375],[-26.71875,-74.53125],[-28.125,-74.53125],[-28.125,-75.9375]]]},"properties":{"n":12}},{"type":"Feature","geometry":{"type":"Polygon","coordinates":[[[165.9375,-75.9375],[167.34375,-75.9375],[167.34375,-74.53125],[165.9375,-74.53125],[165.9375,-75.9375]]]},"properties":{"n":11}},{"type":"Feature","geometry":{"type":"Polygon","coordinates":[[[-54.84375,-63.28125],[-53.4375,-63.28125],[-53.4375,-61.875],[-54.84375,-61.875],[-54.84375,-63.28125]]]},"properties":{"n":11}},{"type":"Feature","geometry":{"type":"Polygon","coordinates":[[[-59.0625,-61.875],[-57.65625,-61.875],[-57.65625,-60.46875],[-59.0625,-60.46875],[-59.0625,-61.875]]]},"properties":{"n":10}},{"type":"Feature","geometry":{"type":"Polygon","coordinates":[[[-60.46875,-61.875],[-59.0625,-61.875],[-59.0625,-60.46875],[-60.46875,-60.46875],[-60.46875,-61.875]]]},"properties":{"n":10}},{"type":"Feature","geometry":{"type":"Polygon","coordinates":[[[170.15625,-71.71875],[171.5625,-71.71875],[171.5625,-70.3125],[170.15625,-70.3125],[170.15625,-71.71875]]]},"properties":{"n":9}},{"type":"Feature","geometry":{"type":"Polygon","coordinates":[[[170.15625,-73.125],[171.5625,-73.125],[171.5625,-71.71875],[170.15625,-71.71875],[170.15625,-73.125]]]},"properties":{"n":9}},{"type":"Feature","geometry":{"type":"Polygon","coordinates":[[[168.75,-75.9375],[170.15625,-75.9375],[170.15625,-74.53125],[168.75,-74.53125],[168.75,-75.9375]]]},"properties":{"n":9}},{"type":"Feature","geometry":{"type":"Polygon","coordinates":[[[2.8125,-70.3125],[4.21875,-70.3125],[4.21875,-68.90625],[2.8125,-68.90625],[2.8125,-70.3125]]]},"properties":{"n":9}},{"type":"Feature","geometry":{"type":"Polygon","coordinates":[[[-45,-61.875],[-43.59375,-61.875],[-43.59375,-60.46875],[-45,-60.46875],[-45,-61.875]]]},"properties":{"n":9}},{"type":"Feature","geometry":{"type":"Polygon","coordinates":[[[135,-66.09375],[136.40625,-66.09375],[136.40625,-64.6875],[135,-64.6875],[135,-66.09375]]]},"properties":{"n":8}},{"type":"Feature","geometry":{"type":"Polygon","coordinates":[[[168.75,-74.53125],[170.15625,-74.53125],[170.15625,-73.125],[168.75,-73.125],[168.75,-74.53125]]]},"properties":{"n":8}},{"type":"Feature","geometry":{"type":"Polygon","coordinates":[[[133.59375,-66.09375],[135,-66.09375],[135,-64.6875],[133.59375,-64.6875],[133.59375,-66.09375]]]},"properties":{"n":8}},{"type":"Feature","geometry":{"type":"Polygon","coordinates":[[[39.375,-68.90625],[40.78125,-68.90625],[40.78125,-67.5],[39.375,-67.5],[39.375,-68.90625]]]},"properties":{"n":8}},{"type":"Feature","geometry":{"type":"Polygon","coordinates":[[[-2.8125,-70.3125],[-1.40625,-70.3125],[-1.40625,-68.90625],[-2.8125,-68.90625],[-2.8125,-70.3125]]]},"properties":{"n":8}},{"type":"Feature","geometry":{"type":"Polygon","coordinates":[[[-61.875,-64.6875],[-60.46875,-64.6875],[-60.46875,-63.28125],[-61.875,-63.28125],[-61.875,-64.6875]]]},"properties":{"n":8}},{"type":"Feature","geometry":{"type":"Polygon","coordinates":[[[-64.6875,-66.09375],[-63.28125,-66.09375],[-63.28125,-64.6875],[-64.6875,-64.6875],[-64.6875,-66.09375]]]},"properties":{"n":8}},{"type":"Feature","geometry":{"type":"Polygon","coordinates":[[[170.15625,-74.53125],[171.5625,-74.53125],[171.5625,-73.125],[170.15625,-73.125],[170.15625,-74.53125]]]},"properties":{"n":7}},{"type":"Feature","geometry":{"type":"Polygon","coordinates":[[[61.875,-67.5],[63.28125,-67.5],[63.28125,-66.09375],[61.875,-66.09375],[61.875,-67.5]]]},"properties":{"n":7}},{"type":"Feature","geometry":{"type":"Polygon","coordinates":[[[49.21875,-67.5],[50.625,-67.5],[50.625,-66.09375],[49.21875,-66.09375],[49.21875,-67.5]]]},"properties":{"n":7}},{"type":"Feature","geometry":{"type":"Polygon","coordinates":[[[-22.5,-74.53125],[-21.09375,-74.53125],[-21.09375,-73.125],[-22.5,-73.125],[-22.5,-74.53125]]]},"properties":{"n":7}},{"type":"Feature","geometry":{"type":"Polygon","coordinates":[[[-54.84375,-61.875],[-53.4375,-61.875],[-53.4375,-60.46875],[-54.84375,-60.46875],[-54.84375,-61.875]]]},"properties":{"n":7}},{"type":"Feature","geometry":{"type":"Polygon","coordinates":[[[-63.28125,-64.6875],[-61.875,-64.6875],[-61.875,-63.28125],[-63.28125,-63.28125],[-63.28125,-64.6875]]]},"properties":{"n":7}},{"type":"Feature","geometry":{"type":"Polygon","coordinates":[[[172.96875,-73.125],[174.375,-73.125],[174.375,-71.71875],[172.96875,-71.71875],[172.96875,-73.125]]]},"properties":{"n":6}},{"type":"Feature","geometry":{"type":"Polygon","coordinates":[[[172.96875,-74.53125],[174.375,-74.53125],[174.375,-73.125],[172.96875,-73.125],[172.96875,-74.53125]]]},"properties":{"n":6}},{"type":"Feature","geometry":{"type":"Polygon","coordinates":[[[104.0625,-66.09375],[105.46875,-66.09375],[105.46875,-64.6875],[104.0625,-64.6875],[104.0625,-66.09375]]]},"properties":{"n":6}},{"type":"Feature","geometry":{"type":"Polygon","coordinates":[[[92.8125,-66.09375],[94.21875,-66.09375],[94.21875,-64.6875],[92.8125,-64.6875],[92.8125,-66.09375]]]},"properties":{"n":6}},{"type":"Feature","geometry":{"type":"Polygon","coordinates":[[[94.21875,-67.5],[95.625,-67.5],[95.625,-66.09375],[94.21875,-66.09375],[94.21875,-67.5]]]},"properties":{"n":6}},{"type":"Feature","geometry":{"type":"Polygon","coordinates":[[[-46.40625,-61.875],[-45,-61.875],[-45,-60.46875],[-46.40625,-60.46875],[-46.40625,-61.875]]]},"properties":{"n":6}},{"type":"Feature","geometry":{"type":"Polygon","coordinates":[[[158.90625,-54.84375],[160.3125,-54.84375],[160.3125,-53.4375],[158.90625,-53.4375],[158.90625,-54.84375]]]},"properties":{"n":5}},{"type":"Feature","geometry":{"type":"Polygon","coordinates":[[[164.53125,-75.9375],[165.9375,-75.9375],[165.9375,-74.53125],[164.53125,-74.53125],[164.53125,-75.9375]]]},"properties":{"n":5}},{"type":"Feature","geometry":{"type":"Polygon","coordinates":[[[167.34375,-77.34375],[168.75,-77.34375],[168.75,-75.9375],[167.34375,-75.9375],[167.34375,-77.34375]]]},"properties":{"n":5}},{"type":"Feature","geometry":{"type":"Polygon","coordinates":[[[95.625,-66.09375],[97.03125,-66.09375],[97.03125,-64.6875],[95.625,-64.6875],[95.625,-66.09375]]]},"properties":{"n":5}},{"type":"Feature","geometry":{"type":"Polygon","coordinates":[[[92.8125,-64.6875],[94.21875,-64.6875],[94.21875,-63.28125],[92.8125,-63.28125],[92.8125,-64.6875]]]},"properties":{"n":5}},{"type":"Feature","geometry":{"type":"Polygon","coordinates":[[[21.09375,-67.5],[22.5,-67.5],[22.5,-66.09375],[21.09375,-66.09375],[21.09375,-67.5]]]},"properties":{"n":5}},{"type":"Feature","geometry":{"type":"Polygon","coordinates":[[[-30.9375,-75.9375],[-29.53125,-75.9375],[-29.53125,-74.53125],[-30.9375,-74.53125],[-30.9375,-75.9375]]]},"properties":{"n":5}},{"type":"Feature","geometry":{"type":"Polygon","coordinates":[[[167.34375,-75.9375],[168.75,-75.9375],[168.75,-74.53125],[167.34375,-74.53125],[167.34375,-75.9375]]]},"properties":{"n":4}},{"type":"Feature","geometry":{"type":"Polygon","coordinates":[[[78.75,-66.09375],[80.15625,-66.09375],[80.15625,-64.6875],[78.75,-64.6875],[78.75,-66.09375]]]},"properties":{"n":4}},{"type":"Feature","geometry":{"type":"Polygon","coordinates":[[[47.8125,-66.09375],[49.21875,-66.09375],[49.21875,-64.6875],[47.8125,-64.6875],[47.8125,-66.09375]]]},"properties":{"n":4}},{"type":"Feature","geometry":{"type":"Polygon","coordinates":[[[75.9375,-70.3125],[77.34375,-70.3125],[77.34375,-68.90625],[75.9375,-68.90625],[75.9375,-70.3125]]]},"properties":{"n":4}},{"type":"Feature","geometry":{"type":"Polygon","coordinates":[[[68.90625,-68.90625],[70.3125,-68.90625],[70.3125,-67.5],[68.90625,-67.5],[68.90625,-68.90625]]]},"properties":{"n":4}},{"type":"Feature","geometry":{"type":"Polygon","coordinates":[[[-12.65625,-71.71875],[-11.25,-71.71875],[-11.25,-70.3125],[-12.65625,-70.3125],[-12.65625,-71.71875]]]},"properties":{"n":4}},{"type":"Feature","geometry":{"type":"Polygon","coordinates":[[[-26.71875,-75.9375],[-25.3125,-75.9375],[-25.3125,-74.53125],[-26.71875,-74.53125],[-26.71875,-75.9375]]]},"properties":{"n":4}},{"type":"Feature","geometry":{"type":"Polygon","coordinates":[[[-47.8125,-61.875],[-46.40625,-61.875],[-46.40625,-60.46875],[-47.8125,-60.46875],[-47.8125,-61.875]]]},"properties":{"n":4}},{"type":"Feature","geometry":{"type":"Polygon","coordinates":[[[-66.09375,-63.28125],[-64.6875,-63.28125],[-64.6875,-61.875],[-66.09375,-61.875],[-66.09375,-63.28125]]]},"properties":{"n":4}},{"type":"Feature","geometry":{"type":"Polygon","coordinates":[[[-67.5,-66.09375],[-66.09375,-66.09375],[-66.09375,-64.6875],[-67.5,-64.6875],[-67.5,-66.09375]]]},"properties":{"n":4}},{"type":"Feature","geometry":{"type":"Polygon","coordinates":[[[-164.53125,-78.75],[-163.125,-78.75],[-163.125,-77.34375],[-164.53125,-77.34375],[-164.53125,-78.75]]]},"properties":{"n":4}},{"type":"Feature","geometry":{"type":"Polygon","coordinates":[[[143.4375,-64.6875],[144.84375,-64.6875],[144.84375,-63.28125],[143.4375,-63.28125],[143.4375,-64.6875]]]},"properties":{"n":3}},{"type":"Feature","geometry":{"type":"Polygon","coordinates":[[[136.40625,-66.09375],[137.8125,-66.09375],[137.8125,-64.6875],[136.40625,-64.6875],[136.40625,-66.09375]]]},"properties":{"n":3}},{"type":"Feature","geometry":{"type":"Polygon","coordinates":[[[177.1875,-77.34375],[178.59375,-77.34375],[178.59375,-75.9375],[177.1875,-75.9375],[177.1875,-77.34375]]]},"properties":{"n":3}},{"type":"Feature","geometry":{"type":"Polygon","coordinates":[[[168.75,-77.34375],[170.15625,-77.34375],[170.15625,-75.9375],[168.75,-75.9375],[168.75,-77.34375]]]},"properties":{"n":3}},{"type":"Feature","geometry":{"type":"Polygon","coordinates":[[[165.9375,-74.53125],[167.34375,-74.53125],[167.34375,-73.125],[165.9375,-73.125],[165.9375,-74.53125]]]},"properties":{"n":3}},{"type":"Feature","geometry":{"type":"Polygon","coordinates":[[[133.59375,-63.28125],[135,-63.28125],[135,-61.875],[133.59375,-61.875],[133.59375,-63.28125]]]},"properties":{"n":3}},{"type":"Feature","geometry":{"type":"Polygon","coordinates":[[[125.15625,-63.28125],[126.5625,-63.28125],[126.5625,-61.875],[125.15625,-61.875],[125.15625,-63.28125]]]},"properties":{"n":3}},{"type":"Feature","geometry":{"type":"Polygon","coordinates":[[[127.96875,-66.09375],[129.375,-66.09375],[129.375,-64.6875],[127.96875,-64.6875],[127.96875,-66.09375]]]},"properties":{"n":3}},{"type":"Feature","geometry":{"type":"Polygon","coordinates":[[[119.53125,-66.09375],[120.9375,-66.09375],[120.9375,-64.6875],[119.53125,-64.6875],[119.53125,-66.09375]]]},"properties":{"n":3}},{"type":"Feature","geometry":{"type":"Polygon","coordinates":[[[118.125,-66.09375],[119.53125,-66.09375],[119.53125,-64.6875],[118.125,-64.6875],[118.125,-66.09375]]]},"properties":{"n":3}},{"type":"Feature","geometry":{"type":"Polygon","coordinates":[[[111.09375,-66.09375],[112.5,-66.09375],[112.5,-64.6875],[111.09375,-64.6875],[111.09375,-66.09375]]]},"properties":{"n":3}},{"type":"Feature","geometry":{"type":"Polygon","coordinates":[[[104.0625,-64.6875],[105.46875,-64.6875],[105.46875,-63.28125],[104.0625,-63.28125],[104.0625,-64.6875]]]},"properties":{"n":3}},{"type":"Feature","geometry":{"type":"Polygon","coordinates":[[[94.21875,-66.09375],[95.625,-66.09375],[95.625,-64.6875],[94.21875,-64.6875],[94.21875,-66.09375]]]},"properties":{"n":3}},{"type":"Feature","geometry":{"type":"Polygon","coordinates":[[[87.1875,-66.09375],[88.59375,-66.09375],[88.59375,-64.6875],[87.1875,-64.6875],[87.1875,-66.09375]]]},"properties":{"n":3}},{"type":"Feature","geometry":{"type":"Polygon","coordinates":[[[74.53125,-66.09375],[75.9375,-66.09375],[75.9375,-64.6875],[74.53125,-64.6875],[74.53125,-66.09375]]]},"properties":{"n":3}},{"type":"Feature","geometry":{"type":"Polygon","coordinates":[[[57.65625,-64.6875],[59.0625,-64.6875],[59.0625,-63.28125],[57.65625,-63.28125],[57.65625,-64.6875]]]},"properties":{"n":3}},{"type":"Feature","geometry":{"type":"Polygon","coordinates":[[[78.75,-68.90625],[80.15625,-68.90625],[80.15625,-67.5],[78.75,-67.5],[78.75,-68.90625]]]},"properties":{"n":3}},{"type":"Feature","geometry":{"type":"Polygon","coordinates":[[[2.8125,-68.90625],[4.21875,-68.90625],[4.21875,-67.5],[2.8125,-67.5],[2.8125,-68.90625]]]},"properties":{"n":3}},{"type":"Feature","geometry":{"type":"Polygon","coordinates":[[[-23.90625,-74.53125],[-22.5,-74.53125],[-22.5,-73.125],[-23.90625,-73.125],[-23.90625,-74.53125]]]},"properties":{"n":3}},{"type":"Feature","geometry":{"type":"Polygon","coordinates":[[[-46.40625,-60.46875],[-45,-60.46875],[-45,-59.0625],[-46.40625,-59.0625],[-46.40625,-60.46875]]]},"properties":{"n":3}},{"type":"Feature","geometry":{"type":"Polygon","coordinates":[[[-49.21875,-77.34375],[-47.8125,-77.34375],[-47.8125,-75.9375],[-49.21875,-75.9375],[-49.21875,-77.34375]]]},"properties":{"n":3}},{"type":"Feature","geometry":{"type":"Polygon","coordinates":[[[-68.90625,-68.90625],[-67.5,-68.90625],[-67.5,-67.5],[-68.90625,-67.5],[-68.90625,-68.90625]]]},"properties":{"n":3}},{"type":"Feature","geometry":{"type":"Polygon","coordinates":[[[161.71875,-67.5],[163.125,-67.5],[163.125,-66.09375],[161.71875,-66.09375],[161.71875,-67.5]]]},"properties":{"n":2}},{"type":"Feature","geometry":{"type":"Polygon","coordinates":[[[178.59375,-73.125],[180,-73.125],[180,-71.71875],[178.59375,-71.71875],[178.59375,-73.125]]]},"properties":{"n":2}},{"type":"Feature","geometry":{"type":"Polygon","coordinates":[[[171.5625,-73.125],[172.96875,-73.125],[172.96875,-71.71875],[171.5625,-71.71875],[171.5625,-73.125]]]},"properties":{"n":2}},{"type":"Feature","geometry":{"type":"Polygon","coordinates":[[[175.78125,-75.9375],[177.1875,-75.9375],[177.1875,-74.53125],[175.78125,-74.53125],[175.78125,-75.9375]]]},"properties":{"n":2}},{"type":"Feature","geometry":{"type":"Polygon","coordinates":[[[178.59375,-78.75],[180,-78.75],[180,-77.34375],[178.59375,-77.34375],[178.59375,-78.75]]]},"properties":{"n":2}},{"type":"Feature","geometry":{"type":"Polygon","coordinates":[[[165.9375,-77.34375],[167.34375,-77.34375],[167.34375,-75.9375],[165.9375,-75.9375],[165.9375,-77.34375]]]},"properties":{"n":2}},{"type":"Feature","geometry":{"type":"Polygon","coordinates":[[[129.375,-66.09375],[130.78125,-66.09375],[130.78125,-64.6875],[129.375,-64.6875],[129.375,-66.09375]]]},"properties":{"n":2}},{"type":"Feature","geometry":{"type":"Polygon","coordinates":[[[63.28125,-66.09375],[64.6875,-66.09375],[64.6875,-64.6875],[63.28125,-64.6875],[63.28125,-66.09375]]]},"properties":{"n":2}},{"type":"Feature","geometry":{"type":"Polygon","coordinates":[[[61.875,-66.09375],[63.28125,-66.09375],[63.28125,-64.6875],[61.875,-64.6875],[61.875,-66.09375]]]},"properties":{"n":2}},{"type":"Feature","geometry":{"type":"Polygon","coordinates":[[[59.0625,-67.5],[60.46875,-67.5],[60.46875,-66.09375],[59.0625,-66.09375],[59.0625,-67.5]]]},"properties":{"n":2}},{"type":"Feature","geometry":{"type":"Polygon","coordinates":[[[49.21875,-66.09375],[50.625,-66.09375],[50.625,-64.6875],[49.21875,-64.6875],[49.21875,-66.09375]]]},"properties":{"n":2}},{"type":"Feature","geometry":{"type":"Polygon","coordinates":[[[61.875,-68.90625],[63.28125,-68.90625],[63.28125,-67.5],[61.875,-67.5],[61.875,-68.90625]]]},"properties":{"n":2}},{"type":"Feature","geometry":{"type":"Polygon","coordinates":[[[29.53125,-68.90625],[30.9375,-68.90625],[30.9375,-67.5],[29.53125,-67.5],[29.53125,-68.90625]]]},"properties":{"n":2}},{"type":"Feature","geometry":{"type":"Polygon","coordinates":[[[29.53125,-70.3125],[30.9375,-70.3125],[30.9375,-68.90625],[29.53125,-68.90625],[29.53125,-70.3125]]]},"properties":{"n":2}},{"type":"Feature","geometry":{"type":"Polygon","coordinates":[[[0,-68.90625],[1.40625,-68.90625],[1.40625,-67.5],[0,-67.5],[0,-68.90625]]]},"properties":{"n":2}},{"type":"Feature","geometry":{"type":"Polygon","coordinates":[[[-43.59375,-61.875],[-42.1875,-61.875],[-42.1875,-60.46875],[-43.59375,-60.46875],[-43.59375,-61.875]]]},"properties":{"n":2}},{"type":"Feature","geometry":{"type":"Polygon","coordinates":[[[-14.0625,-73.125],[-12.65625,-73.125],[-12.65625,-71.71875],[-14.0625,-71.71875],[-14.0625,-73.125]]]},"properties":{"n":2}},{"type":"Feature","geometry":{"type":"Polygon","coordinates":[[[-15.46875,-73.125],[-14.0625,-73.125],[-14.0625,-71.71875],[-15.46875,-71.71875],[-15.46875,-73.125]]]},"properties":{"n":2}},{"type":"Feature","geometry":{"type":"Polygon","coordinates":[[[-63.28125,-66.09375],[-61.875,-66.09375],[-61.875,-64.6875],[-63.28125,-64.6875],[-63.28125,-66.09375]]]},"properties":{"n":2}},{"type":"Feature","geometry":{"type":"Polygon","coordinates":[[[-70.3125,-67.5],[-68.90625,-67.5],[-68.90625,-66.09375],[-70.3125,-66.09375],[-70.3125,-67.5]]]},"properties":{"n":2}},{"type":"Feature","geometry":{"type":"Polygon","coordinates":[[[-70.3125,-68.90625],[-68.90625,-68.90625],[-68.90625,-67.5],[-70.3125,-67.5],[-70.3125,-68.90625]]]},"properties":{"n":2}},{"type":"Feature","geometry":{"type":"Polygon","coordinates":[[[-170.15625,-70.3125],[-168.75,-70.3125],[-168.75,-68.90625],[-170.15625,-68.90625],[-170.15625,-70.3125]]]},"properties":{"n":2}},{"type":"Feature","geometry":{"type":"Polygon","coordinates":[[[-180,-75.9375],[-178.59375,-75.9375],[-178.59375,-74.53125],[-180,-74.53125],[-180,-75.9375]]]},"properties":{"n":2}},{"type":"Feature","geometry":{"type":"Polygon","coordinates":[[[118.125,-36.5625],[119.53125,-36.5625],[119.53125,-35.15625],[118.125,-35.15625],[118.125,-36.5625]]]},"properties":{"n":1}},{"type":"Feature","geometry":{"type":"Polygon","coordinates":[[[163.125,-67.5],[164.53125,-67.5],[164.53125,-66.09375],[163.125,-66.09375],[163.125,-67.5]]]},"properties":{"n":1}},{"type":"Feature","geometry":{"type":"Polygon","coordinates":[[[146.25,-66.09375],[147.65625,-66.09375],[147.65625,-64.6875],[146.25,-64.6875],[146.25,-66.09375]]]},"properties":{"n":1}},{"type":"Feature","geometry":{"type":"Polygon","coordinates":[[[140.625,-66.09375],[142.03125,-66.09375],[142.03125,-64.6875],[140.625,-64.6875],[140.625,-66.09375]]]},"properties":{"n":1}},{"type":"Feature","geometry":{"type":"Polygon","coordinates":[[[137.8125,-67.5],[139.21875,-67.5],[139.21875,-66.09375],[137.8125,-66.09375],[137.8125,-67.5]]]},"properties":{"n":1}},{"type":"Feature","geometry":{"type":"Polygon","coordinates":[[[174.375,-73.125],[175.78125,-73.125],[175.78125,-71.71875],[174.375,-71.71875],[174.375,-73.125]]]},"properties":{"n":1}},{"type":"Feature","geometry":{"type":"Polygon","coordinates":[[[171.5625,-71.71875],[172.96875,-71.71875],[172.96875,-70.3125],[171.5625,-70.3125],[171.5625,-71.71875]]]},"properties":{"n":1}},{"type":"Feature","geometry":{"type":"Polygon","coordinates":[[[174.375,-74.53125],[175.78125,-74.53125],[175.78125,-73.125],[174.375,-73.125],[174.375,-74.53125]]]},"properties":{"n":1}},{"type":"Feature","geometry":{"type":"Polygon","coordinates":[[[178.59375,-77.34375],[180,-77.34375],[180,-75.9375],[178.59375,-75.9375],[178.59375,-77.34375]]]},"properties":{"n":1}},{"type":"Feature","geometry":{"type":"Polygon","coordinates":[[[171.5625,-74.53125],[172.96875,-74.53125],[172.96875,-73.125],[171.5625,-73.125],[171.5625,-74.53125]]]},"properties":{"n":1}},{"type":"Feature","geometry":{"type":"Polygon","coordinates":[[[170.15625,-75.9375],[171.5625,-75.9375],[171.5625,-74.53125],[170.15625,-74.53125],[170.15625,-75.9375]]]},"properties":{"n":1}},{"type":"Feature","geometry":{"type":"Polygon","coordinates":[[[171.5625,-77.34375],[172.96875,-77.34375],[172.96875,-75.9375],[171.5625,-75.9375],[171.5625,-77.34375]]]},"properties":{"n":1}},{"type":"Feature","geometry":{"type":"Polygon","coordinates":[[[167.34375,-78.75],[168.75,-78.75],[168.75,-77.34375],[167.34375,-77.34375],[167.34375,-78.75]]]},"properties":{"n":1}},{"type":"Feature","geometry":{"type":"Polygon","coordinates":[[[163.125,-77.34375],[164.53125,-77.34375],[164.53125,-75.9375],[163.125,-75.9375],[163.125,-77.34375]]]},"properties":{"n":1}},{"type":"Feature","geometry":{"type":"Polygon","coordinates":[[[164.53125,-78.75],[165.9375,-78.75],[165.9375,-77.34375],[164.53125,-77.34375],[164.53125,-78.75]]]},"properties":{"n":1}},{"type":"Feature","geometry":{"type":"Polygon","coordinates":[[[87.1875,-64.6875],[88.59375,-64.6875],[88.59375,-63.28125],[87.1875,-63.28125],[87.1875,-64.6875]]]},"properties":{"n":1}},{"type":"Feature","geometry":{"type":"Polygon","coordinates":[[[70.3125,-64.6875],[71.71875,-64.6875],[71.71875,-63.28125],[70.3125,-63.28125],[70.3125,-64.6875]]]},"properties":{"n":1}},{"type":"Feature","geometry":{"type":"Polygon","coordinates":[[[67.5,-64.6875],[68.90625,-64.6875],[68.90625,-63.28125],[67.5,-63.28125],[67.5,-64.6875]]]},"properties":{"n":1}},{"type":"Feature","geometry":{"type":"Polygon","coordinates":[[[1.40625,-53.4375],[2.8125,-53.4375],[2.8125,-52.03125],[1.40625,-52.03125],[1.40625,-53.4375]]]},"properties":{"n":1}},{"type":"Feature","geometry":{"type":"Polygon","coordinates":[[[11.25,-67.5],[12.65625,-67.5],[12.65625,-66.09375],[11.25,-66.09375],[11.25,-67.5]]]},"properties":{"n":1}},{"type":"Feature","geometry":{"type":"Polygon","coordinates":[[[11.25,-68.90625],[12.65625,-68.90625],[12.65625,-67.5],[11.25,-67.5],[11.25,-68.90625]]]},"properties":{"n":1}},{"type":"Feature","geometry":{"type":"Polygon","coordinates":[[[7.03125,-68.90625],[8.4375,-68.90625],[8.4375,-67.5],[7.03125,-67.5],[7.03125,-68.90625]]]},"properties":{"n":1}},{"type":"Feature","geometry":{"type":"Polygon","coordinates":[[[-9.84375,-70.3125],[-8.4375,-70.3125],[-8.4375,-68.90625],[-9.84375,-68.90625],[-9.84375,-70.3125]]]},"properties":{"n":1}},{"type":"Feature","geometry":{"type":"Polygon","coordinates":[[[-7.03125,-71.71875],[-5.625,-71.71875],[-5.625,-70.3125],[-7.03125,-70.3125],[-7.03125,-71.71875]]]},"properties":{"n":1}},{"type":"Feature","geometry":{"type":"Polygon","coordinates":[[[-14.0625,-71.71875],[-12.65625,-71.71875],[-12.65625,-70.3125],[-14.0625,-70.3125],[-14.0625,-71.71875]]]},"properties":{"n":1}},{"type":"Feature","geometry":{"type":"Polygon","coordinates":[[[-19.6875,-73.125],[-18.28125,-73.125],[-18.28125,-71.71875],[-19.6875,-71.71875],[-19.6875,-73.125]]]},"properties":{"n":1}},{"type":"Feature","geometry":{"type":"Polygon","coordinates":[[[-21.09375,-73.125],[-19.6875,-73.125],[-19.6875,-71.71875],[-21.09375,-71.71875],[-21.09375,-73.125]]]},"properties":{"n":1}},{"type":"Feature","geometry":{"type":"Polygon","coordinates":[[[-25.3125,-75.9375],[-23.90625,-75.9375],[-23.90625,-74.53125],[-25.3125,-74.53125],[-25.3125,-75.9375]]]},"properties":{"n":1}},{"type":"Feature","geometry":{"type":"Polygon","coordinates":[[[-47.8125,-60.46875],[-46.40625,-60.46875],[-46.40625,-59.0625],[-47.8125,-59.0625],[-47.8125,-60.46875]]]},"properties":{"n":1}},{"type":"Feature","geometry":{"type":"Polygon","coordinates":[[[-54.84375,-60.46875],[-53.4375,-60.46875],[-53.4375,-59.0625],[-54.84375,-59.0625],[-54.84375,-60.46875]]]},"properties":{"n":1}},{"type":"Feature","geometry":{"type":"Polygon","coordinates":[[[-56.25,-60.46875],[-54.84375,-60.46875],[-54.84375,-59.0625],[-56.25,-59.0625],[-56.25,-60.46875]]]},"properties":{"n":1}},{"type":"Feature","geometry":{"type":"Polygon","coordinates":[[[-46.40625,-63.28125],[-45,-63.28125],[-45,-61.875],[-46.40625,-61.875],[-46.40625,-63.28125]]]},"properties":{"n":1}},{"type":"Feature","geometry":{"type":"Polygon","coordinates":[[[-49.21875,-63.28125],[-47.8125,-63.28125],[-47.8125,-61.875],[-49.21875,-61.875],[-49.21875,-63.28125]]]},"properties":{"n":1}},{"type":"Feature","geometry":{"type":"Polygon","coordinates":[[[-50.625,-63.28125],[-49.21875,-63.28125],[-49.21875,-61.875],[-50.625,-61.875],[-50.625,-63.28125]]]},"properties":{"n":1}},{"type":"Feature","geometry":{"type":"Polygon","coordinates":[[[-53.4375,-63.28125],[-52.03125,-63.28125],[-52.03125,-61.875],[-53.4375,-61.875],[-53.4375,-63.28125]]]},"properties":{"n":1}},{"type":"Feature","geometry":{"type":"Polygon","coordinates":[[[-54.84375,-64.6875],[-53.4375,-64.6875],[-53.4375,-63.28125],[-54.84375,-63.28125],[-54.84375,-64.6875]]]},"properties":{"n":1}},{"type":"Feature","geometry":{"type":"Polygon","coordinates":[[[-57.65625,-60.46875],[-56.25,-60.46875],[-56.25,-59.0625],[-57.65625,-59.0625],[-57.65625,-60.46875]]]},"properties":{"n":1}},{"type":"Feature","geometry":{"type":"Polygon","coordinates":[[[-60.46875,-60.46875],[-59.0625,-60.46875],[-59.0625,-59.0625],[-60.46875,-59.0625],[-60.46875,-60.46875]]]},"properties":{"n":1}},{"type":"Feature","geometry":{"type":"Polygon","coordinates":[[[-57.65625,-64.6875],[-56.25,-64.6875],[-56.25,-63.28125],[-57.65625,-63.28125],[-57.65625,-64.6875]]]},"properties":{"n":1}},{"type":"Feature","geometry":{"type":"Polygon","coordinates":[[[-60.46875,-66.09375],[-59.0625,-66.09375],[-59.0625,-64.6875],[-60.46875,-64.6875],[-60.46875,-66.09375]]]},"properties":{"n":1}},{"type":"Feature","geometry":{"type":"Polygon","coordinates":[[[-61.875,-66.09375],[-60.46875,-66.09375],[-60.46875,-64.6875],[-61.875,-64.6875],[-61.875,-66.09375]]]},"properties":{"n":1}},{"type":"Feature","geometry":{"type":"Polygon","coordinates":[[[-63.28125,-63.28125],[-61.875,-63.28125],[-61.875,-61.875],[-63.28125,-61.875],[-63.28125,-63.28125]]]},"properties":{"n":1}},{"type":"Feature","geometry":{"type":"Polygon","coordinates":[[[-67.5,-67.5],[-66.09375,-67.5],[-66.09375,-66.09375],[-67.5,-66.09375],[-67.5,-67.5]]]},"properties":{"n":1}},{"type":"Feature","geometry":{"type":"Polygon","coordinates":[[[-68.90625,-66.09375],[-67.5,-66.09375],[-67.5,-64.6875],[-68.90625,-64.6875],[-68.90625,-66.09375]]]},"properties":{"n":1}},{"type":"Feature","geometry":{"type":"Polygon","coordinates":[[[-68.90625,-67.5],[-67.5,-67.5],[-67.5,-66.09375],[-68.90625,-66.09375],[-68.90625,-67.5]]]},"properties":{"n":1}},{"type":"Feature","geometry":{"type":"Polygon","coordinates":[[[-50.625,-77.34375],[-49.21875,-77.34375],[-49.21875,-75.9375],[-50.625,-75.9375],[-50.625,-77.34375]]]},"properties":{"n":1}},{"type":"Feature","geometry":{"type":"Polygon","coordinates":[[[-56.25,-74.53125],[-54.84375,-74.53125],[-54.84375,-73.125],[-56.25,-73.125],[-56.25,-74.53125]]]},"properties":{"n":1}},{"type":"Feature","geometry":{"type":"Polygon","coordinates":[[[-71.71875,-68.90625],[-70.3125,-68.90625],[-70.3125,-67.5],[-71.71875,-67.5],[-71.71875,-68.90625]]]},"properties":{"n":1}},{"type":"Feature","geometry":{"type":"Polygon","coordinates":[[[-82.96875,-71.71875],[-81.5625,-71.71875],[-81.5625,-70.3125],[-82.96875,-70.3125],[-82.96875,-71.71875]]]},"properties":{"n":1}},{"type":"Feature","geometry":{"type":"Polygon","coordinates":[[[-165.9375,-71.71875],[-164.53125,-71.71875],[-164.53125,-70.3125],[-165.9375,-70.3125],[-165.9375,-71.71875]]]},"properties":{"n":1}},{"type":"Feature","geometry":{"type":"Polygon","coordinates":[[[-163.125,-78.75],[-161.71875,-78.75],[-161.71875,-77.34375],[-163.125,-77.34375],[-163.125,-78.75]]]},"properties":{"n":1}},{"type":"Feature","geometry":{"type":"Polygon","coordinates":[[[-180,-74.53125],[-178.59375,-74.53125],[-178.59375,-73.125],[-180,-73.125],[-180,-74.53125]]]},"properties":{"n":1}}]}