{"type":"FeatureCollection","features":[{"type":"Feature","geometry":{"type":"Polygon","coordinates":[[[-120.9375,33.75],[-119.53125,33.75],[-119.53125,35.15625],[-120.9375,35.15625],[-120.9375,33.75]]]},"properties":{"n":29696}},{"type":"Feature","geometry":{"type":"Polygon","coordinates":[[[-122.34375,35.15625],[-120.9375,35.15625],[-120.9375,36.5625],[-122.34375,36.5625],[-122.34375,35.15625]]]},"properties":{"n":18701}},{"type":"Feature","geometry":{"type":"Polygon","coordinates":[[[-122.34375,36.5625],[-120.9375,36.5625],[-120.9375,37.96875],[-122.34375,37.96875],[-122.34375,36.5625]]]},"properties":{"n":9266}},{"type":"Feature","geometry":{"type":"Polygon","coordinates":[[[-119.53125,33.75],[-118.125,33.75],[-118.125,35.15625],[-119.53125,35.15625],[-119.53125,33.75]]]},"properties":{"n":8205}},{"type":"Feature","geometry":{"type":"Polygon","coordinates":[[[-123.75,37.96875],[-122.34375,37.96875],[-122.34375,39.375],[-123.75,39.375],[-123.75,37.96875]]]},"properties":{"n":3437}},{"type":"Feature","geometry":{"type":"Polygon","coordinates":[[[-119.53125,32.34375],[-118.125,32.34375],[-118.125,33.75],[-119.53125,33.75],[-119.53125,32.34375]]]},"properties":{"n":2583}},{"type":"Feature","geometry":{"type":"Polygon","coordinates":[[[-120.9375,35.15625],[-119.53125,35.15625],[-119.53125,36.5625],[-120.9375,36.5625],[-120.9375,35.15625]]]},"properties":{"n":2476}},{"type":"Feature","geometry":{"type":"Polygon","coordinates":[[[-118.125,32.34375],[-116.71875,32.34375],[-116.71875,33.75],[-118.125,33.75],[-118.125,32.34375]]]},"properties":{"n":1086}},{"type":"Feature","geometry":{"type":"Polygon","coordinates":[[[-120.9375,32.34375],[-119.53125,32.34375],[-119.53125,33.75],[-120.9375,33.75],[-120.9375,32.34375]]]},"properties":{"n":878}},{"type":"Feature","geometry":{"type":"Polygon","coordinates":[[[133.59375,-33.75],[135,-33.75],[135,-32.34375],[133.59375,-32.34375],[133.59375,-33.75]]]},"properties":{"n":860}},{"type":"Feature","geometry":{"type":"Polygon","coordinates":[[[130.78125,-32.34375],[132.1875,-32.34375],[132.1875,-30.9375],[130.78125,-30.9375],[130.78125,-32.34375]]]},"properties":{"n":847}},{"type":"Feature","geometry":{"type":"Polygon","coordinates":[[[129.375,-32.34375],[130.78125,-32.34375],[130.78125,-30.9375],[129.375,-30.9375],[129.375,-32.34375]]]},"properties":{"n":845}},{"type":"Feature","geometry":{"type":"Polygon","coordinates":[[[-115.3125,26.71875],[-113.90625,26.71875],[-113.90625,28.125],[-115.3125,28.125],[-115.3125,26.71875]]]},"properties":{"n":753}},{"type":"Feature","geometry":{"type":"Polygon","coordinates":[[[-115.3125,28.125],[-113.90625,28.125],[-113.90625,29.53125],[-115.3125,29.53125],[-115.3125,28.125]]]},"properties":{"n":745}},{"type":"Feature","geometry":{"type":"Polygon","coordinates":[[[-122.34375,33.75],[-120.9375,33.75],[-120.9375,35.15625],[-122.34375,35.15625],[-122.34375,33.75]]]},"properties":{"n":681}},{"type":"Feature","geometry":{"type":"Polygon","coordinates":[[[125.15625,-33.75],[126.5625,-33.75],[126.5625,-32.34375],[125.15625,-32.34375],[125.15625,-33.75]]]},"properties":{"n":598}},{"type":"Feature","geometry":{"type":"Polygon","coordinates":[[[150.46875,-35.15625],[151.875,-35.15625],[151.875,-33.75],[150.46875,-33.75],[150.46875,-35.15625]]]},"properties":{"n":527}},{"type":"Feature","geometry":{"type":"Polygon","coordinates":[[[123.75,-35.15625],[125.15625,-35.15625],[125.15625,-33.75],[123.75,-33.75],[123.75,-35.15625]]]},"properties":{"n":519}},{"type":"Feature","geometry":{"type":"Polygon","coordinates":[[[-120.9375,30.9375],[-119.53125,30.9375],[-119.53125,32.34375],[-120.9375,32.34375],[-120.9375,30.9375]]]},"properties":{"n":518}},{"type":"Feature","geometry":{"type":"Polygon","coordinates":[[[-119.53125,30.9375],[-118.125,30.9375],[-118.125,32.34375],[-119.53125,32.34375],[-119.53125,30.9375]]]},"properties":{"n":429}},{"type":"Feature","geometry":{"type":"Polygon","coordinates":[[[-122.34375,32.34375],[-120.9375,32.34375],[-120.9375,33.75],[-122.34375,33.75],[-122.34375,32.34375]]]},"properties":{"n":413}},{"type":"Feature","geometry":{"type":"Polygon","coordinates":[[[127.96875,-32.34375],[129.375,-32.34375],[129.375,-30.9375],[127.96875,-30.9375],[127.96875,-32.34375]]]},"properties":{"n":412}},{"type":"Feature","geometry":{"type":"Polygon","coordinates":[[[174.375,-37.96875],[175.78125,-37.96875],[175.78125,-36.5625],[174.375,-36.5625],[174.375,-37.96875]]]},"properties":{"n":391}},{"type":"Feature","geometry":{"type":"Polygon","coordinates":[[[-125.15625,42.1875],[-123.75,42.1875],[-123.75,43.59375],[-125.15625,43.59375],[-125.15625,42.1875]]]},"properties":{"n":388}},{"type":"Feature","geometry":{"type":"Polygon","coordinates":[[[-125.15625,43.59375],[-123.75,43.59375],[-123.75,45],[-125.15625,45],[-125.15625,43.59375]]]},"properties":{"n":385}},{"type":"Feature","geometry":{"type":"Polygon","coordinates":[[[174.375,-36.5625],[175.78125,-36.5625],[175.78125,-35.15625],[174.375,-35.15625],[174.375,-36.5625]]]},"properties":{"n":384}},{"type":"Feature","geometry":{"type":"Polygon","coordinates":[[[133.59375,-35.15625],[135,-35.15625],[135,-33.75],[133.59375,-33.75],[133.59375,-35.15625]]]},"properties":{"n":353}},{"type":"Feature","geometry":{"type":"Polygon","coordinates":[[[-123.75,33.75],[-122.34375,33.75],[-122.34375,35.15625],[-123.75,35.15625],[-123.75,33.75]]]},"properties":{"n":353}},{"type":"Feature","geometry":{"type":"Polygon","coordinates":[[[-123.75,35.15625],[-122.34375,35.15625],[-122.34375,36.5625],[-123.75,36.5625],[-123.75,35.15625]]]},"properties":{"n":347}},{"type":"Feature","geometry":{"type":"Polygon","coordinates":[[[-113.90625,25.3125],[-112.5,25.3125],[-112.5,26.71875],[-113.90625,26.71875],[-113.90625,25.3125]]]},"properties":{"n":342}},{"type":"Feature","geometry":{"type":"Polygon","coordinates":[[[-116.71875,28.125],[-115.3125,28.125],[-115.3125,29.53125],[-116.71875,29.53125],[-116.71875,28.125]]]},"properties":{"n":333}},{"type":"Feature","geometry":{"type":"Polygon","coordinates":[[[-123.75,36.5625],[-122.34375,36.5625],[-122.34375,37.96875],[-123.75,37.96875],[-123.75,36.5625]]]},"properties":{"n":326}},{"type":"Feature","geometry":{"type":"Polygon","coordinates":[[[-118.125,30.9375],[-116.71875,30.9375],[-116.71875,32.34375],[-118.125,32.34375],[-118.125,30.9375]]]},"properties":{"n":311}},{"type":"Feature","geometry":{"type":"Polygon","coordinates":[[[-116.71875,29.53125],[-115.3125,29.53125],[-115.3125,30.9375],[-116.71875,30.9375],[-116.71875,29.53125]]]},"properties":{"n":302}},{"type":"Feature","geometry":{"type":"Polygon","coordinates":[[[-116.71875,26.71875],[-115.3125,26.71875],[-115.3125,28.125],[-116.71875,28.125],[-116.71875,26.71875]]]},"properties":{"n":293}},{"type":"Feature","geometry":{"type":"Polygon","coordinates":[[[-123.75,32.34375],[-122.34375,32.34375],[-122.34375,33.75],[-123.75,33.75],[-123.75,32.34375]]]},"properties":{"n":257}},{"type":"Feature","geometry":{"type":"Polygon","coordinates":[[[-122.34375,30.9375],[-120.9375,30.9375],[-120.9375,32.34375],[-122.34375,32.34375],[-122.34375,30.9375]]]},"properties":{"n":244}},{"type":"Feature","geometry":{"type":"Polygon","coordinates":[[[132.1875,-33.75],[133.59375,-33.75],[133.59375,-32.34375],[132.1875,-32.34375],[132.1875,-33.75]]]},"properties":{"n":242}},{"type":"Feature","geometry":{"type":"Polygon","coordinates":[[[123.75,-33.75],[125.15625,-33.75],[125.15625,-32.34375],[123.75,-32.34375],[123.75,-33.75]]]},"properties":{"n":208}},{"type":"Feature","geometry":{"type":"Polygon","coordinates":[[[-123.75,30.9375],[-122.34375,30.9375],[-122.34375,32.34375],[-123.75,32.34375],[-123.75,30.9375]]]},"properties":{"n":177}},{"type":"Feature","geometry":{"type":"Polygon","coordinates":[[[-112.5,25.3125],[-111.09375,25.3125],[-111.09375,26.71875],[-112.5,26.71875],[-112.5,25.3125]]]},"properties":{"n":171}},{"type":"Feature","geometry":{"type":"Polygon","coordinates":[[[-125.15625,35.15625],[-123.75,35.15625],[-123.75,36.5625],[-125.15625,36.5625],[-125.15625,35.15625]]]},"properties":{"n":168}},{"type":"Feature","geometry":{"type":"Polygon","coordinates":[[[-118.125,29.53125],[-116.71875,29.53125],[-116.71875,30.9375],[-118.125,30.9375],[-118.125,29.53125]]]},"properties":{"n":168}},{"type":"Feature","geometry":{"type":"Polygon","coordinates":[[[-116.71875,30.9375],[-115.3125,30.9375],[-115.3125,32.34375],[-116.71875,32.34375],[-116.71875,30.9375]]]},"properties":{"n":153}},{"type":"Feature","geometry":{"type":"Polygon","coordinates":[[[-115.3125,25.3125],[-113.90625,25.3125],[-113.90625,26.71875],[-115.3125,26.71875],[-115.3125,25.3125]]]},"properties":{"n":145}},{"type":"Feature","geometry":{"type":"Polygon","coordinates":[[[150.46875,-33.75],[151.875,-33.75],[151.875,-32.34375],[150.46875,-32.34375],[150.46875,-33.75]]]},"properties":{"n":132}},{"type":"Feature","geometry":{"type":"Polygon","coordinates":[[[-118.125,28.125],[-116.71875,28.125],[-116.71875,29.53125],[-118.125,29.53125],[-118.125,28.125]]]},"properties":{"n":115}},{"type":"Feature","geometry":{"type":"Polygon","coordinates":[[[127.96875,-33.75],[129.375,-33.75],[129.375,-32.34375],[127.96875,-32.34375],[127.96875,-33.75]]]},"properties":{"n":112}},{"type":"Feature","geometry":{"type":"Polygon","coordinates":[[[-112.5,23.90625],[-111.09375,23.90625],[-111.09375,25.3125],[-112.5,25.3125],[-112.5,23.90625]]]},"properties":{"n":111}},{"type":"Feature","geometry":{"type":"Polygon","coordinates":[[[-125.15625,36.5625],[-123.75,36.5625],[-123.75,37.96875],[-125.15625,37.96875],[-125.15625,36.5625]]]},"properties":{"n":108}},{"type":"Feature","geometry":{"type":"Polygon","coordinates":[[[126.5625,-33.75],[127.96875,-33.75],[127.96875,-32.34375],[126.5625,-32.34375],[126.5625,-33.75]]]},"properties":{"n":104}},{"type":"Feature","geometry":{"type":"Polygon","coordinates":[[[-126.5625,47.8125],[-125.15625,47.8125],[-125.15625,49.21875],[-126.5625,49.21875],[-126.5625,47.8125]]]},"properties":{"n":101}},{"type":"Feature","geometry":{"type":"Polygon","coordinates":[[[115.3125,-32.34375],[116.71875,-32.34375],[116.71875,-30.9375],[115.3125,-30.9375],[115.3125,-32.34375]]]},"properties":{"n":93}},{"type":"Feature","geometry":{"type":"Polygon","coordinates":[[[132.1875,-32.34375],[133.59375,-32.34375],[133.59375,-30.9375],[132.1875,-30.9375],[132.1875,-32.34375]]]},"properties":{"n":88}},{"type":"Feature","geometry":{"type":"Polygon","coordinates":[[[-132.1875,52.03125],[-130.78125,52.03125],[-130.78125,53.4375],[-132.1875,53.4375],[-132.1875,52.03125]]]},"properties":{"n":87}},{"type":"Feature","geometry":{"type":"Polygon","coordinates":[[[153.28125,-28.125],[154.6875,-28.125],[154.6875,-26.71875],[153.28125,-26.71875],[153.28125,-28.125]]]},"properties":{"n":80}},{"type":"Feature","geometry":{"type":"Polygon","coordinates":[[[172.96875,-40.78125],[174.375,-40.78125],[174.375,-39.375],[172.96875,-39.375],[172.96875,-40.78125]]]},"properties":{"n":78}},{"type":"Feature","geometry":{"type":"Polygon","coordinates":[[[151.875,-33.75],[153.28125,-33.75],[153.28125,-32.34375],[151.875,-32.34375],[151.875,-33.75]]]},"properties":{"n":77}},{"type":"Feature","geometry":{"type":"Polygon","coordinates":[[[-125.15625,32.34375],[-123.75,32.34375],[-123.75,33.75],[-125.15625,33.75],[-125.15625,32.34375]]]},"properties":{"n":74}},{"type":"Feature","geometry":{"type":"Polygon","coordinates":[[[153.28125,-29.53125],[154.6875,-29.53125],[154.6875,-28.125],[153.28125,-28.125],[153.28125,-29.53125]]]},"properties":{"n":71}},{"type":"Feature","geometry":{"type":"Polygon","coordinates":[[[153.28125,-30.9375],[154.6875,-30.9375],[154.6875,-29.53125],[153.28125,-29.53125],[153.28125,-30.9375]]]},"properties":{"n":70}},{"type":"Feature","geometry":{"type":"Polygon","coordinates":[[[151.875,-32.34375],[153.28125,-32.34375],[153.28125,-30.9375],[151.875,-30.9375],[151.875,-32.34375]]]},"properties":{"n":69}},{"type":"Feature","geometry":{"type":"Polygon","coordinates":[[[-125.15625,33.75],[-123.75,33.75],[-123.75,35.15625],[-125.15625,35.15625],[-125.15625,33.75]]]},"properties":{"n":69}},{"type":"Feature","geometry":{"type":"Polygon","coordinates":[[[-118.125,26.71875],[-116.71875,26.71875],[-116.71875,28.125],[-118.125,28.125],[-118.125,26.71875]]]},"properties":{"n":68}},{"type":"Feature","geometry":{"type":"Polygon","coordinates":[[[112.5,-22.5],[113.90625,-22.5],[113.90625,-21.09375],[112.5,-21.09375],[112.5,-22.5]]]},"properties":{"n":67}},{"type":"Feature","geometry":{"type":"Polygon","coordinates":[[[130.78125,-33.75],[132.1875,-33.75],[132.1875,-32.34375],[130.78125,-32.34375],[130.78125,-33.75]]]},"properties":{"n":65}},{"type":"Feature","geometry":{"type":"Polygon","coordinates":[[[-119.53125,29.53125],[-118.125,29.53125],[-118.125,30.9375],[-119.53125,30.9375],[-119.53125,29.53125]]]},"properties":{"n":60}},{"type":"Feature","geometry":{"type":"Polygon","coordinates":[[[-122.34375,29.53125],[-120.9375,29.53125],[-120.9375,30.9375],[-122.34375,30.9375],[-122.34375,29.53125]]]},"properties":{"n":60}},{"type":"Feature","geometry":{"type":"Polygon","coordinates":[[[172.96875,-42.1875],[174.375,-42.1875],[174.375,-40.78125],[172.96875,-40.78125],[172.96875,-42.1875]]]},"properties":{"n":57}},{"type":"Feature","geometry":{"type":"Polygon","coordinates":[[[126.5625,-32.34375],[127.96875,-32.34375],[127.96875,-30.9375],[126.5625,-30.9375],[126.5625,-32.34375]]]},"properties":{"n":57}},{"type":"Feature","geometry":{"type":"Polygon","coordinates":[[[144.84375,-37.96875],[146.25,-37.96875],[146.25,-36.5625],[144.84375,-36.5625],[144.84375,-37.96875]]]},"properties":{"n":55}},{"type":"Feature","geometry":{"type":"Polygon","coordinates":[[[-113.90625,28.125],[-112.5,28.125],[-112.5,29.53125],[-113.90625,29.53125],[-113.90625,28.125]]]},"properties":{"n":52}},{"type":"Feature","geometry":{"type":"Polygon","coordinates":[[[-129.375,50.625],[-127.96875,50.625],[-127.96875,52.03125],[-129.375,52.03125],[-129.375,50.625]]]},"properties":{"n":44}},{"type":"Feature","geometry":{"type":"Polygon","coordinates":[[[-120.9375,29.53125],[-119.53125,29.53125],[-119.53125,30.9375],[-120.9375,30.9375],[-120.9375,29.53125]]]},"properties":{"n":44}},{"type":"Feature","geometry":{"type":"Polygon","coordinates":[[[129.375,30.9375],[130.78125,30.9375],[130.78125,32.34375],[129.375,32.34375],[129.375,30.9375]]]},"properties":{"n":42}},{"type":"Feature","geometry":{"type":"Polygon","coordinates":[[[113.90625,-32.34375],[115.3125,-32.34375],[115.3125,-30.9375],[113.90625,-30.9375],[113.90625,-32.34375]]]},"properties":{"n":42}},{"type":"Feature","geometry":{"type":"Polygon","coordinates":[[[144.84375,-39.375],[146.25,-39.375],[146.25,-37.96875],[144.84375,-37.96875],[144.84375,-39.375]]]},"properties":{"n":40}},{"type":"Feature","geometry":{"type":"Polygon","coordinates":[[[137.8125,-36.5625],[139.21875,-36.5625],[139.21875,-35.15625],[137.8125,-35.15625],[137.8125,-36.5625]]]},"properties":{"n":40}},{"type":"Feature","geometry":{"type":"Polygon","coordinates":[[[-116.71875,25.3125],[-115.3125,25.3125],[-115.3125,26.71875],[-116.71875,26.71875],[-116.71875,25.3125]]]},"properties":{"n":40}},{"type":"Feature","geometry":{"type":"Polygon","coordinates":[[[-126.5625,42.1875],[-125.15625,42.1875],[-125.15625,43.59375],[-126.5625,43.59375],[-126.5625,42.1875]]]},"properties":{"n":36}},{"type":"Feature","geometry":{"type":"Polygon","coordinates":[[[-126.5625,40.78125],[-125.15625,40.78125],[-125.15625,42.1875],[-126.5625,42.1875],[-126.5625,40.78125]]]},"properties":{"n":35}},{"type":"Feature","geometry":{"type":"Polygon","coordinates":[[[-119.53125,28.125],[-118.125,28.125],[-118.125,29.53125],[-119.53125,29.53125],[-119.53125,28.125]]]},"properties":{"n":35}},{"type":"Feature","geometry":{"type":"Polygon","coordinates":[[[147.65625,-43.59375],[149.0625,-43.59375],[149.0625,-42.1875],[147.65625,-42.1875],[147.65625,-43.59375]]]},"properties":{"n":33}},{"type":"Feature","geometry":{"type":"Polygon","coordinates":[[[-112.5,26.71875],[-111.09375,26.71875],[-111.09375,28.125],[-112.5,28.125],[-112.5,26.71875]]]},"properties":{"n":31}},{"type":"Feature","geometry":{"type":"Polygon","coordinates":[[[136.40625,-36.5625],[137.8125,-36.5625],[137.8125,-35.15625],[136.40625,-35.15625],[136.40625,-36.5625]]]},"properties":{"n":30}},{"type":"Feature","geometry":{"type":"Polygon","coordinates":[[[-125.15625,47.8125],[-123.75,47.8125],[-123.75,49.21875],[-125.15625,49.21875],[-125.15625,47.8125]]]},"properties":{"n":30}},{"type":"Feature","geometry":{"type":"Polygon","coordinates":[[[-111.09375,23.90625],[-109.6875,23.90625],[-109.6875,25.3125],[-111.09375,25.3125],[-111.09375,23.90625]]]},"properties":{"n":30}},{"type":"Feature","geometry":{"type":"Polygon","coordinates":[[[143.4375,-39.375],[144.84375,-39.375],[144.84375,-37.96875],[143.4375,-37.96875],[143.4375,-39.375]]]},"properties":{"n":29}},{"type":"Feature","geometry":{"type":"Polygon","coordinates":[[[32.34375,-29.53125],[33.75,-29.53125],[33.75,-28.125],[32.34375,-28.125],[32.34375,-29.53125]]]},"properties":{"n":29}},{"type":"Feature","geometry":{"type":"Polygon","coordinates":[[[-113.90625,23.90625],[-112.5,23.90625],[-112.5,25.3125],[-113.90625,25.3125],[-113.90625,23.90625]]]},"properties":{"n":29}},{"type":"Feature","geometry":{"type":"Polygon","coordinates":[[[174.375,-39.375],[175.78125,-39.375],[175.78125,-37.96875],[174.375,-37.96875],[174.375,-39.375]]]},"properties":{"n":28}},{"type":"Feature","geometry":{"type":"Polygon","coordinates":[[[-111.09375,22.5],[-109.6875,22.5],[-109.6875,23.90625],[-111.09375,23.90625],[-111.09375,22.5]]]},"properties":{"n":28}},{"type":"Feature","geometry":{"type":"Polygon","coordinates":[[[171.5625,-40.78125],[172.96875,-40.78125],[172.96875,-39.375],[171.5625,-39.375],[171.5625,-40.78125]]]},"properties":{"n":27}},{"type":"Feature","geometry":{"type":"Polygon","coordinates":[[[129.375,-33.75],[130.78125,-33.75],[130.78125,-32.34375],[129.375,-32.34375],[129.375,-33.75]]]},"properties":{"n":26}},{"type":"Feature","geometry":{"type":"Polygon","coordinates":[[[-111.09375,26.71875],[-109.6875,26.71875],[-109.6875,28.125],[-111.09375,28.125],[-111.09375,26.71875]]]},"properties":{"n":26}},{"type":"Feature","geometry":{"type":"Polygon","coordinates":[[[-91.40625,-1.40625],[-90,-1.40625],[-90,0],[-91.40625,0],[-91.40625,-1.40625]]]},"properties":{"n":26}},{"type":"Feature","geometry":{"type":"Polygon","coordinates":[[[-112.5,22.5],[-111.09375,22.5],[-111.09375,23.90625],[-112.5,23.90625],[-112.5,22.5]]]},"properties":{"n":25}},{"type":"Feature","geometry":{"type":"Polygon","coordinates":[[[-113.90625,26.71875],[-112.5,26.71875],[-112.5,28.125],[-113.90625,28.125],[-113.90625,26.71875]]]},"properties":{"n":24}},{"type":"Feature","geometry":{"type":"Polygon","coordinates":[[[-125.15625,39.375],[-123.75,39.375],[-123.75,40.78125],[-125.15625,40.78125],[-125.15625,39.375]]]},"properties":{"n":23}},{"type":"Feature","geometry":{"type":"Polygon","coordinates":[[[-127.96875,40.78125],[-126.5625,40.78125],[-126.5625,42.1875],[-127.96875,42.1875],[-127.96875,40.78125]]]},"properties":{"n":23}},{"type":"Feature","geometry":{"type":"Polygon","coordinates":[[[-125.15625,30.9375],[-123.75,30.9375],[-123.75,32.34375],[-125.15625,32.34375],[-125.15625,30.9375]]]},"properties":{"n":23}},{"type":"Feature","geometry":{"type":"Polygon","coordinates":[[[-123.75,29.53125],[-122.34375,29.53125],[-122.34375,30.9375],[-123.75,30.9375],[-123.75,29.53125]]]},"properties":{"n":22}},{"type":"Feature","geometry":{"type":"Polygon","coordinates":[[[140.625,-39.375],[142.03125,-39.375],[142.03125,-37.96875],[140.625,-37.96875],[140.625,-39.375]]]},"properties":{"n":21}},{"type":"Feature","geometry":{"type":"Polygon","coordinates":[[[18.28125,-35.15625],[19.6875,-35.15625],[19.6875,-33.75],[18.28125,-33.75],[18.28125,-35.15625]]]},"properties":{"n":21}},{"type":"Feature","geometry":{"type":"Polygon","coordinates":[[[139.21875,35.15625],[140.625,35.15625],[140.625,36.5625],[139.21875,36.5625],[139.21875,35.15625]]]},"properties":{"n":20}},{"type":"Feature","geometry":{"type":"Polygon","coordinates":[[[177.1875,-39.375],[178.59375,-39.375],[178.59375,-37.96875],[177.1875,-37.96875],[177.1875,-39.375]]]},"properties":{"n":20}},{"type":"Feature","geometry":{"type":"Polygon","coordinates":[[[149.0625,-37.96875],[150.46875,-37.96875],[150.46875,-36.5625],[149.0625,-36.5625],[149.0625,-37.96875]]]},"properties":{"n":20}},{"type":"Feature","geometry":{"type":"Polygon","coordinates":[[[142.03125,-39.375],[143.4375,-39.375],[143.4375,-37.96875],[142.03125,-37.96875],[142.03125,-39.375]]]},"properties":{"n":20}},{"type":"Feature","geometry":{"type":"Polygon","coordinates":[[[-125.15625,40.78125],[-123.75,40.78125],[-123.75,42.1875],[-125.15625,42.1875],[-125.15625,40.78125]]]},"properties":{"n":20}},{"type":"Feature","geometry":{"type":"Polygon","coordinates":[[[-125.15625,37.96875],[-123.75,37.96875],[-123.75,39.375],[-125.15625,39.375],[-125.15625,37.96875]]]},"properties":{"n":20}},{"type":"Feature","geometry":{"type":"Polygon","coordinates":[[[151.875,-35.15625],[153.28125,-35.15625],[153.28125,-33.75],[151.875,-33.75],[151.875,-35.15625]]]},"properties":{"n":19}},{"type":"Feature","geometry":{"type":"Polygon","coordinates":[[[172.96875,-36.5625],[174.375,-36.5625],[174.375,-35.15625],[172.96875,-35.15625],[172.96875,-36.5625]]]},"properties":{"n":18}},{"type":"Feature","geometry":{"type":"Polygon","coordinates":[[[172.96875,-39.375],[174.375,-39.375],[174.375,-37.96875],[172.96875,-37.96875],[172.96875,-39.375]]]},"properties":{"n":18}},{"type":"Feature","geometry":{"type":"Polygon","coordinates":[[[-112.5,28.125],[-111.09375,28.125],[-111.09375,29.53125],[-112.5,29.53125],[-112.5,28.125]]]},"properties":{"n":18}},{"type":"Feature","geometry":{"type":"Polygon","coordinates":[[[146.25,-43.59375],[147.65625,-43.59375],[147.65625,-42.1875],[146.25,-42.1875],[146.25,-43.59375]]]},"properties":{"n":17}},{"type":"Feature","geometry":{"type":"Polygon","coordinates":[[[30.9375,-30.9375],[32.34375,-30.9375],[32.34375,-29.53125],[30.9375,-29.53125],[30.9375,-30.9375]]]},"properties":{"n":15}},{"type":"Feature","geometry":{"type":"Polygon","coordinates":[[[177.1875,-37.96875],[178.59375,-37.96875],[178.59375,-36.5625],[177.1875,-36.5625],[177.1875,-37.96875]]]},"properties":{"n":14}},{"type":"Feature","geometry":{"type":"Polygon","coordinates":[[[-113.90625,29.53125],[-112.5,29.53125],[-112.5,30.9375],[-113.90625,30.9375],[-113.90625,29.53125]]]},"properties":{"n":14}},{"type":"Feature","geometry":{"type":"Polygon","coordinates":[[[-115.3125,23.90625],[-113.90625,23.90625],[-113.90625,25.3125],[-115.3125,25.3125],[-115.3125,23.90625]]]},"properties":{"n":14}},{"type":"Feature","geometry":{"type":"Polygon","coordinates":[[[127.96875,33.75],[129.375,33.75],[129.375,35.15625],[127.96875,35.15625],[127.96875,33.75]]]},"properties":{"n":13}},{"type":"Feature","geometry":{"type":"Polygon","coordinates":[[[130.78125,29.53125],[132.1875,29.53125],[132.1875,30.9375],[130.78125,30.9375],[130.78125,29.53125]]]},"properties":{"n":13}},{"type":"Feature","geometry":{"type":"Polygon","coordinates":[[[151.875,-30.9375],[153.28125,-30.9375],[153.28125,-29.53125],[151.875,-29.53125],[151.875,-30.9375]]]},"properties":{"n":13}},{"type":"Feature","geometry":{"type":"Polygon","coordinates":[[[135,-35.15625],[136.40625,-35.15625],[136.40625,-33.75],[135,-33.75],[135,-35.15625]]]},"properties":{"n":13}},{"type":"Feature","geometry":{"type":"Polygon","coordinates":[[[-126.5625,39.375],[-125.15625,39.375],[-125.15625,40.78125],[-126.5625,40.78125],[-126.5625,39.375]]]},"properties":{"n":13}},{"type":"Feature","geometry":{"type":"Polygon","coordinates":[[[153.28125,-32.34375],[154.6875,-32.34375],[154.6875,-30.9375],[153.28125,-30.9375],[153.28125,-32.34375]]]},"properties":{"n":12}},{"type":"Feature","geometry":{"type":"Polygon","coordinates":[[[136.40625,-35.15625],[137.8125,-35.15625],[137.8125,-33.75],[136.40625,-33.75],[136.40625,-35.15625]]]},"properties":{"n":12}},{"type":"Feature","geometry":{"type":"Polygon","coordinates":[[[11.25,-18.28125],[12.65625,-18.28125],[12.65625,-16.875],[11.25,-16.875],[11.25,-18.28125]]]},"properties":{"n":12}},{"type":"Feature","geometry":{"type":"Polygon","coordinates":[[[-120.9375,28.125],[-119.53125,28.125],[-119.53125,29.53125],[-120.9375,29.53125],[-120.9375,28.125]]]},"properties":{"n":12}},{"type":"Feature","geometry":{"type":"Polygon","coordinates":[[[130.78125,30.9375],[132.1875,30.9375],[132.1875,32.34375],[130.78125,32.34375],[130.78125,30.9375]]]},"properties":{"n":11}},{"type":"Feature","geometry":{"type":"Polygon","coordinates":[[[175.78125,-37.96875],[177.1875,-37.96875],[177.1875,-36.5625],[175.78125,-36.5625],[175.78125,-37.96875]]]},"properties":{"n":11}},{"type":"Feature","geometry":{"type":"Polygon","coordinates":[[[175.78125,-40.78125],[177.1875,-40.78125],[177.1875,-39.375],[175.78125,-39.375],[175.78125,-40.78125]]]},"properties":{"n":11}},{"type":"Feature","geometry":{"type":"Polygon","coordinates":[[[14.0625,-26.71875],[15.46875,-26.71875],[15.46875,-25.3125],[14.0625,-25.3125],[14.0625,-26.71875]]]},"properties":{"n":11}},{"type":"Feature","geometry":{"type":"Polygon","coordinates":[[[-126.5625,36.5625],[-125.15625,36.5625],[-125.15625,37.96875],[-126.5625,37.96875],[-126.5625,36.5625]]]},"properties":{"n":11}},{"type":"Feature","geometry":{"type":"Polygon","coordinates":[[[-126.5625,35.15625],[-125.15625,35.15625],[-125.15625,36.5625],[-126.5625,36.5625],[-126.5625,35.15625]]]},"properties":{"n":11}},{"type":"Feature","geometry":{"type":"Polygon","coordinates":[[[135,35.15625],[136.40625,35.15625],[136.40625,36.5625],[135,36.5625],[135,35.15625]]]},"properties":{"n":10}},{"type":"Feature","geometry":{"type":"Polygon","coordinates":[[[153.28125,-33.75],[154.6875,-33.75],[154.6875,-32.34375],[153.28125,-32.34375],[153.28125,-33.75]]]},"properties":{"n":10}},{"type":"Feature","geometry":{"type":"Polygon","coordinates":[[[146.25,-39.375],[147.65625,-39.375],[147.65625,-37.96875],[146.25,-37.96875],[146.25,-39.375]]]},"properties":{"n":10}},{"type":"Feature","geometry":{"type":"Polygon","coordinates":[[[-125.15625,45],[-123.75,45],[-123.75,46.40625],[-125.15625,46.40625],[-125.15625,45]]]},"properties":{"n":10}},{"type":"Feature","geometry":{"type":"Polygon","coordinates":[[[113.90625,-30.9375],[115.3125,-30.9375],[115.3125,-29.53125],[113.90625,-29.53125],[113.90625,-30.9375]]]},"properties":{"n":9}},{"type":"Feature","geometry":{"type":"Polygon","coordinates":[[[116.71875,-35.15625],[118.125,-35.15625],[118.125,-33.75],[116.71875,-33.75],[116.71875,-35.15625]]]},"properties":{"n":9}},{"type":"Feature","geometry":{"type":"Polygon","coordinates":[[[-123.75,47.8125],[-122.34375,47.8125],[-122.34375,49.21875],[-123.75,49.21875],[-123.75,47.8125]]]},"properties":{"n":9}},{"type":"Feature","geometry":{"type":"Polygon","coordinates":[[[-125.15625,29.53125],[-123.75,29.53125],[-123.75,30.9375],[-125.15625,30.9375],[-125.15625,29.53125]]]},"properties":{"n":9}},{"type":"Feature","geometry":{"type":"Polygon","coordinates":[[[136.40625,33.75],[137.8125,33.75],[137.8125,35.15625],[136.40625,35.15625],[136.40625,33.75]]]},"properties":{"n":8}},{"type":"Feature","geometry":{"type":"Polygon","coordinates":[[[172.96875,-37.96875],[174.375,-37.96875],[174.375,-36.5625],[172.96875,-36.5625],[172.96875,-37.96875]]]},"properties":{"n":8}},{"type":"Feature","geometry":{"type":"Polygon","coordinates":[[[136.40625,-33.75],[137.8125,-33.75],[137.8125,-32.34375],[136.40625,-32.34375],[136.40625,-33.75]]]},"properties":{"n":8}},{"type":"Feature","geometry":{"type":"Polygon","coordinates":[[[11.25,-16.875],[12.65625,-16.875],[12.65625,-15.46875],[11.25,-15.46875],[11.25,-16.875]]]},"properties":{"n":8}},{"type":"Feature","geometry":{"type":"Polygon","coordinates":[[[25.3125,-35.15625],[26.71875,-35.15625],[26.71875,-33.75],[25.3125,-33.75],[25.3125,-35.15625]]]},"properties":{"n":8}},{"type":"Feature","geometry":{"type":"Polygon","coordinates":[[[22.5,-35.15625],[23.90625,-35.15625],[23.90625,-33.75],[22.5,-33.75],[22.5,-35.15625]]]},"properties":{"n":8}},{"type":"Feature","geometry":{"type":"Polygon","coordinates":[[[-127.96875,49.21875],[-126.5625,49.21875],[-126.5625,50.625],[-127.96875,50.625],[-127.96875,49.21875]]]},"properties":{"n":8}},{"type":"Feature","geometry":{"type":"Polygon","coordinates":[[[-168.75,56.25],[-167.34375,56.25],[-167.34375,57.65625],[-168.75,57.65625],[-168.75,56.25]]]},"properties":{"n":8}},{"type":"Feature","geometry":{"type":"Polygon","coordinates":[[[-118.125,25.3125],[-116.71875,25.3125],[-116.71875,26.71875],[-118.125,26.71875],[-118.125,25.3125]]]},"properties":{"n":8}},{"type":"Feature","geometry":{"type":"Polygon","coordinates":[[[-77.34375,-12.65625],[-75.9375,-12.65625],[-75.9375,-11.25],[-77.34375,-11.25],[-77.34375,-12.65625]]]},"properties":{"n":8}},{"type":"Feature","geometry":{"type":"Polygon","coordinates":[[[137.8125,-35.15625],[139.21875,-35.15625],[139.21875,-33.75],[137.8125,-33.75],[137.8125,-35.15625]]]},"properties":{"n":7}},{"type":"Feature","geometry":{"type":"Polygon","coordinates":[[[112.5,-25.3125],[113.90625,-25.3125],[113.90625,-23.90625],[112.5,-23.90625],[112.5,-25.3125]]]},"properties":{"n":7}},{"type":"Feature","geometry":{"type":"Polygon","coordinates":[[[113.90625,-29.53125],[115.3125,-29.53125],[115.3125,-28.125],[113.90625,-28.125],[113.90625,-29.53125]]]},"properties":{"n":7}},{"type":"Feature","geometry":{"type":"Polygon","coordinates":[[[29.53125,-30.9375],[30.9375,-30.9375],[30.9375,-29.53125],[29.53125,-29.53125],[29.53125,-30.9375]]]},"properties":{"n":7}},{"type":"Feature","geometry":{"type":"Polygon","coordinates":[[[139.21875,33.75],[140.625,33.75],[140.625,35.15625],[139.21875,35.15625],[139.21875,33.75]]]},"properties":{"n":6}},{"type":"Feature","geometry":{"type":"Polygon","coordinates":[[[130.78125,33.75],[132.1875,33.75],[132.1875,35.15625],[130.78125,35.15625],[130.78125,33.75]]]},"properties":{"n":6}},{"type":"Feature","geometry":{"type":"Polygon","coordinates":[[[177.1875,-40.78125],[178.59375,-40.78125],[178.59375,-39.375],[177.1875,-39.375],[177.1875,-40.78125]]]},"properties":{"n":6}},{"type":"Feature","geometry":{"type":"Polygon","coordinates":[[[151.875,-28.125],[153.28125,-28.125],[153.28125,-26.71875],[151.875,-26.71875],[151.875,-28.125]]]},"properties":{"n":6}},{"type":"Feature","geometry":{"type":"Polygon","coordinates":[[[147.65625,-37.96875],[149.0625,-37.96875],[149.0625,-36.5625],[147.65625,-36.5625],[147.65625,-37.96875]]]},"properties":{"n":6}},{"type":"Feature","geometry":{"type":"Polygon","coordinates":[[[146.25,-42.1875],[147.65625,-42.1875],[147.65625,-40.78125],[146.25,-40.78125],[146.25,-42.1875]]]},"properties":{"n":6}},{"type":"Feature","geometry":{"type":"Polygon","coordinates":[[[143.4375,-37.96875],[144.84375,-37.96875],[144.84375,-36.5625],[143.4375,-36.5625],[143.4375,-37.96875]]]},"properties":{"n":6}},{"type":"Feature","geometry":{"type":"Polygon","coordinates":[[[112.5,-26.71875],[113.90625,-26.71875],[113.90625,-25.3125],[112.5,-25.3125],[112.5,-26.71875]]]},"properties":{"n":6}},{"type":"Feature","geometry":{"type":"Polygon","coordinates":[[[16.875,-33.75],[18.28125,-33.75],[18.28125,-32.34375],[16.875,-32.34375],[16.875,-33.75]]]},"properties":{"n":6}},{"type":"Feature","geometry":{"type":"Polygon","coordinates":[[[-108.28125,22.5],[-106.875,22.5],[-106.875,23.90625],[-108.28125,23.90625],[-108.28125,22.5]]]},"properties":{"n":6}},{"type":"Feature","geometry":{"type":"Polygon","coordinates":[[[-81.5625,-5.625],[-80.15625,-5.625],[-80.15625,-4.21875],[-81.5625,-4.21875],[-81.5625,-5.625]]]},"properties":{"n":6}},{"type":"Feature","geometry":{"type":"Polygon","coordinates":[[[-71.71875,-23.90625],[-70.3125,-23.90625],[-70.3125,-22.5],[-71.71875,-22.5],[-71.71875,-23.90625]]]},"properties":{"n":6}},{"type":"Feature","geometry":{"type":"Polygon","coordinates":[[[140.625,40.78125],[142.03125,40.78125],[142.03125,42.1875],[140.625,42.1875],[140.625,40.78125]]]},"properties":{"n":5}},{"type":"Feature","geometry":{"type":"Polygon","coordinates":[[[126.5625,33.75],[127.96875,33.75],[127.96875,35.15625],[126.5625,35.15625],[126.5625,33.75]]]},"properties":{"n":5}},{"type":"Feature","geometry":{"type":"Polygon","coordinates":[[[175.78125,-39.375],[177.1875,-39.375],[177.1875,-37.96875],[175.78125,-37.96875],[175.78125,-39.375]]]},"properties":{"n":5}},{"type":"Feature","geometry":{"type":"Polygon","coordinates":[[[174.375,-42.1875],[175.78125,-42.1875],[175.78125,-40.78125],[174.375,-40.78125],[174.375,-42.1875]]]},"properties":{"n":5}},{"type":"Feature","geometry":{"type":"Polygon","coordinates":[[[139.21875,-37.96875],[140.625,-37.96875],[140.625,-36.5625],[139.21875,-36.5625],[139.21875,-37.96875]]]},"properties":{"n":5}},{"type":"Feature","geometry":{"type":"Polygon","coordinates":[[[113.90625,-33.75],[115.3125,-33.75],[115.3125,-32.34375],[113.90625,-32.34375],[113.90625,-33.75]]]},"properties":{"n":5}},{"type":"Feature","geometry":{"type":"Polygon","coordinates":[[[113.90625,-35.15625],[115.3125,-35.15625],[115.3125,-33.75],[113.90625,-33.75],[113.90625,-35.15625]]]},"properties":{"n":5}},{"type":"Feature","geometry":{"type":"Polygon","coordinates":[[[-127.96875,39.375],[-126.5625,39.375],[-126.5625,40.78125],[-127.96875,40.78125],[-127.96875,39.375]]]},"properties":{"n":5}},{"type":"Feature","geometry":{"type":"Polygon","coordinates":[[[-126.5625,33.75],[-125.15625,33.75],[-125.15625,35.15625],[-126.5625,35.15625],[-126.5625,33.75]]]},"properties":{"n":5}},{"type":"Feature","geometry":{"type":"Polygon","coordinates":[[[-113.90625,30.9375],[-112.5,30.9375],[-112.5,32.34375],[-113.90625,32.34375],[-113.90625,30.9375]]]},"properties":{"n":5}},{"type":"Feature","geometry":{"type":"Polygon","coordinates":[[[-115.3125,30.9375],[-113.90625,30.9375],[-113.90625,32.34375],[-115.3125,32.34375],[-115.3125,30.9375]]]},"properties":{"n":5}},{"type":"Feature","geometry":{"type":"Polygon","coordinates":[[[-113.90625,22.5],[-112.5,22.5],[-112.5,23.90625],[-113.90625,23.90625],[-113.90625,22.5]]]},"properties":{"n":5}},{"type":"Feature","geometry":{"type":"Polygon","coordinates":[[[139.21875,39.375],[140.625,39.375],[140.625,40.78125],[139.21875,40.78125],[139.21875,39.375]]]},"properties":{"n":4}},{"type":"Feature","geometry":{"type":"Polygon","coordinates":[[[132.1875,32.34375],[133.59375,32.34375],[133.59375,33.75],[132.1875,33.75],[132.1875,32.34375]]]},"properties":{"n":4}},{"type":"Feature","geometry":{"type":"Polygon","coordinates":[[[130.78125,32.34375],[132.1875,32.34375],[132.1875,33.75],[130.78125,33.75],[130.78125,32.34375]]]},"properties":{"n":4}},{"type":"Feature","geometry":{"type":"Polygon","coordinates":[[[126.5625,32.34375],[127.96875,32.34375],[127.96875,33.75],[126.5625,33.75],[126.5625,32.34375]]]},"properties":{"n":4}},{"type":"Feature","geometry":{"type":"Polygon","coordinates":[[[125.15625,32.34375],[126.5625,32.34375],[126.5625,33.75],[125.15625,33.75],[125.15625,32.34375]]]},"properties":{"n":4}},{"type":"Feature","geometry":{"type":"Polygon","coordinates":[[[172.96875,-35.15625],[174.375,-35.15625],[174.375,-33.75],[172.96875,-33.75],[172.96875,-35.15625]]]},"properties":{"n":4}},{"type":"Feature","geometry":{"type":"Polygon","coordinates":[[[172.96875,-43.59375],[174.375,-43.59375],[174.375,-42.1875],[172.96875,-42.1875],[172.96875,-43.59375]]]},"properties":{"n":4}},{"type":"Feature","geometry":{"type":"Polygon","coordinates":[[[25.3125,-33.75],[26.71875,-33.75],[26.71875,-32.34375],[25.3125,-32.34375],[25.3125,-33.75]]]},"properties":{"n":4}},{"type":"Feature","geometry":{"type":"Polygon","coordinates":[[[21.09375,-35.15625],[22.5,-35.15625],[22.5,-33.75],[21.09375,-33.75],[21.09375,-35.15625]]]},"properties":{"n":4}},{"type":"Feature","geometry":{"type":"Polygon","coordinates":[[[-129.375,49.21875],[-127.96875,49.21875],[-127.96875,50.625],[-129.375,50.625],[-129.375,49.21875]]]},"properties":{"n":4}},{"type":"Feature","geometry":{"type":"Polygon","coordinates":[[[-127.96875,47.8125],[-126.5625,47.8125],[-126.5625,49.21875],[-127.96875,49.21875],[-127.96875,47.8125]]]},"properties":{"n":4}},{"type":"Feature","geometry":{"type":"Polygon","coordinates":[[[-109.6875,22.5],[-108.28125,22.5],[-108.28125,23.90625],[-109.6875,23.90625],[-109.6875,22.5]]]},"properties":{"n":4}},{"type":"Feature","geometry":{"type":"Polygon","coordinates":[[[-126.5625,43.59375],[-125.15625,43.59375],[-125.15625,45],[-126.5625,45],[-126.5625,43.59375]]]},"properties":{"n":4}},{"type":"Feature","geometry":{"type":"Polygon","coordinates":[[[140.625,37.96875],[142.03125,37.96875],[142.03125,39.375],[140.625,39.375],[140.625,37.96875]]]},"properties":{"n":3}},{"type":"Feature","geometry":{"type":"Polygon","coordinates":[[[137.8125,35.15625],[139.21875,35.15625],[139.21875,36.5625],[137.8125,36.5625],[137.8125,35.15625]]]},"properties":{"n":3}},{"type":"Feature","geometry":{"type":"Polygon","coordinates":[[[137.8125,33.75],[139.21875,33.75],[139.21875,35.15625],[137.8125,35.15625],[137.8125,33.75]]]},"properties":{"n":3}},{"type":"Feature","geometry":{"type":"Polygon","coordinates":[[[120.9375,23.90625],[122.34375,23.90625],[122.34375,25.3125],[120.9375,25.3125],[120.9375,23.90625]]]},"properties":{"n":3}},{"type":"Feature","geometry":{"type":"Polygon","coordinates":[[[171.5625,-35.15625],[172.96875,-35.15625],[172.96875,-33.75],[171.5625,-33.75],[171.5625,-35.15625]]]},"properties":{"n":3}},{"type":"Feature","geometry":{"type":"Polygon","coordinates":[[[175.78125,-42.1875],[177.1875,-42.1875],[177.1875,-40.78125],[175.78125,-40.78125],[175.78125,-42.1875]]]},"properties":{"n":3}},{"type":"Feature","geometry":{"type":"Polygon","coordinates":[[[171.5625,-43.59375],[172.96875,-43.59375],[172.96875,-42.1875],[171.5625,-42.1875],[171.5625,-43.59375]]]},"properties":{"n":3}},{"type":"Feature","geometry":{"type":"Polygon","coordinates":[[[171.5625,-45],[172.96875,-45],[172.96875,-43.59375],[171.5625,-43.59375],[171.5625,-45]]]},"properties":{"n":3}},{"type":"Feature","geometry":{"type":"Polygon","coordinates":[[[170.15625,-43.59375],[171.5625,-43.59375],[171.5625,-42.1875],[170.15625,-42.1875],[170.15625,-43.59375]]]},"properties":{"n":3}},{"type":"Feature","geometry":{"type":"Polygon","coordinates":[[[139.21875,-39.375],[140.625,-39.375],[140.625,-37.96875],[139.21875,-37.96875],[139.21875,-39.375]]]},"properties":{"n":3}},{"type":"Feature","geometry":{"type":"Polygon","coordinates":[[[112.5,-23.90625],[113.90625,-23.90625],[113.90625,-22.5],[112.5,-22.5],[112.5,-23.90625]]]},"properties":{"n":3}},{"type":"Feature","geometry":{"type":"Polygon","coordinates":[[[112.5,-28.125],[113.90625,-28.125],[113.90625,-26.71875],[112.5,-26.71875],[112.5,-28.125]]]},"properties":{"n":3}},{"type":"Feature","geometry":{"type":"Polygon","coordinates":[[[111.09375,-25.3125],[112.5,-25.3125],[112.5,-23.90625],[111.09375,-23.90625],[111.09375,-25.3125]]]},"properties":{"n":3}},{"type":"Feature","geometry":{"type":"Polygon","coordinates":[[[11.25,-19.6875],[12.65625,-19.6875],[12.65625,-18.28125],[11.25,-18.28125],[11.25,-19.6875]]]},"properties":{"n":3}},{"type":"Feature","geometry":{"type":"Polygon","coordinates":[[[12.65625,-21.09375],[14.0625,-21.09375],[14.0625,-19.6875],[12.65625,-19.6875],[12.65625,-21.09375]]]},"properties":{"n":3}},{"type":"Feature","geometry":{"type":"Polygon","coordinates":[[[18.28125,-32.34375],[19.6875,-32.34375],[19.6875,-30.9375],[18.28125,-30.9375],[18.28125,-32.34375]]]},"properties":{"n":3}},{"type":"Feature","geometry":{"type":"Polygon","coordinates":[[[-129.375,52.03125],[-127.96875,52.03125],[-127.96875,53.4375],[-129.375,53.4375],[-129.375,52.03125]]]},"properties":{"n":3}},{"type":"Feature","geometry":{"type":"Polygon","coordinates":[[[-126.5625,49.21875],[-125.15625,49.21875],[-125.15625,50.625],[-126.5625,50.625],[-126.5625,49.21875]]]},"properties":{"n":3}},{"type":"Feature","geometry":{"type":"Polygon","coordinates":[[[-126.5625,46.40625],[-125.15625,46.40625],[-125.15625,47.8125],[-126.5625,47.8125],[-126.5625,46.40625]]]},"properties":{"n":3}},{"type":"Feature","geometry":{"type":"Polygon","coordinates":[[[-122.34375,37.96875],[-120.9375,37.96875],[-120.9375,39.375],[-122.34375,39.375],[-122.34375,37.96875]]]},"properties":{"n":3}},{"type":"Feature","geometry":{"type":"Polygon","coordinates":[[[-126.5625,37.96875],[-125.15625,37.96875],[-125.15625,39.375],[-126.5625,39.375],[-126.5625,37.96875]]]},"properties":{"n":3}},{"type":"Feature","geometry":{"type":"Polygon","coordinates":[[[-127.96875,33.75],[-126.5625,33.75],[-126.5625,35.15625],[-127.96875,35.15625],[-127.96875,33.75]]]},"properties":{"n":3}},{"type":"Feature","geometry":{"type":"Polygon","coordinates":[[[-115.3125,29.53125],[-113.90625,29.53125],[-113.90625,30.9375],[-115.3125,30.9375],[-115.3125,29.53125]]]},"properties":{"n":3}},{"type":"Feature","geometry":{"type":"Polygon","coordinates":[[[-120.9375,26.71875],[-119.53125,26.71875],[-119.53125,28.125],[-120.9375,28.125],[-120.9375,26.71875]]]},"properties":{"n":3}},{"type":"Feature","geometry":{"type":"Polygon","coordinates":[[[-119.53125,25.3125],[-118.125,25.3125],[-118.125,26.71875],[-119.53125,26.71875],[-119.53125,25.3125]]]},"properties":{"n":3}},{"type":"Feature","geometry":{"type":"Polygon","coordinates":[[[-111.09375,21.09375],[-109.6875,21.09375],[-109.6875,22.5],[-111.09375,22.5],[-111.09375,21.09375]]]},"properties":{"n":3}},{"type":"Feature","geometry":{"type":"Polygon","coordinates":[[[-91.40625,0],[-90,0],[-90,1.40625],[-91.40625,1.40625],[-91.40625,0]]]},"properties":{"n":3}},{"type":"Feature","geometry":{"type":"Polygon","coordinates":[[[-113.90625,18.28125],[-112.5,18.28125],[-112.5,19.6875],[-113.90625,19.6875],[-113.90625,18.28125]]]},"properties":{"n":3}},{"type":"Feature","geometry":{"type":"Polygon","coordinates":[[[-71.71875,-30.9375],[-70.3125,-30.9375],[-70.3125,-29.53125],[-71.71875,-29.53125],[-71.71875,-30.9375]]]},"properties":{"n":3}},{"type":"Feature","geometry":{"type":"Polygon","coordinates":[[[-92.8125,-1.40625],[-91.40625,-1.40625],[-91.40625,0],[-92.8125,0],[-92.8125,-1.40625]]]},"properties":{"n":3}},{"type":"Feature","geometry":{"type":"Polygon","coordinates":[[[133.59375,35.15625],[135,35.15625],[135,36.5625],[133.59375,36.5625],[133.59375,35.15625]]]},"properties":{"n":2}},{"type":"Feature","geometry":{"type":"Polygon","coordinates":[[[129.375,33.75],[130.78125,33.75],[130.78125,35.15625],[129.375,35.15625],[129.375,33.75]]]},"properties":{"n":2}},{"type":"Feature","geometry":{"type":"Polygon","coordinates":[[[122.34375,9.84375],[123.75,9.84375],[123.75,11.25],[122.34375,11.25],[122.34375,9.84375]]]},"properties":{"n":2}},{"type":"Feature","geometry":{"type":"Polygon","coordinates":[[[0,33.75],[1.40625,33.75],[1.40625,35.15625],[0,35.15625],[0,33.75]]]},"properties":{"n":2}},{"type":"Feature","geometry":{"type":"Polygon","coordinates":[[[177.1875,-18.28125],[178.59375,-18.28125],[178.59375,-16.875],[177.1875,-16.875],[177.1875,-18.28125]]]},"properties":{"n":2}},{"type":"Feature","geometry":{"type":"Polygon","coordinates":[[[171.5625,-33.75],[172.96875,-33.75],[172.96875,-32.34375],[171.5625,-32.34375],[171.5625,-33.75]]]},"properties":{"n":2}},{"type":"Feature","geometry":{"type":"Polygon","coordinates":[[[171.5625,-42.1875],[172.96875,-42.1875],[172.96875,-40.78125],[171.5625,-40.78125],[171.5625,-42.1875]]]},"properties":{"n":2}},{"type":"Feature","geometry":{"type":"Polygon","coordinates":[[[172.96875,-45],[174.375,-45],[174.375,-43.59375],[172.96875,-43.59375],[172.96875,-45]]]},"properties":{"n":2}},{"type":"Feature","geometry":{"type":"Polygon","coordinates":[[[170.15625,-45],[171.5625,-45],[171.5625,-43.59375],[170.15625,-43.59375],[170.15625,-45]]]},"properties":{"n":2}},{"type":"Feature","geometry":{"type":"Polygon","coordinates":[[[151.875,-26.71875],[153.28125,-26.71875],[153.28125,-25.3125],[151.875,-25.3125],[151.875,-26.71875]]]},"properties":{"n":2}},{"type":"Feature","geometry":{"type":"Polygon","coordinates":[[[153.28125,-35.15625],[154.6875,-35.15625],[154.6875,-33.75],[153.28125,-33.75],[153.28125,-35.15625]]]},"properties":{"n":2}},{"type":"Feature","geometry":{"type":"Polygon","coordinates":[[[149.0625,-36.5625],[150.46875,-36.5625],[150.46875,-35.15625],[149.0625,-35.15625],[149.0625,-36.5625]]]},"properties":{"n":2}},{"type":"Feature","geometry":{"type":"Polygon","coordinates":[[[147.65625,-40.78125],[149.0625,-40.78125],[149.0625,-39.375],[147.65625,-39.375],[147.65625,-40.78125]]]},"properties":{"n":2}},{"type":"Feature","geometry":{"type":"Polygon","coordinates":[[[135,-36.5625],[136.40625,-36.5625],[136.40625,-35.15625],[135,-35.15625],[135,-36.5625]]]},"properties":{"n":2}},{"type":"Feature","geometry":{"type":"Polygon","coordinates":[[[132.1875,-25.3125],[133.59375,-25.3125],[133.59375,-23.90625],[132.1875,-23.90625],[132.1875,-25.3125]]]},"properties":{"n":2}},{"type":"Feature","geometry":{"type":"Polygon","coordinates":[[[112.5,-35.15625],[113.90625,-35.15625],[113.90625,-33.75],[112.5,-33.75],[112.5,-35.15625]]]},"properties":{"n":2}},{"type":"Feature","geometry":{"type":"Polygon","coordinates":[[[111.09375,-23.90625],[112.5,-23.90625],[112.5,-22.5],[111.09375,-22.5],[111.09375,-23.90625]]]},"properties":{"n":2}},{"type":"Feature","geometry":{"type":"Polygon","coordinates":[[[170.15625,-46.40625],[171.5625,-46.40625],[171.5625,-45],[170.15625,-45],[170.15625,-46.40625]]]},"properties":{"n":2}},{"type":"Feature","geometry":{"type":"Polygon","coordinates":[[[12.65625,-8.4375],[14.0625,-8.4375],[14.0625,-7.03125],[12.65625,-7.03125],[12.65625,-8.4375]]]},"properties":{"n":2}},{"type":"Feature","geometry":{"type":"Polygon","coordinates":[[[37.96875,-26.71875],[39.375,-26.71875],[39.375,-25.3125],[37.96875,-25.3125],[37.96875,-26.71875]]]},"properties":{"n":2}},{"type":"Feature","geometry":{"type":"Polygon","coordinates":[[[32.34375,-26.71875],[33.75,-26.71875],[33.75,-25.3125],[32.34375,-25.3125],[32.34375,-26.71875]]]},"properties":{"n":2}},{"type":"Feature","geometry":{"type":"Polygon","coordinates":[[[28.125,-32.34375],[29.53125,-32.34375],[29.53125,-30.9375],[28.125,-30.9375],[28.125,-32.34375]]]},"properties":{"n":2}},{"type":"Feature","geometry":{"type":"Polygon","coordinates":[[[26.71875,-33.75],[28.125,-33.75],[28.125,-32.34375],[26.71875,-32.34375],[26.71875,-33.75]]]},"properties":{"n":2}},{"type":"Feature","geometry":{"type":"Polygon","coordinates":[[[23.90625,-35.15625],[25.3125,-35.15625],[25.3125,-33.75],[23.90625,-33.75],[23.90625,-35.15625]]]},"properties":{"n":2}},{"type":"Feature","geometry":{"type":"Polygon","coordinates":[[[19.6875,-35.15625],[21.09375,-35.15625],[21.09375,-33.75],[19.6875,-33.75],[19.6875,-35.15625]]]},"properties":{"n":2}},{"type":"Feature","geometry":{"type":"Polygon","coordinates":[[[5.625,-81.5625],[7.03125,-81.5625],[7.03125,-80.15625],[5.625,-80.15625],[5.625,-81.5625]]]},"properties":{"n":2}},{"type":"Feature","geometry":{"type":"Polygon","coordinates":[[[-135,56.25],[-133.59375,56.25],[-133.59375,57.65625],[-135,57.65625],[-135,56.25]]]},"properties":{"n":2}},{"type":"Feature","geometry":{"type":"Polygon","coordinates":[[[-127.96875,50.625],[-126.5625,50.625],[-126.5625,52.03125],[-127.96875,52.03125],[-127.96875,50.625]]]},"properties":{"n":2}},{"type":"Feature","geometry":{"type":"Polygon","coordinates":[[[-130.78125,52.03125],[-129.375,52.03125],[-129.375,53.4375],[-130.78125,53.4375],[-130.78125,52.03125]]]},"properties":{"n":2}},{"type":"Feature","geometry":{"type":"Polygon","coordinates":[[[-125.15625,49.21875],[-123.75,49.21875],[-123.75,50.625],[-125.15625,50.625],[-125.15625,49.21875]]]},"properties":{"n":2}},{"type":"Feature","geometry":{"type":"Polygon","coordinates":[[[-125.15625,46.40625],[-123.75,46.40625],[-123.75,47.8125],[-125.15625,47.8125],[-125.15625,46.40625]]]},"properties":{"n":2}},{"type":"Feature","geometry":{"type":"Polygon","coordinates":[[[-126.5625,45],[-125.15625,45],[-125.15625,46.40625],[-126.5625,46.40625],[-126.5625,45]]]},"properties":{"n":2}},{"type":"Feature","geometry":{"type":"Polygon","coordinates":[[[-136.40625,56.25],[-135,56.25],[-135,57.65625],[-136.40625,57.65625],[-136.40625,56.25]]]},"properties":{"n":2}},{"type":"Feature","geometry":{"type":"Polygon","coordinates":[[[-137.8125,56.25],[-136.40625,56.25],[-136.40625,57.65625],[-137.8125,57.65625],[-137.8125,56.25]]]},"properties":{"n":2}},{"type":"Feature","geometry":{"type":"Polygon","coordinates":[[[-136.40625,45],[-135,45],[-135,46.40625],[-136.40625,46.40625],[-136.40625,45]]]},"properties":{"n":2}},{"type":"Feature","geometry":{"type":"Polygon","coordinates":[[[-106.875,22.5],[-105.46875,22.5],[-105.46875,23.90625],[-106.875,23.90625],[-106.875,22.5]]]},"properties":{"n":2}},{"type":"Feature","geometry":{"type":"Polygon","coordinates":[[[-111.09375,25.3125],[-109.6875,25.3125],[-109.6875,26.71875],[-111.09375,26.71875],[-111.09375,25.3125]]]},"properties":{"n":2}},{"type":"Feature","geometry":{"type":"Polygon","coordinates":[[[-119.53125,26.71875],[-118.125,26.71875],[-118.125,28.125],[-119.53125,28.125],[-119.53125,26.71875]]]},"properties":{"n":2}},{"type":"Feature","geometry":{"type":"Polygon","coordinates":[[[-105.46875,18.28125],[-104.0625,18.28125],[-104.0625,19.6875],[-105.46875,19.6875],[-105.46875,18.28125]]]},"properties":{"n":2}},{"type":"Feature","geometry":{"type":"Polygon","coordinates":[[[-115.3125,18.28125],[-113.90625,18.28125],[-113.90625,19.6875],[-115.3125,19.6875],[-115.3125,18.28125]]]},"properties":{"n":2}},{"type":"Feature","geometry":{"type":"Polygon","coordinates":[[[-78.75,-9.84375],[-77.34375,-9.84375],[-77.34375,-8.4375],[-78.75,-8.4375],[-78.75,-9.84375]]]},"properties":{"n":2}},{"type":"Feature","geometry":{"type":"Polygon","coordinates":[[[161.71875,54.84375],[163.125,54.84375],[163.125,56.25],[161.71875,56.25],[161.71875,54.84375]]]},"properties":{"n":1}},{"type":"Feature","geometry":{"type":"Polygon","coordinates":[[[144.84375,43.59375],[146.25,43.59375],[146.25,45],[144.84375,45],[144.84375,43.59375]]]},"properties":{"n":1}},{"type":"Feature","geometry":{"type":"Polygon","coordinates":[[[144.84375,42.1875],[146.25,42.1875],[146.25,43.59375],[144.84375,43.59375],[144.84375,42.1875]]]},"properties":{"n":1}},{"type":"Feature","geometry":{"type":"Polygon","coordinates":[[[140.625,39.375],[142.03125,39.375],[142.03125,40.78125],[140.625,40.78125],[140.625,39.375]]]},"properties":{"n":1}},{"type":"Feature","geometry":{"type":"Polygon","coordinates":[[[130.78125,42.1875],[132.1875,42.1875],[132.1875,43.59375],[130.78125,43.59375],[130.78125,42.1875]]]},"properties":{"n":1}},{"type":"Feature","geometry":{"type":"Polygon","coordinates":[[[129.375,36.5625],[130.78125,36.5625],[130.78125,37.96875],[129.375,37.96875],[129.375,36.5625]]]},"properties":{"n":1}},{"type":"Feature","geometry":{"type":"Polygon","coordinates":[[[129.375,35.15625],[130.78125,35.15625],[130.78125,36.5625],[129.375,36.5625],[129.375,35.15625]]]},"properties":{"n":1}},{"type":"Feature","geometry":{"type":"Polygon","coordinates":[[[127.96875,37.96875],[129.375,37.96875],[129.375,39.375],[127.96875,39.375],[127.96875,37.96875]]]},"properties":{"n":1}},{"type":"Feature","geometry":{"type":"Polygon","coordinates":[[[127.96875,36.5625],[129.375,36.5625],[129.375,37.96875],[127.96875,37.96875],[127.96875,36.5625]]]},"properties":{"n":1}},{"type":"Feature","geometry":{"type":"Polygon","coordinates":[[[127.96875,35.15625],[129.375,35.15625],[129.375,36.5625],[127.96875,36.5625],[127.96875,35.15625]]]},"properties":{"n":1}},{"type":"Feature","geometry":{"type":"Polygon","coordinates":[[[125.15625,33.75],[126.5625,33.75],[126.5625,35.15625],[125.15625,35.15625],[125.15625,33.75]]]},"properties":{"n":1}},{"type":"Feature","geometry":{"type":"Polygon","coordinates":[[[120.9375,36.5625],[122.34375,36.5625],[122.34375,37.96875],[120.9375,37.96875],[120.9375,36.5625]]]},"properties":{"n":1}},{"type":"Feature","geometry":{"type":"Polygon","coordinates":[[[127.96875,26.71875],[129.375,26.71875],[129.375,28.125],[127.96875,28.125],[127.96875,26.71875]]]},"properties":{"n":1}},{"type":"Feature","geometry":{"type":"Polygon","coordinates":[[[113.90625,21.09375],[115.3125,21.09375],[115.3125,22.5],[113.90625,22.5],[113.90625,21.09375]]]},"properties":{"n":1}},{"type":"Feature","geometry":{"type":"Polygon","coordinates":[[[135,-8.4375],[136.40625,-8.4375],[136.40625,-7.03125],[135,-7.03125],[135,-8.4375]]]},"properties":{"n":1}},{"type":"Feature","geometry":{"type":"Polygon","coordinates":[[[151.875,-22.5],[153.28125,-22.5],[153.28125,-21.09375],[151.875,-21.09375],[151.875,-22.5]]]},"properties":{"n":1}},{"type":"Feature","geometry":{"type":"Polygon","coordinates":[[[144.84375,-16.875],[146.25,-16.875],[146.25,-15.46875],[144.84375,-15.46875],[144.84375,-16.875]]]},"properties":{"n":1}},{"type":"Feature","geometry":{"type":"Polygon","coordinates":[[[137.8125,-15.46875],[139.21875,-15.46875],[139.21875,-14.0625],[137.8125,-14.0625],[137.8125,-15.46875]]]},"properties":{"n":1}},{"type":"Feature","geometry":{"type":"Polygon","coordinates":[[[136.40625,-15.46875],[137.8125,-15.46875],[137.8125,-14.0625],[136.40625,-14.0625],[136.40625,-15.46875]]]},"properties":{"n":1}},{"type":"Feature","geometry":{"type":"Polygon","coordinates":[[[174.375,-35.15625],[175.78125,-35.15625],[175.78125,-33.75],[174.375,-33.75],[174.375,-35.15625]]]},"properties":{"n":1}},{"type":"Feature","geometry":{"type":"Polygon","coordinates":[[[174.375,-40.78125],[175.78125,-40.78125],[175.78125,-39.375],[174.375,-39.375],[174.375,-40.78125]]]},"properties":{"n":1}},{"type":"Feature","geometry":{"type":"Polygon","coordinates":[[[153.28125,-25.3125],[154.6875,-25.3125],[154.6875,-23.90625],[153.28125,-23.90625],[153.28125,-25.3125]]]},"properties":{"n":1}},{"type":"Feature","geometry":{"type":"Polygon","coordinates":[[[153.28125,-26.71875],[154.6875,-26.71875],[154.6875,-25.3125],[153.28125,-25.3125],[153.28125,-26.71875]]]},"properties":{"n":1}},{"type":"Feature","geometry":{"type":"Polygon","coordinates":[[[151.875,-29.53125],[153.28125,-29.53125],[153.28125,-28.125],[151.875,-28.125],[151.875,-29.53125]]]},"properties":{"n":1}},{"type":"Feature","geometry":{"type":"Polygon","coordinates":[[[149.0625,-39.375],[150.46875,-39.375],[150.46875,-37.96875],[149.0625,-37.96875],[149.0625,-39.375]]]},"properties":{"n":1}},{"type":"Feature","geometry":{"type":"Polygon","coordinates":[[[136.40625,-39.375],[137.8125,-39.375],[137.8125,-37.96875],[136.40625,-37.96875],[136.40625,-39.375]]]},"properties":{"n":1}},{"type":"Feature","geometry":{"type":"Polygon","coordinates":[[[133.59375,-8.4375],[135,-8.4375],[135,-7.03125],[133.59375,-7.03125],[133.59375,-8.4375]]]},"properties":{"n":1}},{"type":"Feature","geometry":{"type":"Polygon","coordinates":[[[113.90625,-9.84375],[115.3125,-9.84375],[115.3125,-8.4375],[113.90625,-8.4375],[113.90625,-9.84375]]]},"properties":{"n":1}},{"type":"Feature","geometry":{"type":"Polygon","coordinates":[[[133.59375,-32.34375],[135,-32.34375],[135,-30.9375],[133.59375,-30.9375],[133.59375,-32.34375]]]},"properties":{"n":1}},{"type":"Feature","geometry":{"type":"Polygon","coordinates":[[[125.15625,-32.34375],[126.5625,-32.34375],[126.5625,-30.9375],[125.15625,-30.9375],[125.15625,-32.34375]]]},"properties":{"n":1}},{"type":"Feature","geometry":{"type":"Polygon","coordinates":[[[113.90625,-28.125],[115.3125,-28.125],[115.3125,-26.71875],[113.90625,-26.71875],[113.90625,-28.125]]]},"properties":{"n":1}},{"type":"Feature","geometry":{"type":"Polygon","coordinates":[[[122.34375,-35.15625],[123.75,-35.15625],[123.75,-33.75],[122.34375,-33.75],[122.34375,-35.15625]]]},"properties":{"n":1}},{"type":"Feature","geometry":{"type":"Polygon","coordinates":[[[120.9375,-35.15625],[122.34375,-35.15625],[122.34375,-33.75],[120.9375,-33.75],[120.9375,-35.15625]]]},"properties":{"n":1}},{"type":"Feature","geometry":{"type":"Polygon","coordinates":[[[118.125,-35.15625],[119.53125,-35.15625],[119.53125,-33.75],[118.125,-33.75],[118.125,-35.15625]]]},"properties":{"n":1}},{"type":"Feature","geometry":{"type":"Polygon","coordinates":[[[80.15625,-7.03125],[81.5625,-7.03125],[81.5625,-5.625],[80.15625,-5.625],[80.15625,-7.03125]]]},"properties":{"n":1}},{"type":"Feature","geometry":{"type":"Polygon","coordinates":[[[14.0625,-22.5],[15.46875,-22.5],[15.46875,-21.09375],[14.0625,-21.09375],[14.0625,-22.5]]]},"properties":{"n":1}},{"type":"Feature","geometry":{"type":"Polygon","coordinates":[[[32.34375,-28.125],[33.75,-28.125],[33.75,-26.71875],[32.34375,-26.71875],[32.34375,-28.125]]]},"properties":{"n":1}},{"type":"Feature","geometry":{"type":"Polygon","coordinates":[[[30.9375,-29.53125],[32.34375,-29.53125],[32.34375,-28.125],[30.9375,-28.125],[30.9375,-29.53125]]]},"properties":{"n":1}},{"type":"Feature","geometry":{"type":"Polygon","coordinates":[[[14.0625,-23.90625],[15.46875,-23.90625],[15.46875,-22.5],[14.0625,-22.5],[14.0625,-23.90625]]]},"properties":{"n":1}},{"type":"Feature","geometry":{"type":"Polygon","coordinates":[[[16.875,-35.15625],[18.28125,-35.15625],[18.28125,-33.75],[16.875,-33.75],[16.875,-35.15625]]]},"properties":{"n":1}},{"type":"Feature","geometry":{"type":"Polygon","coordinates":[[[-18.28125,32.34375],[-16.875,32.34375],[-16.875,33.75],[-18.28125,33.75],[-18.28125,32.34375]]]},"properties":{"n":1}},{"type":"Feature","geometry":{"type":"Polygon","coordinates":[[[-67.5,43.59375],[-66.09375,43.59375],[-66.09375,45],[-67.5,45],[-67.5,43.59375]]]},"properties":{"n":1}},{"type":"Feature","geometry":{"type":"Polygon","coordinates":[[[-74.53125,39.375],[-73.125,39.375],[-73.125,40.78125],[-74.53125,40.78125],[-74.53125,39.375]]]},"properties":{"n":1}},{"type":"Feature","geometry":{"type":"Polygon","coordinates":[[[-82.96875,23.90625],[-81.5625,23.90625],[-81.5625,25.3125],[-82.96875,25.3125],[-82.96875,23.90625]]]},"properties":{"n":1}},{"type":"Feature","geometry":{"type":"Polygon","coordinates":[[[-78.75,5.625],[-77.34375,5.625],[-77.34375,7.03125],[-78.75,7.03125],[-78.75,5.625]]]},"properties":{"n":1}},{"type":"Feature","geometry":{"type":"Polygon","coordinates":[[[-78.75,1.40625],[-77.34375,1.40625],[-77.34375,2.8125],[-78.75,2.8125],[-78.75,1.40625]]]},"properties":{"n":1}},{"type":"Feature","geometry":{"type":"Polygon","coordinates":[[[-80.15625,9.84375],[-78.75,9.84375],[-78.75,11.25],[-80.15625,11.25],[-80.15625,9.84375]]]},"properties":{"n":1}},{"type":"Feature","geometry":{"type":"Polygon","coordinates":[[[-80.15625,7.03125],[-78.75,7.03125],[-78.75,8.4375],[-80.15625,8.4375],[-80.15625,7.03125]]]},"properties":{"n":1}},{"type":"Feature","geometry":{"type":"Polygon","coordinates":[[[-88.59375,9.84375],[-87.1875,9.84375],[-87.1875,11.25],[-88.59375,11.25],[-88.59375,9.84375]]]},"properties":{"n":1}},{"type":"Feature","geometry":{"type":"Polygon","coordinates":[[[-82.96875,2.8125],[-81.5625,2.8125],[-81.5625,4.21875],[-82.96875,4.21875],[-82.96875,2.8125]]]},"properties":{"n":1}},{"type":"Feature","geometry":{"type":"Polygon","coordinates":[[[-123.75,49.21875],[-122.34375,49.21875],[-122.34375,50.625],[-123.75,50.625],[-123.75,49.21875]]]},"properties":{"n":1}},{"type":"Feature","geometry":{"type":"Polygon","coordinates":[[[-130.78125,53.4375],[-129.375,53.4375],[-129.375,54.84375],[-130.78125,54.84375],[-130.78125,53.4375]]]},"properties":{"n":1}},{"type":"Feature","geometry":{"type":"Polygon","coordinates":[[[-130.78125,50.625],[-129.375,50.625],[-129.375,52.03125],[-130.78125,52.03125],[-130.78125,50.625]]]},"properties":{"n":1}},{"type":"Feature","geometry":{"type":"Polygon","coordinates":[[[-133.59375,52.03125],[-132.1875,52.03125],[-132.1875,53.4375],[-133.59375,53.4375],[-133.59375,52.03125]]]},"properties":{"n":1}},{"type":"Feature","geometry":{"type":"Polygon","coordinates":[[[-130.78125,47.8125],[-129.375,47.8125],[-129.375,49.21875],[-130.78125,49.21875],[-130.78125,47.8125]]]},"properties":{"n":1}},{"type":"Feature","geometry":{"type":"Polygon","coordinates":[[[-135,47.8125],[-133.59375,47.8125],[-133.59375,49.21875],[-135,49.21875],[-135,47.8125]]]},"properties":{"n":1}},{"type":"Feature","geometry":{"type":"Polygon","coordinates":[[[-144.84375,45],[-143.4375,45],[-143.4375,46.40625],[-144.84375,46.40625],[-144.84375,45]]]},"properties":{"n":1}},{"type":"Feature","geometry":{"type":"Polygon","coordinates":[[[-165.9375,54.84375],[-164.53125,54.84375],[-164.53125,56.25],[-165.9375,56.25],[-165.9375,54.84375]]]},"properties":{"n":1}},{"type":"Feature","geometry":{"type":"Polygon","coordinates":[[[-168.75,54.84375],[-167.34375,54.84375],[-167.34375,56.25],[-168.75,56.25],[-168.75,54.84375]]]},"properties":{"n":1}},{"type":"Feature","geometry":{"type":"Polygon","coordinates":[[[-98.4375,23.90625],[-97.03125,23.90625],[-97.03125,25.3125],[-98.4375,25.3125],[-98.4375,23.90625]]]},"properties":{"n":1}},{"type":"Feature","geometry":{"type":"Polygon","coordinates":[[[-127.96875,37.96875],[-126.5625,37.96875],[-126.5625,39.375],[-127.96875,39.375],[-127.96875,37.96875]]]},"properties":{"n":1}},{"type":"Feature","geometry":{"type":"Polygon","coordinates":[[[-115.3125,22.5],[-113.90625,22.5],[-113.90625,23.90625],[-115.3125,23.90625],[-115.3125,22.5]]]},"properties":{"n":1}},{"type":"Feature","geometry":{"type":"Polygon","coordinates":[[[-116.71875,23.90625],[-115.3125,23.90625],[-115.3125,25.3125],[-116.71875,25.3125],[-116.71875,23.90625]]]},"properties":{"n":1}},{"type":"Feature","geometry":{"type":"Polygon","coordinates":[[[-118.125,23.90625],[-116.71875,23.90625],[-116.71875,25.3125],[-118.125,25.3125],[-118.125,23.90625]]]},"properties":{"n":1}},{"type":"Feature","geometry":{"type":"Polygon","coordinates":[[[-120.9375,23.90625],[-119.53125,23.90625],[-119.53125,25.3125],[-120.9375,25.3125],[-120.9375,23.90625]]]},"properties":{"n":1}},{"type":"Feature","geometry":{"type":"Polygon","coordinates":[[[-125.15625,23.90625],[-123.75,23.90625],[-123.75,25.3125],[-125.15625,25.3125],[-125.15625,23.90625]]]},"properties":{"n":1}},{"type":"Feature","geometry":{"type":"Polygon","coordinates":[[[-97.03125,15.46875],[-95.625,15.46875],[-95.625,16.875],[-97.03125,16.875],[-97.03125,15.46875]]]},"properties":{"n":1}},{"type":"Feature","geometry":{"type":"Polygon","coordinates":[[[-105.46875,21.09375],[-104.0625,21.09375],[-104.0625,22.5],[-105.46875,22.5],[-105.46875,21.09375]]]},"properties":{"n":1}},{"type":"Feature","geometry":{"type":"Polygon","coordinates":[[[-106.875,21.09375],[-105.46875,21.09375],[-105.46875,22.5],[-106.875,22.5],[-106.875,21.09375]]]},"properties":{"n":1}},{"type":"Feature","geometry":{"type":"Polygon","coordinates":[[[-102.65625,16.875],[-101.25,16.875],[-101.25,18.28125],[-102.65625,18.28125],[-102.65625,16.875]]]},"properties":{"n":1}},{"type":"Feature","geometry":{"type":"Polygon","coordinates":[[[-109.6875,21.09375],[-108.28125,21.09375],[-108.28125,22.5],[-109.6875,22.5],[-109.6875,21.09375]]]},"properties":{"n":1}},{"type":"Feature","geometry":{"type":"Polygon","coordinates":[[[-91.40625,2.8125],[-90,2.8125],[-90,4.21875],[-91.40625,4.21875],[-91.40625,2.8125]]]},"properties":{"n":1}},{"type":"Feature","geometry":{"type":"Polygon","coordinates":[[[-140.625,35.15625],[-139.21875,35.15625],[-139.21875,36.5625],[-140.625,36.5625],[-140.625,35.15625]]]},"properties":{"n":1}},{"type":"Feature","geometry":{"type":"Polygon","coordinates":[[[-81.5625,-4.21875],[-80.15625,-4.21875],[-80.15625,-2.8125],[-81.5625,-2.8125],[-81.5625,-4.21875]]]},"properties":{"n":1}},{"type":"Feature","geometry":{"type":"Polygon","coordinates":[[[-90,-1.40625],[-88.59375,-1.40625],[-88.59375,0],[-90,0],[-90,-1.40625]]]},"properties":{"n":1}},{"type":"Feature","geometry":{"type":"Polygon","coordinates":[[[-81.5625,-7.03125],[-80.15625,-7.03125],[-80.15625,-5.625],[-81.5625,-5.625],[-81.5625,-7.03125]]]},"properties":{"n":1}},{"type":"Feature","geometry":{"type":"Polygon","coordinates":[[[-77.34375,-14.0625],[-75.9375,-14.0625],[-75.9375,-12.65625],[-77.34375,-12.65625],[-77.34375,-14.0625]]]},"properties":{"n":1}},{"type":"Feature","geometry":{"type":"Polygon","coordinates":[[[-70.3125,-21.09375],[-68.90625,-21.09375],[-68.90625,-19.6875],[-70.3125,-19.6875],[-70.3125,-21.09375]]]},"properties":{"n":1}}]}