{"type":"FeatureCollection","features":[{"type":"Feature","geometry":{"type":"Polygon","coordinates":[[[-132.1875,53.4375],[-130.78125,53.4375],[-130.78125,54.84375],[-132.1875,54.84375],[-132.1875,53.4375]]]},"properties":{"n":12504}},{"type":"Feature","geometry":{"type":"Polygon","coordinates":[[[-156.09375,56.25],[-154.6875,56.25],[-154.6875,57.65625],[-156.09375,57.65625],[-156.09375,56.25]]]},"properties":{"n":8728}},{"type":"Feature","geometry":{"type":"Polygon","coordinates":[[[-130.78125,52.03125],[-129.375,52.03125],[-129.375,53.4375],[-130.78125,53.4375],[-130.78125,52.03125]]]},"properties":{"n":7033}},{"type":"Feature","geometry":{"type":"Polygon","coordinates":[[[-132.1875,52.03125],[-130.78125,52.03125],[-130.78125,53.4375],[-132.1875,53.4375],[-132.1875,52.03125]]]},"properties":{"n":5636}},{"type":"Feature","geometry":{"type":"Polygon","coordinates":[[[-129.375,50.625],[-127.96875,50.625],[-127.96875,52.03125],[-129.375,52.03125],[-129.375,50.625]]]},"properties":{"n":5633}},{"type":"Feature","geometry":{"type":"Polygon","coordinates":[[[-126.5625,47.8125],[-125.15625,47.8125],[-125.15625,49.21875],[-126.5625,49.21875],[-126.5625,47.8125]]]},"properties":{"n":5237}},{"type":"Feature","geometry":{"type":"Polygon","coordinates":[[[-130.78125,53.4375],[-129.375,53.4375],[-129.375,54.84375],[-130.78125,54.84375],[-130.78125,53.4375]]]},"properties":{"n":4380}},{"type":"Feature","geometry":{"type":"Polygon","coordinates":[[[-133.59375,53.4375],[-132.1875,53.4375],[-132.1875,54.84375],[-133.59375,54.84375],[-133.59375,53.4375]]]},"properties":{"n":4026}},{"type":"Feature","geometry":{"type":"Polygon","coordinates":[[[-157.5,56.25],[-156.09375,56.25],[-156.09375,57.65625],[-157.5,57.65625],[-157.5,56.25]]]},"properties":{"n":3482}},{"type":"Feature","geometry":{"type":"Polygon","coordinates":[[[-123.75,47.8125],[-122.34375,47.8125],[-122.34375,49.21875],[-123.75,49.21875],[-123.75,47.8125]]]},"properties":{"n":2725}},{"type":"Feature","geometry":{"type":"Polygon","coordinates":[[[-154.6875,57.65625],[-153.28125,57.65625],[-153.28125,59.0625],[-154.6875,59.0625],[-154.6875,57.65625]]]},"properties":{"n":2578}},{"type":"Feature","geometry":{"type":"Polygon","coordinates":[[[-157.5,54.84375],[-156.09375,54.84375],[-156.09375,56.25],[-157.5,56.25],[-157.5,54.84375]]]},"properties":{"n":2566}},{"type":"Feature","geometry":{"type":"Polygon","coordinates":[[[-164.53125,54.84375],[-163.125,54.84375],[-163.125,56.25],[-164.53125,56.25],[-164.53125,54.84375]]]},"properties":{"n":2423}},{"type":"Feature","geometry":{"type":"Polygon","coordinates":[[[-165.9375,54.84375],[-164.53125,54.84375],[-164.53125,56.25],[-165.9375,56.25],[-165.9375,54.84375]]]},"properties":{"n":1861}},{"type":"Feature","geometry":{"type":"Polygon","coordinates":[[[-170.15625,56.25],[-168.75,56.25],[-168.75,57.65625],[-170.15625,57.65625],[-170.15625,56.25]]]},"properties":{"n":1774}},{"type":"Feature","geometry":{"type":"Polygon","coordinates":[[[-156.09375,57.65625],[-154.6875,57.65625],[-154.6875,59.0625],[-156.09375,59.0625],[-156.09375,57.65625]]]},"properties":{"n":1729}},{"type":"Feature","geometry":{"type":"Polygon","coordinates":[[[-125.15625,49.21875],[-123.75,49.21875],[-123.75,50.625],[-125.15625,50.625],[-125.15625,49.21875]]]},"properties":{"n":1667}},{"type":"Feature","geometry":{"type":"Polygon","coordinates":[[[-125.15625,47.8125],[-123.75,47.8125],[-123.75,49.21875],[-125.15625,49.21875],[-125.15625,47.8125]]]},"properties":{"n":1564}},{"type":"Feature","geometry":{"type":"Polygon","coordinates":[[[-127.96875,49.21875],[-126.5625,49.21875],[-126.5625,50.625],[-127.96875,50.625],[-127.96875,49.21875]]]},"properties":{"n":1439}},{"type":"Feature","geometry":{"type":"Polygon","coordinates":[[[-130.78125,50.625],[-129.375,50.625],[-129.375,52.03125],[-130.78125,52.03125],[-130.78125,50.625]]]},"properties":{"n":1433}},{"type":"Feature","geometry":{"type":"Polygon","coordinates":[[[-165.9375,53.4375],[-164.53125,53.4375],[-164.53125,54.84375],[-165.9375,54.84375],[-165.9375,53.4375]]]},"properties":{"n":1408}},{"type":"Feature","geometry":{"type":"Polygon","coordinates":[[[127.96875,37.96875],[129.375,37.96875],[129.375,39.375],[127.96875,39.375],[127.96875,37.96875]]]},"properties":{"n":1323}},{"type":"Feature","geometry":{"type":"Polygon","coordinates":[[[-167.34375,53.4375],[-165.9375,53.4375],[-165.9375,54.84375],[-167.34375,54.84375],[-167.34375,53.4375]]]},"properties":{"n":1277}},{"type":"Feature","geometry":{"type":"Polygon","coordinates":[[[-167.34375,54.84375],[-165.9375,54.84375],[-165.9375,56.25],[-167.34375,56.25],[-167.34375,54.84375]]]},"properties":{"n":1247}},{"type":"Feature","geometry":{"type":"Polygon","coordinates":[[[-123.75,49.21875],[-122.34375,49.21875],[-122.34375,50.625],[-123.75,50.625],[-123.75,49.21875]]]},"properties":{"n":1245}},{"type":"Feature","geometry":{"type":"Polygon","coordinates":[[[-171.5625,56.25],[-170.15625,56.25],[-170.15625,57.65625],[-171.5625,57.65625],[-171.5625,56.25]]]},"properties":{"n":1216}},{"type":"Feature","geometry":{"type":"Polygon","coordinates":[[[-129.375,52.03125],[-127.96875,52.03125],[-127.96875,53.4375],[-129.375,53.4375],[-129.375,52.03125]]]},"properties":{"n":1160}},{"type":"Feature","geometry":{"type":"Polygon","coordinates":[[[-158.90625,54.84375],[-157.5,54.84375],[-157.5,56.25],[-158.90625,56.25],[-158.90625,54.84375]]]},"properties":{"n":1137}},{"type":"Feature","geometry":{"type":"Polygon","coordinates":[[[-168.75,54.84375],[-167.34375,54.84375],[-167.34375,56.25],[-168.75,56.25],[-168.75,54.84375]]]},"properties":{"n":1098}},{"type":"Feature","geometry":{"type":"Polygon","coordinates":[[[-127.96875,50.625],[-126.5625,50.625],[-126.5625,52.03125],[-127.96875,52.03125],[-127.96875,50.625]]]},"properties":{"n":1066}},{"type":"Feature","geometry":{"type":"Polygon","coordinates":[[[-167.34375,56.25],[-165.9375,56.25],[-165.9375,57.65625],[-167.34375,57.65625],[-167.34375,56.25]]]},"properties":{"n":1036}},{"type":"Feature","geometry":{"type":"Polygon","coordinates":[[[-165.9375,56.25],[-164.53125,56.25],[-164.53125,57.65625],[-165.9375,57.65625],[-165.9375,56.25]]]},"properties":{"n":963}},{"type":"Feature","geometry":{"type":"Polygon","coordinates":[[[-168.75,56.25],[-167.34375,56.25],[-167.34375,57.65625],[-168.75,57.65625],[-168.75,56.25]]]},"properties":{"n":952}},{"type":"Feature","geometry":{"type":"Polygon","coordinates":[[[-153.28125,57.65625],[-151.875,57.65625],[-151.875,59.0625],[-153.28125,59.0625],[-153.28125,57.65625]]]},"properties":{"n":919}},{"type":"Feature","geometry":{"type":"Polygon","coordinates":[[[-156.09375,54.84375],[-154.6875,54.84375],[-154.6875,56.25],[-156.09375,56.25],[-156.09375,54.84375]]]},"properties":{"n":911}},{"type":"Feature","geometry":{"type":"Polygon","coordinates":[[[-168.75,53.4375],[-167.34375,53.4375],[-167.34375,54.84375],[-168.75,54.84375],[-168.75,53.4375]]]},"properties":{"n":827}},{"type":"Feature","geometry":{"type":"Polygon","coordinates":[[[-164.53125,56.25],[-163.125,56.25],[-163.125,57.65625],[-164.53125,57.65625],[-164.53125,56.25]]]},"properties":{"n":800}},{"type":"Feature","geometry":{"type":"Polygon","coordinates":[[[-153.28125,56.25],[-151.875,56.25],[-151.875,57.65625],[-153.28125,57.65625],[-153.28125,56.25]]]},"properties":{"n":781}},{"type":"Feature","geometry":{"type":"Polygon","coordinates":[[[-151.875,57.65625],[-150.46875,57.65625],[-150.46875,59.0625],[-151.875,59.0625],[-151.875,57.65625]]]},"properties":{"n":729}},{"type":"Feature","geometry":{"type":"Polygon","coordinates":[[[-154.6875,56.25],[-153.28125,56.25],[-153.28125,57.65625],[-154.6875,57.65625],[-154.6875,56.25]]]},"properties":{"n":728}},{"type":"Feature","geometry":{"type":"Polygon","coordinates":[[[-163.125,54.84375],[-161.71875,54.84375],[-161.71875,56.25],[-163.125,56.25],[-163.125,54.84375]]]},"properties":{"n":676}},{"type":"Feature","geometry":{"type":"Polygon","coordinates":[[[-164.53125,53.4375],[-163.125,53.4375],[-163.125,54.84375],[-164.53125,54.84375],[-164.53125,53.4375]]]},"properties":{"n":611}},{"type":"Feature","geometry":{"type":"Polygon","coordinates":[[[-174.375,57.65625],[-172.96875,57.65625],[-172.96875,59.0625],[-174.375,59.0625],[-174.375,57.65625]]]},"properties":{"n":567}},{"type":"Feature","geometry":{"type":"Polygon","coordinates":[[[-172.96875,56.25],[-171.5625,56.25],[-171.5625,57.65625],[-172.96875,57.65625],[-172.96875,56.25]]]},"properties":{"n":525}},{"type":"Feature","geometry":{"type":"Polygon","coordinates":[[[-133.59375,52.03125],[-132.1875,52.03125],[-132.1875,53.4375],[-133.59375,53.4375],[-133.59375,52.03125]]]},"properties":{"n":477}},{"type":"Feature","geometry":{"type":"Polygon","coordinates":[[[-150.46875,57.65625],[-149.0625,57.65625],[-149.0625,59.0625],[-150.46875,59.0625],[-150.46875,57.65625]]]},"properties":{"n":476}},{"type":"Feature","geometry":{"type":"Polygon","coordinates":[[[-161.71875,56.25],[-160.3125,56.25],[-160.3125,57.65625],[-161.71875,57.65625],[-161.71875,56.25]]]},"properties":{"n":438}},{"type":"Feature","geometry":{"type":"Polygon","coordinates":[[[-160.3125,54.84375],[-158.90625,54.84375],[-158.90625,56.25],[-160.3125,56.25],[-160.3125,54.84375]]]},"properties":{"n":406}},{"type":"Feature","geometry":{"type":"Polygon","coordinates":[[[-161.71875,54.84375],[-160.3125,54.84375],[-160.3125,56.25],[-161.71875,56.25],[-161.71875,54.84375]]]},"properties":{"n":380}},{"type":"Feature","geometry":{"type":"Polygon","coordinates":[[[-178.59375,59.0625],[-177.1875,59.0625],[-177.1875,60.46875],[-178.59375,60.46875],[-178.59375,59.0625]]]},"properties":{"n":379}},{"type":"Feature","geometry":{"type":"Polygon","coordinates":[[[-170.15625,54.84375],[-168.75,54.84375],[-168.75,56.25],[-170.15625,56.25],[-170.15625,54.84375]]]},"properties":{"n":361}},{"type":"Feature","geometry":{"type":"Polygon","coordinates":[[[-163.125,56.25],[-161.71875,56.25],[-161.71875,57.65625],[-163.125,57.65625],[-163.125,56.25]]]},"properties":{"n":360}},{"type":"Feature","geometry":{"type":"Polygon","coordinates":[[[-154.6875,54.84375],[-153.28125,54.84375],[-153.28125,56.25],[-154.6875,56.25],[-154.6875,54.84375]]]},"properties":{"n":358}},{"type":"Feature","geometry":{"type":"Polygon","coordinates":[[[-177.1875,59.0625],[-175.78125,59.0625],[-175.78125,60.46875],[-177.1875,60.46875],[-177.1875,59.0625]]]},"properties":{"n":345}},{"type":"Feature","geometry":{"type":"Polygon","coordinates":[[[-161.71875,53.4375],[-160.3125,53.4375],[-160.3125,54.84375],[-161.71875,54.84375],[-161.71875,53.4375]]]},"properties":{"n":321}},{"type":"Feature","geometry":{"type":"Polygon","coordinates":[[[-172.96875,57.65625],[-171.5625,57.65625],[-171.5625,59.0625],[-172.96875,59.0625],[-172.96875,57.65625]]]},"properties":{"n":314}},{"type":"Feature","geometry":{"type":"Polygon","coordinates":[[[-149.0625,57.65625],[-147.65625,57.65625],[-147.65625,59.0625],[-149.0625,59.0625],[-149.0625,57.65625]]]},"properties":{"n":299}},{"type":"Feature","geometry":{"type":"Polygon","coordinates":[[[-174.375,56.25],[-172.96875,56.25],[-172.96875,57.65625],[-174.375,57.65625],[-174.375,56.25]]]},"properties":{"n":290}},{"type":"Feature","geometry":{"type":"Polygon","coordinates":[[[-151.875,56.25],[-150.46875,56.25],[-150.46875,57.65625],[-151.875,57.65625],[-151.875,56.25]]]},"properties":{"n":283}},{"type":"Feature","geometry":{"type":"Polygon","coordinates":[[[-158.90625,56.25],[-157.5,56.25],[-157.5,57.65625],[-158.90625,57.65625],[-158.90625,56.25]]]},"properties":{"n":280}},{"type":"Feature","geometry":{"type":"Polygon","coordinates":[[[-175.78125,57.65625],[-174.375,57.65625],[-174.375,59.0625],[-175.78125,59.0625],[-175.78125,57.65625]]]},"properties":{"n":272}},{"type":"Feature","geometry":{"type":"Polygon","coordinates":[[[-160.3125,56.25],[-158.90625,56.25],[-158.90625,57.65625],[-160.3125,57.65625],[-160.3125,56.25]]]},"properties":{"n":265}},{"type":"Feature","geometry":{"type":"Polygon","coordinates":[[[-150.46875,59.0625],[-149.0625,59.0625],[-149.0625,60.46875],[-150.46875,60.46875],[-150.46875,59.0625]]]},"properties":{"n":256}},{"type":"Feature","geometry":{"type":"Polygon","coordinates":[[[-171.5625,57.65625],[-170.15625,57.65625],[-170.15625,59.0625],[-171.5625,59.0625],[-171.5625,57.65625]]]},"properties":{"n":256}},{"type":"Feature","geometry":{"type":"Polygon","coordinates":[[[-149.0625,59.0625],[-147.65625,59.0625],[-147.65625,60.46875],[-149.0625,60.46875],[-149.0625,59.0625]]]},"properties":{"n":251}},{"type":"Feature","geometry":{"type":"Polygon","coordinates":[[[-163.125,53.4375],[-161.71875,53.4375],[-161.71875,54.84375],[-163.125,54.84375],[-163.125,53.4375]]]},"properties":{"n":250}},{"type":"Feature","geometry":{"type":"Polygon","coordinates":[[[-170.15625,57.65625],[-168.75,57.65625],[-168.75,59.0625],[-170.15625,59.0625],[-170.15625,57.65625]]]},"properties":{"n":247}},{"type":"Feature","geometry":{"type":"Polygon","coordinates":[[[-177.1875,57.65625],[-175.78125,57.65625],[-175.78125,59.0625],[-177.1875,59.0625],[-177.1875,57.65625]]]},"properties":{"n":239}},{"type":"Feature","geometry":{"type":"Polygon","coordinates":[[[-126.5625,49.21875],[-125.15625,49.21875],[-125.15625,50.625],[-126.5625,50.625],[-126.5625,49.21875]]]},"properties":{"n":231}},{"type":"Feature","geometry":{"type":"Polygon","coordinates":[[[-127.96875,47.8125],[-126.5625,47.8125],[-126.5625,49.21875],[-127.96875,49.21875],[-127.96875,47.8125]]]},"properties":{"n":218}},{"type":"Feature","geometry":{"type":"Polygon","coordinates":[[[-177.1875,50.625],[-175.78125,50.625],[-175.78125,52.03125],[-177.1875,52.03125],[-177.1875,50.625]]]},"properties":{"n":208}},{"type":"Feature","geometry":{"type":"Polygon","coordinates":[[[-171.5625,54.84375],[-170.15625,54.84375],[-170.15625,56.25],[-171.5625,56.25],[-171.5625,54.84375]]]},"properties":{"n":203}},{"type":"Feature","geometry":{"type":"Polygon","coordinates":[[[-164.53125,57.65625],[-163.125,57.65625],[-163.125,59.0625],[-164.53125,59.0625],[-164.53125,57.65625]]]},"properties":{"n":196}},{"type":"Feature","geometry":{"type":"Polygon","coordinates":[[[-175.78125,59.0625],[-174.375,59.0625],[-174.375,60.46875],[-175.78125,60.46875],[-175.78125,59.0625]]]},"properties":{"n":195}},{"type":"Feature","geometry":{"type":"Polygon","coordinates":[[[-167.34375,57.65625],[-165.9375,57.65625],[-165.9375,59.0625],[-167.34375,59.0625],[-167.34375,57.65625]]]},"properties":{"n":191}},{"type":"Feature","geometry":{"type":"Polygon","coordinates":[[[-168.75,57.65625],[-167.34375,57.65625],[-167.34375,59.0625],[-168.75,59.0625],[-168.75,57.65625]]]},"properties":{"n":182}},{"type":"Feature","geometry":{"type":"Polygon","coordinates":[[[-174.375,59.0625],[-172.96875,59.0625],[-172.96875,60.46875],[-174.375,60.46875],[-174.375,59.0625]]]},"properties":{"n":182}},{"type":"Feature","geometry":{"type":"Polygon","coordinates":[[[-135,53.4375],[-133.59375,53.4375],[-133.59375,54.84375],[-135,54.84375],[-135,53.4375]]]},"properties":{"n":181}},{"type":"Feature","geometry":{"type":"Polygon","coordinates":[[[-160.3125,53.4375],[-158.90625,53.4375],[-158.90625,54.84375],[-160.3125,54.84375],[-160.3125,53.4375]]]},"properties":{"n":180}},{"type":"Feature","geometry":{"type":"Polygon","coordinates":[[[-165.9375,57.65625],[-164.53125,57.65625],[-164.53125,59.0625],[-165.9375,59.0625],[-165.9375,57.65625]]]},"properties":{"n":173}},{"type":"Feature","geometry":{"type":"Polygon","coordinates":[[[-129.375,49.21875],[-127.96875,49.21875],[-127.96875,50.625],[-129.375,50.625],[-129.375,49.21875]]]},"properties":{"n":165}},{"type":"Feature","geometry":{"type":"Polygon","coordinates":[[[-160.3125,57.65625],[-158.90625,57.65625],[-158.90625,59.0625],[-160.3125,59.0625],[-160.3125,57.65625]]]},"properties":{"n":156}},{"type":"Feature","geometry":{"type":"Polygon","coordinates":[[[-170.15625,53.4375],[-168.75,53.4375],[-168.75,54.84375],[-170.15625,54.84375],[-170.15625,53.4375]]]},"properties":{"n":150}},{"type":"Feature","geometry":{"type":"Polygon","coordinates":[[[-158.90625,53.4375],[-157.5,53.4375],[-157.5,54.84375],[-158.90625,54.84375],[-158.90625,53.4375]]]},"properties":{"n":146}},{"type":"Feature","geometry":{"type":"Polygon","coordinates":[[[-174.375,52.03125],[-172.96875,52.03125],[-172.96875,53.4375],[-174.375,53.4375],[-174.375,52.03125]]]},"properties":{"n":131}},{"type":"Feature","geometry":{"type":"Polygon","coordinates":[[[-172.96875,59.0625],[-171.5625,59.0625],[-171.5625,60.46875],[-172.96875,60.46875],[-172.96875,59.0625]]]},"properties":{"n":125}},{"type":"Feature","geometry":{"type":"Polygon","coordinates":[[[-175.78125,52.03125],[-174.375,52.03125],[-174.375,53.4375],[-175.78125,53.4375],[-175.78125,52.03125]]]},"properties":{"n":123}},{"type":"Feature","geometry":{"type":"Polygon","coordinates":[[[-178.59375,57.65625],[-177.1875,57.65625],[-177.1875,59.0625],[-178.59375,59.0625],[-178.59375,57.65625]]]},"properties":{"n":96}},{"type":"Feature","geometry":{"type":"Polygon","coordinates":[[[-147.65625,59.0625],[-146.25,59.0625],[-146.25,60.46875],[-147.65625,60.46875],[-147.65625,59.0625]]]},"properties":{"n":84}},{"type":"Feature","geometry":{"type":"Polygon","coordinates":[[[-153.28125,59.0625],[-151.875,59.0625],[-151.875,60.46875],[-153.28125,60.46875],[-153.28125,59.0625]]]},"properties":{"n":78}},{"type":"Feature","geometry":{"type":"Polygon","coordinates":[[[-164.53125,59.0625],[-163.125,59.0625],[-163.125,60.46875],[-164.53125,60.46875],[-164.53125,59.0625]]]},"properties":{"n":76}},{"type":"Feature","geometry":{"type":"Polygon","coordinates":[[[-171.5625,53.4375],[-170.15625,53.4375],[-170.15625,54.84375],[-171.5625,54.84375],[-171.5625,53.4375]]]},"properties":{"n":75}},{"type":"Feature","geometry":{"type":"Polygon","coordinates":[[[-178.59375,50.625],[-177.1875,50.625],[-177.1875,52.03125],[-178.59375,52.03125],[-178.59375,50.625]]]},"properties":{"n":74}},{"type":"Feature","geometry":{"type":"Polygon","coordinates":[[[172.96875,52.03125],[174.375,52.03125],[174.375,53.4375],[172.96875,53.4375],[172.96875,52.03125]]]},"properties":{"n":71}},{"type":"Feature","geometry":{"type":"Polygon","coordinates":[[[-172.96875,52.03125],[-171.5625,52.03125],[-171.5625,53.4375],[-172.96875,53.4375],[-172.96875,52.03125]]]},"properties":{"n":65}},{"type":"Feature","geometry":{"type":"Polygon","coordinates":[[[175.78125,60.46875],[177.1875,60.46875],[177.1875,61.875],[175.78125,61.875],[175.78125,60.46875]]]},"properties":{"n":63}},{"type":"Feature","geometry":{"type":"Polygon","coordinates":[[[164.53125,57.65625],[165.9375,57.65625],[165.9375,59.0625],[164.53125,59.0625],[164.53125,57.65625]]]},"properties":{"n":63}},{"type":"Feature","geometry":{"type":"Polygon","coordinates":[[[161.71875,53.4375],[163.125,53.4375],[163.125,54.84375],[161.71875,54.84375],[161.71875,53.4375]]]},"properties":{"n":63}},{"type":"Feature","geometry":{"type":"Polygon","coordinates":[[[-180,59.0625],[-178.59375,59.0625],[-178.59375,60.46875],[-180,60.46875],[-180,59.0625]]]},"properties":{"n":62}},{"type":"Feature","geometry":{"type":"Polygon","coordinates":[[[-149.0625,60.46875],[-147.65625,60.46875],[-147.65625,61.875],[-149.0625,61.875],[-149.0625,60.46875]]]},"properties":{"n":61}},{"type":"Feature","geometry":{"type":"Polygon","coordinates":[[[178.59375,50.625],[180,50.625],[180,52.03125],[178.59375,52.03125],[178.59375,50.625]]]},"properties":{"n":60}},{"type":"Feature","geometry":{"type":"Polygon","coordinates":[[[177.1875,50.625],[178.59375,50.625],[178.59375,52.03125],[177.1875,52.03125],[177.1875,50.625]]]},"properties":{"n":60}},{"type":"Feature","geometry":{"type":"Polygon","coordinates":[[[-151.875,59.0625],[-150.46875,59.0625],[-150.46875,60.46875],[-151.875,60.46875],[-151.875,59.0625]]]},"properties":{"n":60}},{"type":"Feature","geometry":{"type":"Polygon","coordinates":[[[175.78125,50.625],[177.1875,50.625],[177.1875,52.03125],[175.78125,52.03125],[175.78125,50.625]]]},"properties":{"n":59}},{"type":"Feature","geometry":{"type":"Polygon","coordinates":[[[-168.75,52.03125],[-167.34375,52.03125],[-167.34375,53.4375],[-168.75,53.4375],[-168.75,52.03125]]]},"properties":{"n":57}},{"type":"Feature","geometry":{"type":"Polygon","coordinates":[[[-171.5625,52.03125],[-170.15625,52.03125],[-170.15625,53.4375],[-171.5625,53.4375],[-171.5625,52.03125]]]},"properties":{"n":55}},{"type":"Feature","geometry":{"type":"Polygon","coordinates":[[[-180,52.03125],[-178.59375,52.03125],[-178.59375,53.4375],[-180,53.4375],[-180,52.03125]]]},"properties":{"n":55}},{"type":"Feature","geometry":{"type":"Polygon","coordinates":[[[174.375,52.03125],[175.78125,52.03125],[175.78125,53.4375],[174.375,53.4375],[174.375,52.03125]]]},"properties":{"n":50}},{"type":"Feature","geometry":{"type":"Polygon","coordinates":[[[-171.5625,59.0625],[-170.15625,59.0625],[-170.15625,60.46875],[-171.5625,60.46875],[-171.5625,59.0625]]]},"properties":{"n":48}},{"type":"Feature","geometry":{"type":"Polygon","coordinates":[[[-132.1875,50.625],[-130.78125,50.625],[-130.78125,52.03125],[-132.1875,52.03125],[-132.1875,50.625]]]},"properties":{"n":47}},{"type":"Feature","geometry":{"type":"Polygon","coordinates":[[[-147.65625,60.46875],[-146.25,60.46875],[-146.25,61.875],[-147.65625,61.875],[-147.65625,60.46875]]]},"properties":{"n":43}},{"type":"Feature","geometry":{"type":"Polygon","coordinates":[[[-135,56.25],[-133.59375,56.25],[-133.59375,57.65625],[-135,57.65625],[-135,56.25]]]},"properties":{"n":38}},{"type":"Feature","geometry":{"type":"Polygon","coordinates":[[[-170.15625,59.0625],[-168.75,59.0625],[-168.75,60.46875],[-170.15625,60.46875],[-170.15625,59.0625]]]},"properties":{"n":38}},{"type":"Feature","geometry":{"type":"Polygon","coordinates":[[[-178.59375,60.46875],[-177.1875,60.46875],[-177.1875,61.875],[-178.59375,61.875],[-178.59375,60.46875]]]},"properties":{"n":38}},{"type":"Feature","geometry":{"type":"Polygon","coordinates":[[[-174.375,50.625],[-172.96875,50.625],[-172.96875,52.03125],[-174.375,52.03125],[-174.375,50.625]]]},"properties":{"n":37}},{"type":"Feature","geometry":{"type":"Polygon","coordinates":[[[-177.1875,60.46875],[-175.78125,60.46875],[-175.78125,61.875],[-177.1875,61.875],[-177.1875,60.46875]]]},"properties":{"n":35}},{"type":"Feature","geometry":{"type":"Polygon","coordinates":[[[-170.15625,52.03125],[-168.75,52.03125],[-168.75,53.4375],[-170.15625,53.4375],[-170.15625,52.03125]]]},"properties":{"n":35}},{"type":"Feature","geometry":{"type":"Polygon","coordinates":[[[-135,57.65625],[-133.59375,57.65625],[-133.59375,59.0625],[-135,59.0625],[-135,57.65625]]]},"properties":{"n":34}},{"type":"Feature","geometry":{"type":"Polygon","coordinates":[[[-137.8125,57.65625],[-136.40625,57.65625],[-136.40625,59.0625],[-137.8125,59.0625],[-137.8125,57.65625]]]},"properties":{"n":32}},{"type":"Feature","geometry":{"type":"Polygon","coordinates":[[[-126.5625,50.625],[-125.15625,50.625],[-125.15625,52.03125],[-126.5625,52.03125],[-126.5625,50.625]]]},"properties":{"n":31}},{"type":"Feature","geometry":{"type":"Polygon","coordinates":[[[-177.1875,52.03125],[-175.78125,52.03125],[-175.78125,53.4375],[-177.1875,53.4375],[-177.1875,52.03125]]]},"properties":{"n":31}},{"type":"Feature","geometry":{"type":"Polygon","coordinates":[[[-172.96875,50.625],[-171.5625,50.625],[-171.5625,52.03125],[-172.96875,52.03125],[-172.96875,50.625]]]},"properties":{"n":30}},{"type":"Feature","geometry":{"type":"Polygon","coordinates":[[[142.03125,39.375],[143.4375,39.375],[143.4375,40.78125],[142.03125,40.78125],[142.03125,39.375]]]},"properties":{"n":29}},{"type":"Feature","geometry":{"type":"Polygon","coordinates":[[[-150.46875,56.25],[-149.0625,56.25],[-149.0625,57.65625],[-150.46875,57.65625],[-150.46875,56.25]]]},"properties":{"n":29}},{"type":"Feature","geometry":{"type":"Polygon","coordinates":[[[-175.78125,50.625],[-174.375,50.625],[-174.375,52.03125],[-175.78125,52.03125],[-175.78125,50.625]]]},"properties":{"n":29}},{"type":"Feature","geometry":{"type":"Polygon","coordinates":[[[-146.25,59.0625],[-144.84375,59.0625],[-144.84375,60.46875],[-146.25,60.46875],[-146.25,59.0625]]]},"properties":{"n":26}},{"type":"Feature","geometry":{"type":"Polygon","coordinates":[[[-135,54.84375],[-133.59375,54.84375],[-133.59375,56.25],[-135,56.25],[-135,54.84375]]]},"properties":{"n":25}},{"type":"Feature","geometry":{"type":"Polygon","coordinates":[[[-180,50.625],[-178.59375,50.625],[-178.59375,52.03125],[-180,52.03125],[-180,50.625]]]},"properties":{"n":25}},{"type":"Feature","geometry":{"type":"Polygon","coordinates":[[[-123.75,46.40625],[-122.34375,46.40625],[-122.34375,47.8125],[-123.75,47.8125],[-123.75,46.40625]]]},"properties":{"n":23}},{"type":"Feature","geometry":{"type":"Polygon","coordinates":[[[-165.9375,59.0625],[-164.53125,59.0625],[-164.53125,60.46875],[-165.9375,60.46875],[-165.9375,59.0625]]]},"properties":{"n":23}},{"type":"Feature","geometry":{"type":"Polygon","coordinates":[[[-168.75,59.0625],[-167.34375,59.0625],[-167.34375,60.46875],[-168.75,60.46875],[-168.75,59.0625]]]},"properties":{"n":23}},{"type":"Feature","geometry":{"type":"Polygon","coordinates":[[[-136.40625,56.25],[-135,56.25],[-135,57.65625],[-136.40625,57.65625],[-136.40625,56.25]]]},"properties":{"n":22}},{"type":"Feature","geometry":{"type":"Polygon","coordinates":[[[-144.84375,59.0625],[-143.4375,59.0625],[-143.4375,60.46875],[-144.84375,60.46875],[-144.84375,59.0625]]]},"properties":{"n":20}},{"type":"Feature","geometry":{"type":"Polygon","coordinates":[[[-157.5,53.4375],[-156.09375,53.4375],[-156.09375,54.84375],[-157.5,54.84375],[-157.5,53.4375]]]},"properties":{"n":20}},{"type":"Feature","geometry":{"type":"Polygon","coordinates":[[[-172.96875,54.84375],[-171.5625,54.84375],[-171.5625,56.25],[-172.96875,56.25],[-172.96875,54.84375]]]},"properties":{"n":20}},{"type":"Feature","geometry":{"type":"Polygon","coordinates":[[[175.78125,52.03125],[177.1875,52.03125],[177.1875,53.4375],[175.78125,53.4375],[175.78125,52.03125]]]},"properties":{"n":19}},{"type":"Feature","geometry":{"type":"Polygon","coordinates":[[[142.03125,37.96875],[143.4375,37.96875],[143.4375,39.375],[142.03125,39.375],[142.03125,37.96875]]]},"properties":{"n":19}},{"type":"Feature","geometry":{"type":"Polygon","coordinates":[[[-142.03125,59.0625],[-140.625,59.0625],[-140.625,60.46875],[-142.03125,60.46875],[-142.03125,59.0625]]]},"properties":{"n":19}},{"type":"Feature","geometry":{"type":"Polygon","coordinates":[[[-172.96875,53.4375],[-171.5625,53.4375],[-171.5625,54.84375],[-172.96875,54.84375],[-172.96875,53.4375]]]},"properties":{"n":19}},{"type":"Feature","geometry":{"type":"Polygon","coordinates":[[[-168.75,64.6875],[-167.34375,64.6875],[-167.34375,66.09375],[-168.75,66.09375],[-168.75,64.6875]]]},"properties":{"n":18}},{"type":"Feature","geometry":{"type":"Polygon","coordinates":[[[-167.34375,52.03125],[-165.9375,52.03125],[-165.9375,53.4375],[-167.34375,53.4375],[-167.34375,52.03125]]]},"properties":{"n":18}},{"type":"Feature","geometry":{"type":"Polygon","coordinates":[[[-154.6875,71.71875],[-153.28125,71.71875],[-153.28125,73.125],[-154.6875,73.125],[-154.6875,71.71875]]]},"properties":{"n":17}},{"type":"Feature","geometry":{"type":"Polygon","coordinates":[[[-143.4375,59.0625],[-142.03125,59.0625],[-142.03125,60.46875],[-143.4375,60.46875],[-143.4375,59.0625]]]},"properties":{"n":17}},{"type":"Feature","geometry":{"type":"Polygon","coordinates":[[[-174.375,60.46875],[-172.96875,60.46875],[-172.96875,61.875],[-174.375,61.875],[-174.375,60.46875]]]},"properties":{"n":17}},{"type":"Feature","geometry":{"type":"Polygon","coordinates":[[[-178.59375,54.84375],[-177.1875,54.84375],[-177.1875,56.25],[-178.59375,56.25],[-178.59375,54.84375]]]},"properties":{"n":16}},{"type":"Feature","geometry":{"type":"Polygon","coordinates":[[[-133.59375,56.25],[-132.1875,56.25],[-132.1875,57.65625],[-133.59375,57.65625],[-133.59375,56.25]]]},"properties":{"n":15}},{"type":"Feature","geometry":{"type":"Polygon","coordinates":[[[-125.15625,45],[-123.75,45],[-123.75,46.40625],[-125.15625,46.40625],[-125.15625,45]]]},"properties":{"n":15}},{"type":"Feature","geometry":{"type":"Polygon","coordinates":[[[-161.71875,57.65625],[-160.3125,57.65625],[-160.3125,59.0625],[-161.71875,59.0625],[-161.71875,57.65625]]]},"properties":{"n":15}},{"type":"Feature","geometry":{"type":"Polygon","coordinates":[[[-180,60.46875],[-178.59375,60.46875],[-178.59375,61.875],[-180,61.875],[-180,60.46875]]]},"properties":{"n":15}},{"type":"Feature","geometry":{"type":"Polygon","coordinates":[[[-130.78125,54.84375],[-129.375,54.84375],[-129.375,56.25],[-130.78125,56.25],[-130.78125,54.84375]]]},"properties":{"n":14}},{"type":"Feature","geometry":{"type":"Polygon","coordinates":[[[-153.28125,54.84375],[-151.875,54.84375],[-151.875,56.25],[-153.28125,56.25],[-153.28125,54.84375]]]},"properties":{"n":14}},{"type":"Feature","geometry":{"type":"Polygon","coordinates":[[[-167.34375,63.28125],[-165.9375,63.28125],[-165.9375,64.6875],[-167.34375,64.6875],[-167.34375,63.28125]]]},"properties":{"n":14}},{"type":"Feature","geometry":{"type":"Polygon","coordinates":[[[-165.9375,52.03125],[-164.53125,52.03125],[-164.53125,53.4375],[-165.9375,53.4375],[-165.9375,52.03125]]]},"properties":{"n":14}},{"type":"Feature","geometry":{"type":"Polygon","coordinates":[[[-125.15625,43.59375],[-123.75,43.59375],[-123.75,45],[-125.15625,45],[-125.15625,43.59375]]]},"properties":{"n":14}},{"type":"Feature","geometry":{"type":"Polygon","coordinates":[[[174.375,50.625],[175.78125,50.625],[175.78125,52.03125],[174.375,52.03125],[174.375,50.625]]]},"properties":{"n":13}},{"type":"Feature","geometry":{"type":"Polygon","coordinates":[[[-136.40625,59.0625],[-135,59.0625],[-135,60.46875],[-136.40625,60.46875],[-136.40625,59.0625]]]},"properties":{"n":13}},{"type":"Feature","geometry":{"type":"Polygon","coordinates":[[[-136.40625,57.65625],[-135,57.65625],[-135,59.0625],[-136.40625,59.0625],[-136.40625,57.65625]]]},"properties":{"n":13}},{"type":"Feature","geometry":{"type":"Polygon","coordinates":[[[-168.75,63.28125],[-167.34375,63.28125],[-167.34375,64.6875],[-168.75,64.6875],[-168.75,63.28125]]]},"properties":{"n":13}},{"type":"Feature","geometry":{"type":"Polygon","coordinates":[[[-168.75,61.875],[-167.34375,61.875],[-167.34375,63.28125],[-168.75,63.28125],[-168.75,61.875]]]},"properties":{"n":13}},{"type":"Feature","geometry":{"type":"Polygon","coordinates":[[[-175.78125,60.46875],[-174.375,60.46875],[-174.375,61.875],[-175.78125,61.875],[-175.78125,60.46875]]]},"properties":{"n":13}},{"type":"Feature","geometry":{"type":"Polygon","coordinates":[[[-125.15625,46.40625],[-123.75,46.40625],[-123.75,47.8125],[-125.15625,47.8125],[-125.15625,46.40625]]]},"properties":{"n":12}},{"type":"Feature","geometry":{"type":"Polygon","coordinates":[[[-139.21875,57.65625],[-137.8125,57.65625],[-137.8125,59.0625],[-139.21875,59.0625],[-139.21875,57.65625]]]},"properties":{"n":12}},{"type":"Feature","geometry":{"type":"Polygon","coordinates":[[[-147.65625,57.65625],[-146.25,57.65625],[-146.25,59.0625],[-147.65625,59.0625],[-147.65625,57.65625]]]},"properties":{"n":12}},{"type":"Feature","geometry":{"type":"Polygon","coordinates":[[[-168.75,60.46875],[-167.34375,60.46875],[-167.34375,61.875],[-168.75,61.875],[-168.75,60.46875]]]},"properties":{"n":12}},{"type":"Feature","geometry":{"type":"Polygon","coordinates":[[[140.625,36.5625],[142.03125,36.5625],[142.03125,37.96875],[140.625,37.96875],[140.625,36.5625]]]},"properties":{"n":11}},{"type":"Feature","geometry":{"type":"Polygon","coordinates":[[[-140.625,57.65625],[-139.21875,57.65625],[-139.21875,59.0625],[-140.625,59.0625],[-140.625,57.65625]]]},"properties":{"n":11}},{"type":"Feature","geometry":{"type":"Polygon","coordinates":[[[178.59375,52.03125],[180,52.03125],[180,53.4375],[178.59375,53.4375],[178.59375,52.03125]]]},"properties":{"n":10}},{"type":"Feature","geometry":{"type":"Polygon","coordinates":[[[171.5625,52.03125],[172.96875,52.03125],[172.96875,53.4375],[171.5625,53.4375],[171.5625,52.03125]]]},"properties":{"n":10}},{"type":"Feature","geometry":{"type":"Polygon","coordinates":[[[-167.34375,68.90625],[-165.9375,68.90625],[-165.9375,70.3125],[-167.34375,70.3125],[-167.34375,68.90625]]]},"properties":{"n":10}},{"type":"Feature","geometry":{"type":"Polygon","coordinates":[[[-163.125,57.65625],[-161.71875,57.65625],[-161.71875,59.0625],[-163.125,59.0625],[-163.125,57.65625]]]},"properties":{"n":10}},{"type":"Feature","geometry":{"type":"Polygon","coordinates":[[[-170.15625,60.46875],[-168.75,60.46875],[-168.75,61.875],[-170.15625,61.875],[-170.15625,60.46875]]]},"properties":{"n":10}},{"type":"Feature","geometry":{"type":"Polygon","coordinates":[[[-177.1875,61.875],[-175.78125,61.875],[-175.78125,63.28125],[-177.1875,63.28125],[-177.1875,61.875]]]},"properties":{"n":9}},{"type":"Feature","geometry":{"type":"Polygon","coordinates":[[[-172.96875,60.46875],[-171.5625,60.46875],[-171.5625,61.875],[-172.96875,61.875],[-172.96875,60.46875]]]},"properties":{"n":9}},{"type":"Feature","geometry":{"type":"Polygon","coordinates":[[[-174.375,61.875],[-172.96875,61.875],[-172.96875,63.28125],[-174.375,63.28125],[-174.375,61.875]]]},"properties":{"n":8}},{"type":"Feature","geometry":{"type":"Polygon","coordinates":[[[-174.375,54.84375],[-172.96875,54.84375],[-172.96875,56.25],[-174.375,56.25],[-174.375,54.84375]]]},"properties":{"n":8}},{"type":"Feature","geometry":{"type":"Polygon","coordinates":[[[119.53125,8.4375],[120.9375,8.4375],[120.9375,9.84375],[119.53125,9.84375],[119.53125,8.4375]]]},"properties":{"n":7}},{"type":"Feature","geometry":{"type":"Polygon","coordinates":[[[-129.375,53.4375],[-127.96875,53.4375],[-127.96875,54.84375],[-129.375,54.84375],[-129.375,53.4375]]]},"properties":{"n":7}},{"type":"Feature","geometry":{"type":"Polygon","coordinates":[[[-168.75,66.09375],[-167.34375,66.09375],[-167.34375,67.5],[-168.75,67.5],[-168.75,66.09375]]]},"properties":{"n":7}},{"type":"Feature","geometry":{"type":"Polygon","coordinates":[[[-167.34375,61.875],[-165.9375,61.875],[-165.9375,63.28125],[-167.34375,63.28125],[-167.34375,61.875]]]},"properties":{"n":7}},{"type":"Feature","geometry":{"type":"Polygon","coordinates":[[[139.21875,40.78125],[140.625,40.78125],[140.625,42.1875],[139.21875,42.1875],[139.21875,40.78125]]]},"properties":{"n":6}},{"type":"Feature","geometry":{"type":"Polygon","coordinates":[[[140.625,37.96875],[142.03125,37.96875],[142.03125,39.375],[140.625,39.375],[140.625,37.96875]]]},"properties":{"n":6}},{"type":"Feature","geometry":{"type":"Polygon","coordinates":[[[-153.28125,70.3125],[-151.875,70.3125],[-151.875,71.71875],[-153.28125,71.71875],[-153.28125,70.3125]]]},"properties":{"n":6}},{"type":"Feature","geometry":{"type":"Polygon","coordinates":[[[-154.6875,70.3125],[-153.28125,70.3125],[-153.28125,71.71875],[-154.6875,71.71875],[-154.6875,70.3125]]]},"properties":{"n":6}},{"type":"Feature","geometry":{"type":"Polygon","coordinates":[[[-167.34375,60.46875],[-165.9375,60.46875],[-165.9375,61.875],[-167.34375,61.875],[-167.34375,60.46875]]]},"properties":{"n":6}},{"type":"Feature","geometry":{"type":"Polygon","coordinates":[[[-125.15625,39.375],[-123.75,39.375],[-123.75,40.78125],[-125.15625,40.78125],[-125.15625,39.375]]]},"properties":{"n":6}},{"type":"Feature","geometry":{"type":"Polygon","coordinates":[[[-132.1875,54.84375],[-130.78125,54.84375],[-130.78125,56.25],[-132.1875,56.25],[-132.1875,54.84375]]]},"properties":{"n":5}},{"type":"Feature","geometry":{"type":"Polygon","coordinates":[[[-161.71875,70.3125],[-160.3125,70.3125],[-160.3125,71.71875],[-161.71875,71.71875],[-161.71875,70.3125]]]},"properties":{"n":5}},{"type":"Feature","geometry":{"type":"Polygon","coordinates":[[[-167.34375,67.5],[-165.9375,67.5],[-165.9375,68.90625],[-167.34375,68.90625],[-167.34375,67.5]]]},"properties":{"n":5}},{"type":"Feature","geometry":{"type":"Polygon","coordinates":[[[-165.9375,66.09375],[-164.53125,66.09375],[-164.53125,67.5],[-165.9375,67.5],[-165.9375,66.09375]]]},"properties":{"n":5}},{"type":"Feature","geometry":{"type":"Polygon","coordinates":[[[-158.90625,57.65625],[-157.5,57.65625],[-157.5,59.0625],[-158.90625,59.0625],[-158.90625,57.65625]]]},"properties":{"n":5}},{"type":"Feature","geometry":{"type":"Polygon","coordinates":[[[-171.5625,60.46875],[-170.15625,60.46875],[-170.15625,61.875],[-171.5625,61.875],[-171.5625,60.46875]]]},"properties":{"n":5}},{"type":"Feature","geometry":{"type":"Polygon","coordinates":[[[177.1875,52.03125],[178.59375,52.03125],[178.59375,53.4375],[177.1875,53.4375],[177.1875,52.03125]]]},"properties":{"n":4}},{"type":"Feature","geometry":{"type":"Polygon","coordinates":[[[139.21875,45],[140.625,45],[140.625,46.40625],[139.21875,46.40625],[139.21875,45]]]},"properties":{"n":4}},{"type":"Feature","geometry":{"type":"Polygon","coordinates":[[[139.21875,42.1875],[140.625,42.1875],[140.625,43.59375],[139.21875,43.59375],[139.21875,42.1875]]]},"properties":{"n":4}},{"type":"Feature","geometry":{"type":"Polygon","coordinates":[[[139.21875,35.15625],[140.625,35.15625],[140.625,36.5625],[139.21875,36.5625],[139.21875,35.15625]]]},"properties":{"n":4}},{"type":"Feature","geometry":{"type":"Polygon","coordinates":[[[129.375,36.5625],[130.78125,36.5625],[130.78125,37.96875],[129.375,37.96875],[129.375,36.5625]]]},"properties":{"n":4}},{"type":"Feature","geometry":{"type":"Polygon","coordinates":[[[132.1875,35.15625],[133.59375,35.15625],[133.59375,36.5625],[132.1875,36.5625],[132.1875,35.15625]]]},"properties":{"n":4}},{"type":"Feature","geometry":{"type":"Polygon","coordinates":[[[127.96875,36.5625],[129.375,36.5625],[129.375,37.96875],[127.96875,37.96875],[127.96875,36.5625]]]},"properties":{"n":4}},{"type":"Feature","geometry":{"type":"Polygon","coordinates":[[[-156.09375,71.71875],[-154.6875,71.71875],[-154.6875,73.125],[-156.09375,73.125],[-156.09375,71.71875]]]},"properties":{"n":4}},{"type":"Feature","geometry":{"type":"Polygon","coordinates":[[[-168.75,67.5],[-167.34375,67.5],[-167.34375,68.90625],[-168.75,68.90625],[-168.75,67.5]]]},"properties":{"n":4}},{"type":"Feature","geometry":{"type":"Polygon","coordinates":[[[-140.625,59.0625],[-139.21875,59.0625],[-139.21875,60.46875],[-140.625,60.46875],[-140.625,59.0625]]]},"properties":{"n":4}},{"type":"Feature","geometry":{"type":"Polygon","coordinates":[[[-137.8125,56.25],[-136.40625,56.25],[-136.40625,57.65625],[-137.8125,57.65625],[-137.8125,56.25]]]},"properties":{"n":4}},{"type":"Feature","geometry":{"type":"Polygon","coordinates":[[[-142.03125,57.65625],[-140.625,57.65625],[-140.625,59.0625],[-142.03125,59.0625],[-142.03125,57.65625]]]},"properties":{"n":4}},{"type":"Feature","geometry":{"type":"Polygon","coordinates":[[[-167.34375,66.09375],[-165.9375,66.09375],[-165.9375,67.5],[-167.34375,67.5],[-167.34375,66.09375]]]},"properties":{"n":4}},{"type":"Feature","geometry":{"type":"Polygon","coordinates":[[[-170.15625,64.6875],[-168.75,64.6875],[-168.75,66.09375],[-170.15625,66.09375],[-170.15625,64.6875]]]},"properties":{"n":4}},{"type":"Feature","geometry":{"type":"Polygon","coordinates":[[[-174.375,63.28125],[-172.96875,63.28125],[-172.96875,64.6875],[-174.375,64.6875],[-174.375,63.28125]]]},"properties":{"n":4}},{"type":"Feature","geometry":{"type":"Polygon","coordinates":[[[-172.96875,61.875],[-171.5625,61.875],[-171.5625,63.28125],[-172.96875,63.28125],[-172.96875,61.875]]]},"properties":{"n":4}},{"type":"Feature","geometry":{"type":"Polygon","coordinates":[[[-175.78125,56.25],[-174.375,56.25],[-174.375,57.65625],[-175.78125,57.65625],[-175.78125,56.25]]]},"properties":{"n":4}},{"type":"Feature","geometry":{"type":"Polygon","coordinates":[[[-180,57.65625],[-178.59375,57.65625],[-178.59375,59.0625],[-180,59.0625],[-180,57.65625]]]},"properties":{"n":4}},{"type":"Feature","geometry":{"type":"Polygon","coordinates":[[[-125.15625,42.1875],[-123.75,42.1875],[-123.75,43.59375],[-125.15625,43.59375],[-125.15625,42.1875]]]},"properties":{"n":4}},{"type":"Feature","geometry":{"type":"Polygon","coordinates":[[[-156.09375,70.3125],[-154.6875,70.3125],[-154.6875,71.71875],[-156.09375,71.71875],[-156.09375,70.3125]]]},"properties":{"n":3}},{"type":"Feature","geometry":{"type":"Polygon","coordinates":[[[-164.53125,67.5],[-163.125,67.5],[-163.125,68.90625],[-164.53125,68.90625],[-164.53125,67.5]]]},"properties":{"n":3}},{"type":"Feature","geometry":{"type":"Polygon","coordinates":[[[-165.9375,67.5],[-164.53125,67.5],[-164.53125,68.90625],[-165.9375,68.90625],[-165.9375,67.5]]]},"properties":{"n":3}},{"type":"Feature","geometry":{"type":"Polygon","coordinates":[[[-175.78125,70.3125],[-174.375,70.3125],[-174.375,71.71875],[-175.78125,71.71875],[-175.78125,70.3125]]]},"properties":{"n":3}},{"type":"Feature","geometry":{"type":"Polygon","coordinates":[[[-146.25,60.46875],[-144.84375,60.46875],[-144.84375,61.875],[-146.25,61.875],[-146.25,60.46875]]]},"properties":{"n":3}},{"type":"Feature","geometry":{"type":"Polygon","coordinates":[[[-136.40625,54.84375],[-135,54.84375],[-135,56.25],[-136.40625,56.25],[-136.40625,54.84375]]]},"properties":{"n":3}},{"type":"Feature","geometry":{"type":"Polygon","coordinates":[[[-163.125,66.09375],[-161.71875,66.09375],[-161.71875,67.5],[-163.125,67.5],[-163.125,66.09375]]]},"properties":{"n":3}},{"type":"Feature","geometry":{"type":"Polygon","coordinates":[[[-175.78125,61.875],[-174.375,61.875],[-174.375,63.28125],[-175.78125,63.28125],[-175.78125,61.875]]]},"properties":{"n":3}},{"type":"Feature","geometry":{"type":"Polygon","coordinates":[[[-174.375,53.4375],[-172.96875,53.4375],[-172.96875,54.84375],[-174.375,54.84375],[-174.375,53.4375]]]},"properties":{"n":3}},{"type":"Feature","geometry":{"type":"Polygon","coordinates":[[[-175.78125,53.4375],[-174.375,53.4375],[-174.375,54.84375],[-175.78125,54.84375],[-175.78125,53.4375]]]},"properties":{"n":3}},{"type":"Feature","geometry":{"type":"Polygon","coordinates":[[[178.59375,61.875],[180,61.875],[180,63.28125],[178.59375,63.28125],[178.59375,61.875]]]},"properties":{"n":2}},{"type":"Feature","geometry":{"type":"Polygon","coordinates":[[[171.5625,56.25],[172.96875,56.25],[172.96875,57.65625],[171.5625,57.65625],[171.5625,56.25]]]},"properties":{"n":2}},{"type":"Feature","geometry":{"type":"Polygon","coordinates":[[[170.15625,52.03125],[171.5625,52.03125],[171.5625,53.4375],[170.15625,53.4375],[170.15625,52.03125]]]},"properties":{"n":2}},{"type":"Feature","geometry":{"type":"Polygon","coordinates":[[[157.5,52.03125],[158.90625,52.03125],[158.90625,53.4375],[157.5,53.4375],[157.5,52.03125]]]},"properties":{"n":2}},{"type":"Feature","geometry":{"type":"Polygon","coordinates":[[[143.4375,43.59375],[144.84375,43.59375],[144.84375,45],[143.4375,45],[143.4375,43.59375]]]},"properties":{"n":2}},{"type":"Feature","geometry":{"type":"Polygon","coordinates":[[[137.8125,42.1875],[139.21875,42.1875],[139.21875,43.59375],[137.8125,43.59375],[137.8125,42.1875]]]},"properties":{"n":2}},{"type":"Feature","geometry":{"type":"Polygon","coordinates":[[[135,39.375],[136.40625,39.375],[136.40625,40.78125],[135,40.78125],[135,39.375]]]},"properties":{"n":2}},{"type":"Feature","geometry":{"type":"Polygon","coordinates":[[[137.8125,36.5625],[139.21875,36.5625],[139.21875,37.96875],[137.8125,37.96875],[137.8125,36.5625]]]},"properties":{"n":2}},{"type":"Feature","geometry":{"type":"Polygon","coordinates":[[[135,35.15625],[136.40625,35.15625],[136.40625,36.5625],[135,36.5625],[135,35.15625]]]},"properties":{"n":2}},{"type":"Feature","geometry":{"type":"Polygon","coordinates":[[[130.78125,42.1875],[132.1875,42.1875],[132.1875,43.59375],[130.78125,43.59375],[130.78125,42.1875]]]},"properties":{"n":2}},{"type":"Feature","geometry":{"type":"Polygon","coordinates":[[[133.59375,36.5625],[135,36.5625],[135,37.96875],[133.59375,37.96875],[133.59375,36.5625]]]},"properties":{"n":2}},{"type":"Feature","geometry":{"type":"Polygon","coordinates":[[[126.5625,36.5625],[127.96875,36.5625],[127.96875,37.96875],[126.5625,37.96875],[126.5625,36.5625]]]},"properties":{"n":2}},{"type":"Feature","geometry":{"type":"Polygon","coordinates":[[[-67.5,45],[-66.09375,45],[-66.09375,46.40625],[-67.5,46.40625],[-67.5,45]]]},"properties":{"n":2}},{"type":"Feature","geometry":{"type":"Polygon","coordinates":[[[-67.5,43.59375],[-66.09375,43.59375],[-66.09375,45],[-67.5,45],[-67.5,43.59375]]]},"properties":{"n":2}},{"type":"Feature","geometry":{"type":"Polygon","coordinates":[[[-85.78125,28.125],[-84.375,28.125],[-84.375,29.53125],[-85.78125,29.53125],[-85.78125,28.125]]]},"properties":{"n":2}},{"type":"Feature","geometry":{"type":"Polygon","coordinates":[[[-122.34375,47.8125],[-120.9375,47.8125],[-120.9375,49.21875],[-122.34375,49.21875],[-122.34375,47.8125]]]},"properties":{"n":2}},{"type":"Feature","geometry":{"type":"Polygon","coordinates":[[[-127.96875,45],[-126.5625,45],[-126.5625,46.40625],[-127.96875,46.40625],[-127.96875,45]]]},"properties":{"n":2}},{"type":"Feature","geometry":{"type":"Polygon","coordinates":[[[-157.5,71.71875],[-156.09375,71.71875],[-156.09375,73.125],[-157.5,73.125],[-157.5,71.71875]]]},"properties":{"n":2}},{"type":"Feature","geometry":{"type":"Polygon","coordinates":[[[-157.5,70.3125],[-156.09375,70.3125],[-156.09375,71.71875],[-157.5,71.71875],[-157.5,70.3125]]]},"properties":{"n":2}},{"type":"Feature","geometry":{"type":"Polygon","coordinates":[[[-158.90625,71.71875],[-157.5,71.71875],[-157.5,73.125],[-158.90625,73.125],[-158.90625,71.71875]]]},"properties":{"n":2}},{"type":"Feature","geometry":{"type":"Polygon","coordinates":[[[-160.3125,71.71875],[-158.90625,71.71875],[-158.90625,73.125],[-160.3125,73.125],[-160.3125,71.71875]]]},"properties":{"n":2}},{"type":"Feature","geometry":{"type":"Polygon","coordinates":[[[-158.90625,70.3125],[-157.5,70.3125],[-157.5,71.71875],[-158.90625,71.71875],[-158.90625,70.3125]]]},"properties":{"n":2}},{"type":"Feature","geometry":{"type":"Polygon","coordinates":[[[-161.71875,71.71875],[-160.3125,71.71875],[-160.3125,73.125],[-161.71875,73.125],[-161.71875,71.71875]]]},"properties":{"n":2}},{"type":"Feature","geometry":{"type":"Polygon","coordinates":[[[-163.125,71.71875],[-161.71875,71.71875],[-161.71875,73.125],[-163.125,73.125],[-163.125,71.71875]]]},"properties":{"n":2}},{"type":"Feature","geometry":{"type":"Polygon","coordinates":[[[-168.75,70.3125],[-167.34375,70.3125],[-167.34375,71.71875],[-168.75,71.71875],[-168.75,70.3125]]]},"properties":{"n":2}},{"type":"Feature","geometry":{"type":"Polygon","coordinates":[[[-164.53125,68.90625],[-163.125,68.90625],[-163.125,70.3125],[-164.53125,70.3125],[-164.53125,68.90625]]]},"properties":{"n":2}},{"type":"Feature","geometry":{"type":"Polygon","coordinates":[[[-172.96875,70.3125],[-171.5625,70.3125],[-171.5625,71.71875],[-172.96875,71.71875],[-172.96875,70.3125]]]},"properties":{"n":2}},{"type":"Feature","geometry":{"type":"Polygon","coordinates":[[[-170.15625,68.90625],[-168.75,68.90625],[-168.75,70.3125],[-170.15625,70.3125],[-170.15625,68.90625]]]},"properties":{"n":2}},{"type":"Feature","geometry":{"type":"Polygon","coordinates":[[[-175.78125,71.71875],[-174.375,71.71875],[-174.375,73.125],[-175.78125,73.125],[-175.78125,71.71875]]]},"properties":{"n":2}},{"type":"Feature","geometry":{"type":"Polygon","coordinates":[[[-154.6875,59.0625],[-153.28125,59.0625],[-153.28125,60.46875],[-154.6875,60.46875],[-154.6875,59.0625]]]},"properties":{"n":2}},{"type":"Feature","geometry":{"type":"Polygon","coordinates":[[[-167.34375,59.0625],[-165.9375,59.0625],[-165.9375,60.46875],[-167.34375,60.46875],[-167.34375,59.0625]]]},"properties":{"n":2}},{"type":"Feature","geometry":{"type":"Polygon","coordinates":[[[-171.5625,66.09375],[-170.15625,66.09375],[-170.15625,67.5],[-171.5625,67.5],[-171.5625,66.09375]]]},"properties":{"n":2}},{"type":"Feature","geometry":{"type":"Polygon","coordinates":[[[-170.15625,61.875],[-168.75,61.875],[-168.75,63.28125],[-170.15625,63.28125],[-170.15625,61.875]]]},"properties":{"n":2}},{"type":"Feature","geometry":{"type":"Polygon","coordinates":[[[-172.96875,63.28125],[-171.5625,63.28125],[-171.5625,64.6875],[-172.96875,64.6875],[-172.96875,63.28125]]]},"properties":{"n":2}},{"type":"Feature","geometry":{"type":"Polygon","coordinates":[[[-175.78125,63.28125],[-174.375,63.28125],[-174.375,64.6875],[-175.78125,64.6875],[-175.78125,63.28125]]]},"properties":{"n":2}},{"type":"Feature","geometry":{"type":"Polygon","coordinates":[[[-177.1875,56.25],[-175.78125,56.25],[-175.78125,57.65625],[-177.1875,57.65625],[-177.1875,56.25]]]},"properties":{"n":2}},{"type":"Feature","geometry":{"type":"Polygon","coordinates":[[[-178.59375,56.25],[-177.1875,56.25],[-177.1875,57.65625],[-178.59375,57.65625],[-178.59375,56.25]]]},"properties":{"n":2}},{"type":"Feature","geometry":{"type":"Polygon","coordinates":[[[-170.15625,50.625],[-168.75,50.625],[-168.75,52.03125],[-170.15625,52.03125],[-170.15625,50.625]]]},"properties":{"n":2}},{"type":"Feature","geometry":{"type":"Polygon","coordinates":[[[-178.59375,49.21875],[-177.1875,49.21875],[-177.1875,50.625],[-178.59375,50.625],[-178.59375,49.21875]]]},"properties":{"n":2}},{"type":"Feature","geometry":{"type":"Polygon","coordinates":[[[-123.75,37.96875],[-122.34375,37.96875],[-122.34375,39.375],[-123.75,39.375],[-123.75,37.96875]]]},"properties":{"n":2}},{"type":"Feature","geometry":{"type":"Polygon","coordinates":[[[174.375,57.65625],[175.78125,57.65625],[175.78125,59.0625],[174.375,59.0625],[174.375,57.65625]]]},"properties":{"n":1}},{"type":"Feature","geometry":{"type":"Polygon","coordinates":[[[172.96875,60.46875],[174.375,60.46875],[174.375,61.875],[172.96875,61.875],[172.96875,60.46875]]]},"properties":{"n":1}},{"type":"Feature","geometry":{"type":"Polygon","coordinates":[[[158.90625,52.03125],[160.3125,52.03125],[160.3125,53.4375],[158.90625,53.4375],[158.90625,52.03125]]]},"properties":{"n":1}},{"type":"Feature","geometry":{"type":"Polygon","coordinates":[[[150.46875,59.0625],[151.875,59.0625],[151.875,60.46875],[150.46875,60.46875],[150.46875,59.0625]]]},"properties":{"n":1}},{"type":"Feature","geometry":{"type":"Polygon","coordinates":[[[149.0625,59.0625],[150.46875,59.0625],[150.46875,60.46875],[149.0625,60.46875],[149.0625,59.0625]]]},"properties":{"n":1}},{"type":"Feature","geometry":{"type":"Polygon","coordinates":[[[135,57.65625],[136.40625,57.65625],[136.40625,59.0625],[135,59.0625],[135,57.65625]]]},"properties":{"n":1}},{"type":"Feature","geometry":{"type":"Polygon","coordinates":[[[154.6875,53.4375],[156.09375,53.4375],[156.09375,54.84375],[154.6875,54.84375],[154.6875,53.4375]]]},"properties":{"n":1}},{"type":"Feature","geometry":{"type":"Polygon","coordinates":[[[156.09375,52.03125],[157.5,52.03125],[157.5,53.4375],[156.09375,53.4375],[156.09375,52.03125]]]},"properties":{"n":1}},{"type":"Feature","geometry":{"type":"Polygon","coordinates":[[[150.46875,46.40625],[151.875,46.40625],[151.875,47.8125],[150.46875,47.8125],[150.46875,46.40625]]]},"properties":{"n":1}},{"type":"Feature","geometry":{"type":"Polygon","coordinates":[[[142.03125,50.625],[143.4375,50.625],[143.4375,52.03125],[142.03125,52.03125],[142.03125,50.625]]]},"properties":{"n":1}},{"type":"Feature","geometry":{"type":"Polygon","coordinates":[[[137.8125,53.4375],[139.21875,53.4375],[139.21875,54.84375],[137.8125,54.84375],[137.8125,53.4375]]]},"properties":{"n":1}},{"type":"Feature","geometry":{"type":"Polygon","coordinates":[[[144.84375,47.8125],[146.25,47.8125],[146.25,49.21875],[144.84375,49.21875],[144.84375,47.8125]]]},"properties":{"n":1}},{"type":"Feature","geometry":{"type":"Polygon","coordinates":[[[142.03125,45],[143.4375,45],[143.4375,46.40625],[142.03125,46.40625],[142.03125,45]]]},"properties":{"n":1}},{"type":"Feature","geometry":{"type":"Polygon","coordinates":[[[119.53125,85.78125],[120.9375,85.78125],[120.9375,87.1875],[119.53125,87.1875],[119.53125,85.78125]]]},"properties":{"n":1}},{"type":"Feature","geometry":{"type":"Polygon","coordinates":[[[144.84375,43.59375],[146.25,43.59375],[146.25,45],[144.84375,45],[144.84375,43.59375]]]},"properties":{"n":1}},{"type":"Feature","geometry":{"type":"Polygon","coordinates":[[[32.34375,74.53125],[33.75,74.53125],[33.75,75.9375],[32.34375,75.9375],[32.34375,74.53125]]]},"properties":{"n":1}},{"type":"Feature","geometry":{"type":"Polygon","coordinates":[[[30.9375,70.3125],[32.34375,70.3125],[32.34375,71.71875],[30.9375,71.71875],[30.9375,70.3125]]]},"properties":{"n":1}},{"type":"Feature","geometry":{"type":"Polygon","coordinates":[[[15.46875,80.15625],[16.875,80.15625],[16.875,81.5625],[15.46875,81.5625],[15.46875,80.15625]]]},"properties":{"n":1}},{"type":"Feature","geometry":{"type":"Polygon","coordinates":[[[73.125,12.65625],[74.53125,12.65625],[74.53125,14.0625],[73.125,14.0625],[73.125,12.65625]]]},"properties":{"n":1}},{"type":"Feature","geometry":{"type":"Polygon","coordinates":[[[74.53125,8.4375],[75.9375,8.4375],[75.9375,9.84375],[74.53125,9.84375],[74.53125,8.4375]]]},"properties":{"n":1}},{"type":"Feature","geometry":{"type":"Polygon","coordinates":[[[-82.96875,29.53125],[-81.5625,29.53125],[-81.5625,30.9375],[-82.96875,30.9375],[-82.96875,29.53125]]]},"properties":{"n":1}},{"type":"Feature","geometry":{"type":"Polygon","coordinates":[[[-133.59375,54.84375],[-132.1875,54.84375],[-132.1875,56.25],[-133.59375,56.25],[-133.59375,54.84375]]]},"properties":{"n":1}},{"type":"Feature","geometry":{"type":"Polygon","coordinates":[[[-167.34375,73.125],[-165.9375,73.125],[-165.9375,74.53125],[-167.34375,74.53125],[-167.34375,73.125]]]},"properties":{"n":1}},{"type":"Feature","geometry":{"type":"Polygon","coordinates":[[[-168.75,68.90625],[-167.34375,68.90625],[-167.34375,70.3125],[-168.75,70.3125],[-168.75,68.90625]]]},"properties":{"n":1}},{"type":"Feature","geometry":{"type":"Polygon","coordinates":[[[-146.25,57.65625],[-144.84375,57.65625],[-144.84375,59.0625],[-146.25,59.0625],[-146.25,57.65625]]]},"properties":{"n":1}},{"type":"Feature","geometry":{"type":"Polygon","coordinates":[[[-150.46875,60.46875],[-149.0625,60.46875],[-149.0625,61.875],[-150.46875,61.875],[-150.46875,60.46875]]]},"properties":{"n":1}},{"type":"Feature","geometry":{"type":"Polygon","coordinates":[[[-157.5,57.65625],[-156.09375,57.65625],[-156.09375,59.0625],[-157.5,59.0625],[-157.5,57.65625]]]},"properties":{"n":1}},{"type":"Feature","geometry":{"type":"Polygon","coordinates":[[[-177.1875,64.6875],[-175.78125,64.6875],[-175.78125,66.09375],[-177.1875,66.09375],[-177.1875,64.6875]]]},"properties":{"n":1}},{"type":"Feature","geometry":{"type":"Polygon","coordinates":[[[-178.59375,63.28125],[-177.1875,63.28125],[-177.1875,64.6875],[-178.59375,64.6875],[-178.59375,63.28125]]]},"properties":{"n":1}},{"type":"Feature","geometry":{"type":"Polygon","coordinates":[[[-180,61.875],[-178.59375,61.875],[-178.59375,63.28125],[-180,63.28125],[-180,61.875]]]},"properties":{"n":1}},{"type":"Feature","geometry":{"type":"Polygon","coordinates":[[[-119.53125,33.75],[-118.125,33.75],[-118.125,35.15625],[-119.53125,35.15625],[-119.53125,33.75]]]},"properties":{"n":1}}]}